name,address,city,state,postal,phone,websites
ABBEY CARPETS S.F.,3301 GEARY BOULEVARD,SAN FRANCISCO,CA,94118,(415) 752-6620,http://sanfrancisco.abbeycarpet.com/
ALDEN'S CARPETS,1663 PLACENTIA AVENUE,COSTA MESA,CA,92626,(949) 646-4838,http://www.aldenscarpets.com/
"ATIYEH BROS,INCORPORATED",6750 S.W. BONITA ROAD,TIGARD,OR,97224,(503) 639-8642,http://www.atiyehbros.com
CAROUSEL  PASADENA,676 EAST GREEN STREET,PASADENA,CA,91101,(626) 795-8085,http://www.carouselfloors.com
"CARPET CONCOURSE, INC.",17472 VENTURA BOULEVARD,ENCINO,CA,91316,(818) 995-6566,not found
CONKLIN BROS SAN JOSE,2250 ALMADEN EXPRESSWAY,SAN JOSE,CA,95125,(408) 266-2250,www.conklinbros.com/
CONTEMPO FLOORS,902 SOUTH BARRINGTON AVE,LOS ANGELES,CA,90049,(310) 826-8063,http://www.contempofloorcoverings.com
DRAPERY WORLD,14736 OXNARD STREET,VAN NUYS,CA,91411,(818) 988-9366,http://www.draperyworldandcarpet.com
EINSTEIN MOOMJY,265 ROUTE 10,WHIPPANY,NJ,7981,(973) 887-3600,http://www.einsteinmoomjy.com
NEWPORT FLOOR COVERING,3500 EAST COAST HIGHWAY,CORONA DEL MAR,CA,92625,(949) 675-1636,http://www.newportfloorcoronadelmar.com
POWERS CARPETS,71-685 HIGHWAY 111,RANCHO MIRAGE,CA,92270,(760) 346-3113,www.powerscarpets.co.uk/
SELDENS INTERIORS,1802 62ND AVE. EAST,TACOMA,WA,98424,(253) 922-5700,http://www.seldens.com/
FLOORS BEAUTIFUL,1200 MAMARONECK AVENUE,WHITE PLAINS,NY,10605,(914) 949-1400,not found
KAPRELIAN ORIENTAL RUGS,1100 GOFFLE ROAD,HAWTHORNE,NJ,7506,(973) 423-5240,www.kaprelian.com
SUNSET FLOOR  EL SEGUNDO,130 W. GRAND AVENUE,EL SEGUNDO,CA,90245,(310) 322-7254,www.sunsetcarpetoneelsegundo.com
"HARRY KATZ FLOOR COV, INC. (2)",450 JERICHO TURNPIKE,MINEOLA,NY,11501,(516) 746-1458,http://www.harrykatzcarpetone.com/
G. FRIED & SONS,800 OLD COUNTRY ROAD,WESTBURY,NY,11590,(516) 333-3900,www.gfriedcarpet.com
JOHN P. SEDLAK INC.,34300 SOLON ROAD,SOLON,OH,44139,(440) 248-2424,http://www.sedlakinteriors.com/
COLLECTORS GALLERY & INTERIORS,30655 DETROIT RD,WESTLAKE,OH,44145,(440) 899-5200,
COUNTRY CARPETS DIST.,207 ROBBINS LANE,SYOSSET,NY,11791,(516) 822-5855,http://www.countrycarpet.com
MARSHALL CARPET COMPANY,1451 SOM CENTER ROAD,MAYFIELD HEIGHTS,OH,44124,(440) 449-4977,http://www.marshallcarpet.com/
*EMW CARPETS AND FURNITURE,2141 S. BROADWAY,DENVER,CO,80210,(303) 744-2754,www.emwcarpets.com
MONTAUK RUG & CARPET,65 PRICE PARKWAY,E. FARMINGDALE,NY,11735,(631) 293-3900,www.montaukcarpet.com
PAUL'S DIST. CO.,700 N E 13TH STREET,FT. LAUDERDALE,FL,33304,(954) 763-6904,http://www.paulscarpet.com/
ELTE CARPETS LIMITED,80 RONALD AVE.,"TORONTO, ONTARIO",CN,M6E 5A2,(416) 785-7885,www.elte.com
DOMINION RUG SALES LTD.,3420 YONGE STREET,"TORONTO, ONTARIO",CN,M4N 2M9,(416) 485-9488,www.dominionrug.com
CUSTOM CARPET SHOP INC,P O BOX 2105,ROCKVILLE,MD,20847,(301) 881-7878,www.customcarpetshop.com/
DESIGNERS NORTH CARPET INC,ONE ALBERTSON AVENUE,ALBERTSON,NY,11507,(516) 484-6161,not found
RIEMER FLOORS INC,1865 TELEGRAPH ROAD,BLOOMFIELD HILLS,MI,48302,(248) 335-3500,www.riemerfloors.com
THE CARPET BOUTIQUE,4103 PONCE DE LEON BLVD,CORAL GABLES,FL,33146,(305) 445-1939,www.thecarpetboutique.com
"BAINBRIDGE FLOORCOVERINGS, INC",156 WINSLOW WAY E.,BAINBRIDGE ISLAND,WA,98110,(206) 842-4717,not found
SUNSET PLAZA CARPET CO.,8256 MELROSE AVE.,LOS ANGELES,CA,90046,(323) 653-5555,www.plazacarpetcompany.com
MELROSE DISCOUNT CARPET,7951 MELROSE AVENUE,LOS ANGELES,CA,90046,(323) 653-4653,http://www.melrosecarpet.com
R.M. PARTNERS,1439 SOUTH STATE COLLEGE,ANAHEIM,CA,92806,(714) 533-6500,not found
LAHAINA CARPET,1036 LIMAHANA #3L,LAHAINA,HI,96761,(808) 661-4268,http://www.manta.com/c/mm7v9h1/lahaina-carpet-interiors-inc
BLAKLEY CORPORATION,8060 E 88TH STREET,INDIANAPOLIS,IN,46256,(317) 842-9600,http://blakleys.com/
FLOW CARPETS,1608 N E 205TH TERRACE,N MIAMI BEACH,FL,33179,(305) 652-2111,www.flowcarpets.com/
VILLAGE CARPETS,1779 WINNETKA ROAD,NORTHFIELD,IL,60093,(847) 446-1600,none
"DORELLO CARPETS & AREA RUGS,",594 MAIN AVENUE,NORWALK,CT,6851,(203) 847-0335,http://www.dorellocarpet.com
B.L. AND L. CORPORATION,1985 SAN RAMON VALLEY BLVD,SAN RAMON,CA,94583,(925) 837-3716,not found
"WESTCHESTER CARPETS, INC.",22133 S VERMONT AVENUE,TORRANCE,CA,90502,(310) 787-0704,westchestercarpetcompany.com
"DESIGN A RUG,INC.",3663 N. FEDERAL HWY,POMPANO BEACH,FL,33064,(954) 943-7487,www.design-a-rug.com
FENWAY FLOOR COVERING CO INC,346 NORTH AVE,NEW ROCHELLE,NY,10801,(914) 235-0400,http://www.facebook.com/pages/Fenway-F-Covering/121943974529383
THE CARPET CONNECTION INC.,1000 CLINT MOORE RD. STE 101,BOCA RATON,FL,33487,(561) 998-8080,www.merchantcircle.com/business/The.Carpet.Connection.561-998-8080
FABER'S RUG CO. INC.,9 CENTRAL ST.,WELLESLEY,MA,2482,(781) 235-5996,http://www.faberrug.com
LEWIS FLOOR & HOME,1840 SKOKIE BLVD.,NORTHBROOK,IL,60062,(847) 835-2400,http://www.lewisfloorandhome.com
NORIEGA FURNITURE,1455 TARAVAL STREET,SAN FRANCISCO,CA,94116,(415) 564-4110,noriegafurniture.com
GREENBAUM HOME FURNISHINGS,P.O. BOX 280,BELLEVUE,WA,98009,(425) 454-2474,www.differentbydesign.com/
ABC CARPETS,888 BROADWAY,NEW YORK,NY,10003,(212) 473-3000,www.abchome.com/
"GLEN PACIFIC CARPETS, INC.",444 FOOTHILL BLVD,LA CANADA,CA,91011,(818) 241-9919,not found
RUSSELL MARTIN CPT. & RUGS LTD,633 N. WASHINGTON ST.,NAPERVILLE,IL,60563,(630) 961-1312,http://www.rmcarpets.com
GCW CARPET WHOLESALERS,555 S. HENDERSON ROAD,KING OF PRUSSIA,PA,19406,(610) 757-2000,none
MYERS CARPET,1500 NORTHSIDE DR.  N.W.,ATLANTA,GA,30318,(404) 352-8141,www.myerscarpet.com
N. GINSBURG & SONS INC,10709 GILROY ROAD STE 150,HUNT VALLEY,MD,21031,(410) 329-9680,http://www.floors-etc.com
STAFFORD FLOOR COVERING,1150 UNIVERSITY AVE.,ROCHESTER,NY,14607,(585) 482-0600,http://www.staffordfloorcovering.com
JIM BOYD'S/DELMARVA,12 W AYLESBURY ROAD,TIMONIUM,MD,21093,(410) 667-0620,http://www.jimboydsflooringamerica.com
MITCHELL'S FLOOR COVERINGS,532 STEVENS AVE,SOLANA BEACH,CA,92075,(858) 755-8880,http://www.getfloored.com/
DICKS WHOLESALE CARPET,36 HEGENBERGER CT,OAKLAND,CA,94621,(510) 633-9533,http://www.dickscarpetoneoakland.com/
"FARSH, INC.",710 JEFFERSON STREET,ALEXANDRIA,VA,22314,(703) 548-8884,not found
"FELIKIAN BROS., INC.",188 N. ROSEMEAD BLVD.,PASADENA,CA,91107,(626) 795-2821,www.felikiancarpet.com
CARPET TRENDS,P.O. BOX 362,RYE,NY,10580,(914) 967-5188,http://carpetrends.com/index.php
"FLOOR FACTORS, INC.",1320 N.W. 17TH AVE.,PORTLAND,OR,97209,(503) 222-9393,http://www.floorfactors.com
A.P.T. CUSTOM CARPETS,75 WEST BEAVER CREEK ROAD #1,ONTARIO,CN,L4B 1K6,(905) 764-1588,not found
THE CARPET YARD,1315 CHAIN BRIDGE RD,MCLEAN,VA,22101,(703) 893-7555,www.thecarpetyard.com
"BARB LIN, INC.",640 N. MAIN STREET,DOYLESTOWN,PA,18901,(215) 348-8116,http://barblincarpetone.hdspd.com/sb.cn
A W RUG,16862 STAGG STREET,VAN NUYS,CA,91406,(818) 994-9993,www.awcarpet.com
SERGENIANS,2805 W. BELTLINE HWY,MADISON,WI,53713,(608) 271-1111,http://www.sergenians.com/
LAWRENCE CONTRACT FURNISHERS,470-B VANDELL WAY,CAMPBELL,CA,95008,(408) 374-7590,http://www.lawrencecontract.com
"CARLSON'S FLOORS, INC.",728 W. STATE STREET,GENEVA,IL,60134,(630) 232-4964,http://www.carlsonsfloors.com/
J & S DESIGNER FLOORING INC.,12 MOUNT KEMBLE AVENUE,MORRISTOWN,NJ,7960,(973) 605-5225,www.jsdesignerflooring.com/
EDDIES CARPET SERVICE LTD.,559 UNION AVE,CAMPBELL,CA,95008,(408) 371-7585,http://eddiescarpet.com/
TURABIAN & SARIYAN,21 NORTHFIELD ST.,GREENWICH,CT,6830,(203) 869-5950,turabianandsariyan.com
NORMAN CARPET,60 GREENFIELD AVENUE,ARDMORE,PA,190031204,(610) 896-9700,http://www.normancarpet.net
FLOOR CONCEPTS,16760 VENTURA BLVD.,ENCINO,CA,91316,(818) 788-1444,www.flooringconcepts.com.au/
PIONEER HOME SUPPLY,P.O. BOX 841,BELMONT,CA,94002,(415) 781-2374,www.pioneerrental.com/
NAZAR CARPET CO.,1 GRAND AVENUE,ENGLEWOOD,NJ,7631,(201) 569-7067,not found
"RUG WORKS, INC.",495 ROUTE 17,PARAMUS,NJ,7652,(201) 967-1250,www.rugworksinc.com
ARROW FLOOR & WALLCOVERING,207 NORTH MAIN STREET,ANDOVER,MA,1810,(978) 247-6060,http://www.arrowfloorcarpetoneandover.com
MERTEL CARPETS INC.,4212 REDWOOD HWY,SAN RAFAEL,CA,94903,(415) 479-2180,www.mertelcarpets.com
LANDRY & ARCARI INTERIORS INC,63 FLINT ST,SALEM,MA,1970,(978) 744-5909,www.landryandarcari.com
A & D FLOOR & CARPET ENT. LTD,1460 3RD AVENUE,NEW YORK,NY,10028,(212) 734-8929,adflooring.co.uk/
REGENCY ROYALE,331 RIO GRANDE SUITE 105,SALT LAKE CITY,UT,84101,(801) 575-6525,http://regencyroyale.com
"WAGNER CARPET CO., INC.",400 HUMBOLDT STREET,SANTA ROSA,CA,95404,(707) 542-5700,http://www.wagnercarpet.com/
ABC CARPET OF FLORIDA,888 BROADWAY,NEW YORK,NY,10003,(561) 279-7777,http://www.abccarpet.com/store/
DAVID TIFTICKJIAN & SONS (2),5225 SHERIDAN DRIVE,WILLIAMSVILLE,NY,14221,(716) 634-8835,http://tiftickjianrugsdirect.com/index/
SIGNATURE FLOORS,41215 ALBRAE STREET,FREMONT,CA,94538,(510) 651-9494,http://www.signaturecarpetonefremont.com
"MADDEN MC FARLAND INTERIORS,",1903 W. 135TH STREET,LEAWOOD,KS,66224,(913) 681-2821,www.maddenmcfarland.com/
LEVI ACQUISITION 4 LLC,6329 BUSCH BLVD,COLUMBUS,OH,43229,(614) 846-4441,not found
"J.P. FLOORING SYSTEMS, INC.",9097 UNION CENTER BLVD,WESTCHESTER,OH,45069,(513) 346-4304,http://www.jpflooring.com
CAROUSEL INC.,3315 SUPERIOR LANE,BOWIE,MD,20715,(301) 262-2650,www.carouselindustries.com/
ERICKSON INTERIORS,1605 N. STATE STREET,BELLINGHAM,WA,98225,(360) 671-5880,not found
HARBOR FLOOR COVERING,3021 ORCHARD LAKE ROAD,KEEGO HARBOR,MI,48320,(248) 681-6460,http://www.harborfloors.com
BARNETTS CRENSHAW CARPET CNTR.,4611 CRENSHAW BLVD.,LOS ANGELES,CA,90043,(323) 295-7731,http://www.crenshawcarpet.com
MCQUEEN'S CARPETS & RUGS,746 E MAPLE ROAD,BIRMINGHAM,MI,48009,(248) 647-5250,dabbierifloorsmcqueens.com
"NIGOHSIAN CARPET & RUG CO.,INC",57 CRAWFORD STREET,NEEDHAM,MA,2494,(781) 444-7847,www.nigohsiancarpet.com
"BOUCHER INTERIORS, INC.",8811 BEVERLY BLVD.,LOS ANGELES,CA,90048,(310) 273-6400,www.creations-interiors.com/
"C & C FLOORING, INC.",77-844 LAS MONTANAS RD.,PALM DESERT,CA,92211,(760) 200-5542,http://www.ccflooring.us/
ROCKY MOUNTAIN FLOOR SYSTEMS,533 EAST HOPKINS,ASPEN,CO,81611,(970) 925-4440,not found
"C MARKARIAN & SONS, INC.",3807 DELAWARE AVE.,KENMORE,NY,14217,(716) 873-8667,http://www.markarianrugs.com
FLOORCOVERING ASSOCIATION,1000 BROOKFOREST AVENUE,SHOREWOOD,IL,60431,(815) 436-7306,http://www.fcainc.com/joliet
"T&G CARPETS, LLC",PO BOX 2208,LEONARD TOWN,MD,20650,(301) 475-3778,not found
B.I. ROSENHAUS & SONS INC.,243 WEST 72ND ST.,NEW YORK,NY,10023,(212) 873-1421,www.birosenhauscarpets.com
CREATIVE FLOORING,2410 BISSONNET,HOUSTON,TX,77005,(713) 522-1181,www.creativeflooringdesign.com
CREATIVE CARPET COMPANY,190 BULLOCK DRIVE #5,"MARKHAM, ONTARIO",CN,L3P 1W2,(905) 471-0111,www.creativecpt.com
HONQUEST FURNITURE FOR LIVING,1455 S BARRINGTON RD,BARRINGTON,IL,60010,(847) 382-1700,http://www.honquest.com
"KUHN FLOORING GALLERY I, INC",12504 WILES RD.,CORAL SPRINGS,FL,33076,(954) 344-4838,www.kuhnflooring.com
"CLIFTON CARPETS, INC.",959 DRAGON STREET,DALLAS,TX,75207,(214) 526-7405,www.cliftoncarpets.com
"NEBRASKA FURNITURE MART, INC.",P.O. BOX 3456,OMAHA,NE,68103,(402) 397-6100,www.nfm.com
"DELNAZ, INC.",199 HWY. 17 SOUTH,ROCHELLE PARK,NJ,7662,(201) 368-8836,www.Alliedcarpet.com
KAHN ENTERPRISES OF PALM BEACH,"1201 U.S HIGHWAY 1,SUITE 13",NORTH PALM BEACH,FL,33408,(561) 622-6333,none
LANE'S CARPET SERVICE,530 E UAHI WAY,WAILUKU,HI,96793,(808) 244-0202,www.lanes-carpets.com/
CARPET SPECIALISTS INC.,2101 STANLEY GAULT PARKWAY,LOUISVILLE,KY,40223,(502) 245-0221,http://www.carpetspecialistsonline.com/
CARPET BROKERS,14455 N 79TH STREET # G/H,SCOTTSDALE,AZ,85260,(480) 998-5633,www.thecarpetbrokers.com.au/
TUTTLE'S,"27751 A LA PAZ ROAD",LAGUNA NIGUEL,CA,92677,(949) 831-1332,http://www.tuttlescarpetonelagunaniguel.com
CREATIVE FLOORING LTD. (2),145 KISCO AVENUE,MT. KISCO,NY,10549,(914) 666-6679,www.creative-floors.co.uk/
ROBB & STUCKY  PHOENIX,15440 NORTH SCOTTSDALE ROAD,SCOTTSDALE,AZ,85254,(480) 922-0011,http://www.robbstucky.com/
CORNELL CARPET & DESIGN,145 E MAIN STREET,MT KISCO,NY,10549,(914) 241-1227,www.cornellcarpets.com
LOUIS SHANKS OF TEXAS,P.O. BOX 10448,AUSTIN,TX,78766,(512) 451-6501,www.louisshanksfurniture.com
"NASHVILLE CARPET CENTER, INC.",515 4TH AVE. SOUTH,NASHVILLE,TN,37210,(615) 244-9591,www.nashvillecarpet.com
"RUGGS BENEDICT, INC.",P.O. BOX 830,AVON,CO,81620,(970) 949-5390,http://ruggsbenedict.com/
"THE CARPET SHOP, INC.",3114 WRIGHTSBORO RD.,AUGUSTA,GA,30909,(706) 736-1491,carpetshop.com/
COLES INTERIOR DESIGN CENTER,2260 COMMERCE AVE STE F,CONCORD,CA,94520,(925) 680-5325,not found
"CARPETMASTER OF LATHAM, LTD.",110 RAILROAD AVENUE,ALBANY,NY,12205,(518) 435-9544,www.carpetmastercarpetonelatham.com/
CARPETS OF DALTON,P.O. BOX 1412,DALTON,GA,30722,(706) 277-3132,https://www.carpetsofdalton.com/
"HEMPHILL'S RUGS & CARPETS,INC.",230 E. 17TH STREET,COSTA MESA,CA,92627,(949) 722-7224,http://www.rugsandcarpets.com/
SCHOENERS INTERIORS,2045 120TH AVE N E #200,BELLEVUE,WA,98005,(425) 462-6601,www.schoenersinteriors.com
"E. MASIN FURNITURE CO., INC","220 SECOND AVE., SOUTH",SEATTLE,WA,98104,(206) 622-5606,http://www.masins.com
LIPMAN CARPET,4240 CH DE LA COTE DE LIESSE,MONTREAL QUEBEC,CN,H4N 2P7,(514) 737-5022,www.lipmancarpet.com
NEVADA CONTRACT CARPET INC.,6840 W. PATRICK LN,LAS VEGAS,NV,89118,(702) 362-3033,none
DAVID TRUETT ENTERPRISES,1444 OAK LAWN SUITE 220,DALLAS,TX,75207,(214) 748-7550,http://truettcarpetsandrugs.com/
ROBERT CAMPBELL'S CRPT SERVICE,413 MAIN STREET,PORT WASHINGTON,NY,11050,(516) 883-8509,http://campbellscarpet.com/
ALEXANIAN FLOORING LTD.,601 MAIN ST. WEST,"HAMILTON, ONTARIO",CN,L8P 1K9,(905) 527-2857,www.alexanian.com/
MIDWEST FLOOR,2714 BRECKENRIDGE INDSTRL CT.,ST. LOUIS,MO,63144,(314) 647-6060,www.mid-westfloor.com/
ANDERSON & SONS CARPETS,686 GUELPH LINE,ONTARIO,CN,L7R 3M8,(905) 639-0666,www.frasercarpets.ca
MOBILE CARPET CLUB INC,518 W WASHINGTON AVE,ESCONDIDO,CA,92025,(760) 740-9545,http://www.carpetclub.com
C & K CORP.,7 WEST AVENUE,WAYNE,PA,19087,(610) 989-9339,http://7westcarpet.com/
STRATHMORE FLOORS,P O BOX 43544,ATLANTA,GA,30336,(404) 872-0024,www.strathmorefloors.com
GILL CARPET OF SOUTHAMPTON,633 COUNTY ROAD 39A,SOUTHAMPTON,NY,11968,(631) 283-0885,www.thecarpetman.net
CAROLINA CARPETS,5421 RICHMOND RD.,WILLIAMSBURG,VA,23188,(757) 565-3006,none
COLIN CAMPBELL & SONS LTD. (2),494 RAILWAY ST,"VANCOUVER, B.C.",CN,V6A 1B1,(604) 734-2758,http://www.colin-campbell.ca/
"RUGGIERI FLOORING, INC.",1191 PONTIAC AVENUE,CRANSTON,RI,2920,(401) 942-1700,http://www.ruggiericarpetonecranston.com
CUT RITE CARPETS INC.,825 WHITE PLAINS RD.,SCARSDALE,NY,10583,(914) 725-9099,www.cutritecarpets.com
"GIANT FLOOR & WALL COV CO, INC",1345 HWY 315,WILKES-BARRE,PA,18702,(570) 825-3435,www.giantfloor.com/
B & T INC.,741 S. HURON STREET,DENVER,CO,80223,(303) 777-6277,http://denver.thefloorclub.com
PROFLOORS INC,3066 TAMIAMI TRAIL N SUITE 301,NAPLES,FL,34103,(239) 597-0077,http://www.profloors.biz/
REXX RUG & LINOLEUM CO. INC.,3312 N. LINCOLN,CHICAGO,IL,60657,(773) 281-8800,http://www.rexxrug.com
"BUILDERS CARPET, INC.","5358 QUAM CIRCLE, N.E.",ST. MICHAEL,MN,55376,(763) 497-4407,http://www.focalpointflooring.com/
RILEY PEYTON CORP,1111 EAST FRANCISCO BLVD #3,SAN RAFAEL,CA,94901,(415) 458-1717,http://www.architecturaldesigncarpets.com/
"SAN MATEO CARPETS,INC.",101 N AMPHLETT BLVD,SAN MATEO,CA,94401,(650) 347-0800,http://sanmateo.abbeycarpet.com
"BOCKRATH,INC.",5557 FAR HILLS AVE.,DAYTON,OH,45429,(937) 438-0870,www.bockrathcarpet.com
VENETIAN BLIND & FLOOR,2504 BISSONNET,HOUSTON,TX,77005,(713) 528-2404,www.vbaf.com/
"CDK CARPET,INC.",42598 WOODWARD,BLOOMFIELD HILLS,MI,48304,(248) 333-7086,www.carpetone.com
WAREHOUSE DIRECT FLOORING INC,74-5606 PAWAI PLACE BAY 11,KAILUA-KONA,HI,96740,(808) 331-8801,www.flooringwarehousedirect.com/
ARMSTRONG CPT & LINOLEUM CO.,369 WEST PORTAL AVENUE,SAN FRANCISCO,CA,94118,(415) 751-2827,http://www.armstrongcarpet.com
ANDREW J BOYAJIAN INC,9 BEDFORD STREET,BURLINGTON,MA,1803,(781) 272-7600,http://www.ajrosecarpets.com/
CARPET JEWELERS INC.,5370 IROQUOIS CT.,CLARKSTON,MI,48348,(248) 394-0322,not found
WORLDWIDE WHOLESALE,1055 ROUTE 1 SOUTH,EDISON,NJ,8837,(732) 906-1400,http://www.worldwidefloors.com
CAP CARPET SALES INC.,1449 1ST AVE NW,NEW BRIGHTON,MN,55112,(651) 636-2617,http://www.capcarpet.com/
MYERS CARPET,3096 N DUG GAP RD,DALTON,GA,30722,(706) 277-4053,http://www.myerscarpet.com
ABBOTT PAINTING,1808 GRAND AVE,ST. PAUL,MN,55105,(651) 698-5518,www.abbottpaint.com/
FLOORS INC.,4968 VIRGINIA BEACH BLVD.,VIRGINIA BEACH,VA,23462,(757) 490-0000,www.floorsinc.com/
NORTHPORT FLOORING AMERICA,661 W PORTAGE TRAIL,AKRON,OH,44313,(330) 923-9988,http://www.northportflooring-america.com
R TWO CORP,251 S. LAKE DESTINY DR,ORLANDO,FL,32810,(407) 660-8400,http://www.flooringcenterorlando.com
"FLOORING 101, INC",1660 S. OXNARD BLVD,OXNARD,CA,93030,(805) 486-8887,http://www.floors101.com
"SOVEREIGN DISTRIBUTORS, INC",2030 SPRINGDALE ROAD SUITE 400,CHERRY HILL,NJ,8003,(856) 489-4996,http://www.avaloncarpettile.com
DAVID'S FURNITURE LTD,5078 JONESTOWN ROAD,HARRISBURG,PA,17112,(717) 233-2955,http://www.davidsfurniture.com
"GREENSPRING CARPET, INC.",2147 GREENSPRING DR.,TIMONIUM,MD,21093,(410) 561-9200,http://greenspringcarpetsource.com
"THE CARPETMAN OF YORK,INC.",700 W. MARKET STREET,YORK,PA,17401,(717) 755-2881,www.helfthecarpetman.com/
CARPET & DESIGN EMPORIUM INC,469 SUNRISE HIGHWAY,LYNBROOK,NY,11563,(516) 256-2800,carpetanddesignemporium.com/
"L&L FLOORING,INC.",3071 N. LINCOLN,CHICAGO,IL,60657,(773) 935-9314,www.homecarpet1.com
PEERLESS RUG COMPANY,3033 NORTH LINCOLN AVE,CHICAGO,IL,60657,(773) 525-9034,http://peerlessrugcompany.com
DESITTER CARPET & RUG,1 TIMBER COURT,BOLINGBROOK,IL,60440,(630) 771-1420,desitterflooring.com/
ANTMAN ENTERPRISES,579 WESTLAKE ST,ENCINITAS,CA,92024,(760) 436-0900,http://www.superiorfloors.com
C B FLOORING,9515 GERWIG LANE SUITE 130,COLUMBIA,MD,21046,(410) 381-5400,www.cbflooring.com
LEADER CARPET A CALIF CORP,28350 ROADSIDE DRIVE,AGOURA HILLS,CA,91301,(818) 735-7825,http://leaderflooring.com/
CARPETOWN,5139 HWY 52 NORTH,ROCHESTER,MN,55901,(507) 282-3434,not found
DESIGNERS CHOICE,9102 NIEMAN,OVERLAND PARK,KS,66214,(913) 492-3800,www.designerschoice.in/
MCSWAIN CARPETS INC,2430 E KEMPER ROAD,CINCINNATI,OH,45241,(513) 771-1400,www.mcswaincarpets.com/
GIORGI BROS.,211 BADEN AVENUE,SO. SAN FRANCISCO,CA,94080,(650) 588-4621,www.giorgibros.com/
GREAT FLOORS INC.,28265 BECK ROAD C-18,WIXOM,MI,48393,(248) 344-7994,http://www.floorclubofsemichigan.com
INDEPENDENT FLOOR COVERING,1400 N. WAYNE ROAD,WESTLAND,MI,48185,(734) 729-6200,http://www.independentcarpetonewestland.com
REMNANT WAREHOUSE,5879 COMMERCE BLVD,ROHNERT PARK,CA,94928,(707) 935-0648,http://rugworks.brandsource.biz
THE HADINGER CPT CO OF NAPLES,6401 NORTH AIRPORT RD,NAPLES,FL,34109,(239) 566-7100,http://www.hadingerflooring.com
"ROBB & STUCKY, LTD. (S",2777 N. TAMIAMI TRAIL,NAPLES,FL,34103,(239) 261-3969,www.robbstucky.com/
"PIEDMONT FLOORING & DESIGN,INC",13199 PIEDMONT VISTA DRIVE,HAYMARKET,VA,20169,(703) 753-6708,http://www.manta.com/c/mmlyycb/piedmont-flooring-design-inc
"WALLFLOWERS, INC.",2820 E. 30TH,SPOKANE,WA,99223,(509) 534-5064,shopwallflowers.com/
REGAL FLOORING CENTER,7040 AVENIDA ENCINAS #103,CARLSBAD,CA,92011,(760) 431-1300,www.regalflooringcenter.com/
GREAT FALLS FLOORS,1025-K SENECA ROAD,GREAT FALLS,VA,22066,(703) 759-9200,not found
HAGOPIAN WORLD OF RUGS,43323 TWELVE MILE RD,NOVI,MI,48377,(248) 374-5672,www.originalhagopian.com/
IMPERIAL CARPET & HOME,1177 CALEDONIA ROAD,"TORONTO,ONTARIO",CN,M6A2X1,(416) 783-8838,www.carpetandhome.com/
MARO'S INC.,27 E. BUTLER AVE,AMBLER,PA,19002,(215) 646-8178,http://www.marosfloorcovering.com/
KENSINGTON FLOORS INC.,"A5, 624 BEAVER DAM RD. NE","CALGARY,AB",CN,T2K 4W6,(403) 283-3300,http://www.kensingtoncarpetone.ca/
BOB WAGNER'S MILL CARPET INC.,4531 W. LINCOLN HWY PO BOX 411,DOWNINGTOWN,PA,19335,(610) 436-9418,www.bobwagnerflooringdowningtown.com
WDN ENTERPRISES,67-615 E PALM CANYON DR,CATHEDRAL CITY,CA,92234,(760) 321-8600,not found
A.C. RAMIREZ FLOOR COVERINGS,824 CACIQUE STREET,SANTA BARBARA,CA,93103,(805) 965-0095,www.acramirez.com
ROBERTS CARPET & FINE FLOORS,4750 GULF FREEWAY,HOUSTON,TX,77023,(713) 926-7200,www.robertscarpet.com/
CARPET GALLERY,1103 CENTRAL PARK AVE,SCARSDALE,NY,10583,(914) 713-4700,www.carpetgalleryoshkosh.com/
R & L CLASSIQUE FLOOR INC,14127 S E STARK ST,PORTLAND,OR,97233,(503) 255-6775,http://classiquefloors.com/
BAKHTIARI INVESTMENTS,555 E FRANCISCO BLVD,SAN RAFAEL,CA,94901,(415) 454-4200,none
G W PAULSON CO,P O BOX 23429,PORTLAND,OR,97281,(503) 620-7080,http://www.paulsonsfloorcoverings.com/
MIDA INC.,21465 PRICE CASCADES PLAZA,STERLING,VA,20165,(703) 450-8181,http://www.abbeycarpetflooringcenter.com
GEHMAN & COMPANY,121 GETTYSBURG PIKE,MECHANICSBURG,PA,17055,(717) 620-2323,http://www.gehmanandco.com/
PORTLAND CARPET CENTER,6655 SW MACADAM AVE,PORTLAND,OR,97239,(503) 246-9800,www.crowncarpets.com/
ALAN PIERCE PRODUCTION INC,11061 W PICO BLVD,LOS ANGELES,CA,90064,(310) 479-3761,http://www.barrycarpet.com
GULESSERIAN BROS INC,1933 DAVIS STREET # 102,SAN LEANDRO,CA,94577,(510) 569-1600,not found
ESQUIRE INTERIORS,5863 JACKSON ROAD,ANN ARBOR,MI,48103,(734) 663-7011,www.esquireinteriors.com
THE FLOOR STORE INC,5327 JACUZZI ST STE 2A,RICHMOND,CA,94804,(510) 559-1235,thefloorstoreinc.com/
CARPET CENTRAL &,1855 DEERFIELD RD SUITE L,HIGHLAND PARK,IL,60035,(847) 579-5044,www.highlandpark.patch.com
CALIFORNIA CARPET LLC,695 INDUSTRIAL RD,SAN CARLOS,CA,94070,(650) 591-3355,www.calfloor.com
ESTISA INC  A.K.A. CLASSIC,2303 S STOCKTON STREET,LODI,CA,95240,(209) 334-4060,not found
RIGDON FLOOR COVERINGS INC,3015 MERRIAM LANE,KANSAS CITY,KS,66101,(913) 362-9829,http://www.facebook.com/pages/Rigdon-Floor-Coverings/157351327638319
FITZ FLOOR & WINDOW FASHIONS,#201 - 1610  37TH ST S W,CALGARY      AB,CN,T3C 3P1,(403) 246-1477,www.fitzflooring.com/
DALE'S CARPET ONE FORT COLLINS,3608 AUTOMATION WAY,FT COLLINS,CO,80525,(970) 223-3596,www.dalescarpetonefortcollins.com
WENDY LYNNE INC,86 ROUTE 9 NO,ENGLISHTOWN,NJ,7726,(732) 972-1300,not found
CARPET SPECTRUM INC,P O BOX 1988,MANHATTAN BEACH,CA,90266,(310) 539-8818,http://www.carpetspectruminc.com/
J B WOODWARD FLOORS INC,6968 INDIANA AVE,RIVERSIDE,CA,92506,(951) 683-5149,www.jbwoodwardfloors.com
YONAN,730 OGDEN AVE,DOWNERS GROVE,IL,60515,(630) 963-2000,www.yonancarpetone.com
FLOOR SCENE INC,8431 CANOGA AVE SUITE A,CANOGA PARK,CA,91304,(818) 885-0844,http://canogapark.thefloorclub.com
CAPITOL CARPET INC,500 INDUSTRIAL WAY,BOYNTON BEACH,FL,33426,(561) 533-9800,http://www.capitolcarpetandtile.com/index.html
INTERNATIONAL FLOORING,451 N ROBERTSON BLVD,WEST HOLLYWOOD,CA,90048,(310) 859-0044,http://dabbierifloorsinternational.com/Showroom.aspx
MOORMAN'S DISTINCTIVE,3835 N W 63RD STREET,OKLAHOMA CITY,OK,73116,(405) 848-4888,http://moormanscarpets.com/area_rugs_and_carpet/
CARPETS SHOWCASE,1430 LINCOLN BLVD,SANTA MONICA,CA,90401,(310) 395-4575,http://www.thecarpetshowcase.com/home
NEW YORK CARPET DISTRIBUTORS,1791 POST ROAD EAST,WESTPORT,CT,6880,(203) 255-0266,www.newyorkcarpetdistributors.com/
SSC CORP,11335 MEREDITH DR,URBANDALE,IA,50322,(515) 270-0679,www.ssccorp.com/
CARPET KING INC,16438 VALLEY BLVD,LA PUENTE,CA,91744,(626) 820-0550,http://www.carpetkingla.com
CHAPPIE'S CARPET & FLOORS INC,3913 CLARK RD,SARASOTA,FL,34233,(941) 923-5499,not found
APRAMIAN CARPET & FLOORING,2532 E COLORADO BLVD,PASADENA,CA,91107,(626) 793-4477,www.novafloorings.com
DESIGN CARPET,1207 REMINGTON ROAD,SCHAUMBURG,IL,60173,(847) 843-1111,www.designcarpetonline.com
PINNER CARPETS,800 E 8TH,ODESSA,TX,79761,(432) 337-2303,http://www.facebook.com/pages/Pinner-Carpets/122215244501856
LANDERS PREMIER FLOORING,3571 FAR WEST BLVD #254,AUSTIN,TX,78731,(512) 873-9470,http://landerspremierflooring.com
FLOORHAUS' FLOORING AMERICA,12105 S MEMORIAL DR,BIXBY,OK,74008,(918) 369-1450,www.floorhausflooringamericabixby.com
WEBER INTERIORS LLC,8095 HUNTER LAKE DR,CLEAR LAKE,MN,55319,(763) 496-9014,http://www.weberinteriors.com/
LOUGHEED FLOORING CENTRE LTD,1100 LANSDOWNE DRIVE,COQUITLAM    B.C.,CN,V3B 5E2,(604) 942-4109,http://www.nufloors.ca/coquitlam
CARPET N' THINGS,13380 MID ATLANTIC BLVD,LAUREL,MD,20708,(301) 206-2200,www.carpetnthings.com/
J S & G INC  DBA  SANDPOINT,401 BONNER MALL WAY,PONDERAY,ID,83852,(208) 263-5138,http://www.sandpointfurnitureponderay.com
RAINBOW CARPET,515 EAST GUDE DRIVE,ROCKVILLE,MD,20850,(301) 762-0011,http://www.carpetpalaceusa.com/
MARION'S CARPETS INC,1635 S E GRAND AVE,PORTLAND,OR,97214,(503) 239-0528,http://www.marionscarpets.com/
INTERIORS WITH ALTITUDE LLC,1855 SHIELD DRIVE #2,STEAMBOAT SPRINGS,CO,80487,(970) 870-9222,www.altitudes.biz/
"CARPET BY PHILLIPS, INC",4001 AVENIDA DE LA PLATA #101,OCEANSIDE,CA,92056-5842,(760) 757-5033,www.martinphillipscarpets.co.uk/
SURFACE WORKS LLC,1235 S E GRAND AVE,PORTLAND,OR,97214,(503) 235-1235,http://www.manta.com/c/mw2mhnd/surface-works-llc
J LAURIE COMMERCIAL FLOORS INC,1828 SOUTH ANTHONY BLVD,FORT WAYNE,IN,46803,(260) 745-2161,http://jacklauriegroup.com/
CARPETS BY ROBERT INC,553 BROADWAY,LONG BRANCH,NJ,7740,(732) 571-4644,not found
ATLAS SERVICE CENTER,18167 VILLAGE CENTER DRIVE,OLNEY,MD,20832,(301) 299-2900,www.atlas-sv.com/contact.htm
SILVER CARPET,119 ABERDEEN DR STE 1,CARDIFF,CA,92007,(760) 632-1770,not found
SHERLOCK'S CARPET & TILE,7110 W 157TH STREET,ORLAND PARK,IL,60462,(708) 429-0440,sherlockscarpet.com
L P MOORADIAN CO,773 POTTS AVE,GREEN BAY,WI,54304,(920) 494-7868,www.lpmooradian.com/
USA FLOOR INC,2085 N BROADWAY STE 300,WALNUT CREEK,CA,94596,(925) 947-3771,www.carpetonewalnutcreek.com
ABBEY CARPET OF NAPLES LLC,25321 BERNWOOD DR,BONITA SPRINGS,FL,34135,(239) 596-5959,www.naples.abbeycarpet.com
MIDE CARPETS INC,173 N MAIN ST,PORT CHESTER,NY,10573,(914) 937-5885,http://www.redicut.com
COVE DISCOUNT CARPET ONE,335 SPRINGFIELD AVE,SUMMIT,NJ,7901,(908) 273-0220,www.covecarpetonesummit.com
LOVELY CARPET INC,22 LA PORTE ST,ARCADIA,CA,91006,(626) 445-2878,www.manta.com/c/mm37q2k/lovely-carpet-inc
DANCO INC,3856 F DULLES SOUTH CT,CHANTILLY,VA,20151,(703) 255-6000,www.danco.com
DOOR COUNTY NATURE WORKS,7798 HWY 42,EGG HARBOR,WI,54209,(920) 868-3042,www.doorcountynatureworks.com/
WARREN CLARKS CUSTOM CARPETS,715 N MOUNTAIN AVE,UPLAND,CA,91786,(909) 981-0045,www.warrenclarkscustomcarpets.com/
MODERN CARPET ONE,4319 ST BARNABAS RD,TEMPLE HILLS,MD,20748,(301) 702-1111,www.moderncarpetonetemplehills.com/
MIKE'S CARPET OF VIRGINIA INC,4425 BROOKFIELD CORPORATE DR,CHANTILLY,VA,20151,(703) 802-3485,http://www.mikescarpetdesign.com
JLP FLOORING INC,44-455 TOWN CENTER WAY,PALM DESERT,CA,92260-2729,(760) 345-0324,http://www.la.bbb.org/business-reviews/Flooring-Contractors/JLP-Flooring-Inc-in-Palm-Desert-CA-13195388
TIEBEN FLOORS LLC,1525 DALLES DRIVE,SHAKOPEE,MN,55379,(952) 445-0520,http://www.floorstogo.com/
LCR ENTERPRISES LLC,7118 N WESTERN,OKLAHOMA CITY,OK,73116,(405) 842-9000,not found
DESCO FLOORS INC,1917 FIRST ST,LIVERMORE,CA,94550,(925) 455-9210,www.descocoatings.com/
LOUIS J WEINSTEIN INC,6 FAIRVIEW AVE,LITTLE SILVER,NJ,7739,(732) 741-0091,www.weinsteinflooring.com/
GREAT FLOORS LLC,524 E SHERMAM AVE,COEUR D ALENE,ID,83814,(206) 624-7800,www.greatfloors.com
STANDARD PAINT (YAKIMA)& ABBEY,101 N 3RD AVE,YAKIMA,WA,98902,(509) 453-3171,www.standardpaintandflooring.com/
JUDAH INC,7 FRIENDS LANE,NEWTOWN,PA,18940,(215) 968-3333,judahinc.yolasite.com/
TYSON CARPETS LIMITED,12660 BRIDGEPORT RD,RICHMOND  BC,CN,V6V1J5,(604) 273-9674,www.unitedcarpet.ca/
CARPETS BY DUANE INC,2095 CHICAGO AVE,RIVERSIDE,CA,92507,(951) 784-2630,http://www.carpetsbyduane.com
GOLETA CARPET TOWN,317 CHAPALA STREET,SANTA BARBARA,CA,93101,(805) 966-1606,http://santabarbara.abbeycarpetandfloor.com
BEATTY FLOORS LTD,1840 PANDORA STREET,VANCOUVER    B.C.,CN,V5L1M7,(604) 254-9571,www.beattyfloors.com
"HOPKINS TILE, LINO & CARPET CO",11501 EXCELSIOR BLVD,HOPKINS,MN,55343,(952) 933-5593,http://www.carpetcityhopkinstile.com/
WORLEY'S HOME DESIGN CENTER,2751 CASTRO VALLEY BLVD,CASTRO VALLEY,CA,94546,(510) 582-6400,www.worleyandsons.com/
LEI FLOOR & WINDOW COVERINGS,430 ALAMAHA STREET #103,KAHULUI,HI,96732,(808) 871-8008,http://www.hdspd.com/leifloor/sb.cn
KERMAN CARPET CO INC,4505 E 82ND STREET,INDIANAPOLIS,IN,46250,(317) 842-5700,http://www.kermans.com/pagesroot/pages/home.aspx
HOM FURNITURE INC,10301 WOODCREST DR NW,COON RAPIDS,MN,55433,(763) 767-3600,www.homfurniture.com
KANTERS CARPET SERVICE,99 FULTON STREET,WHITE PLAINS,NY,10606,(914) 949-6517,www.kanterscarpet.com
JANDS ENTERPRISE INC,274 RICKENBACKER CIRCLE,LIVERMORE,CA,94551,(925) 455-7200,none
M C C T LTD,1002 N CENTRAL EXPRESSWAY #601,RICHARDSON,TX,75080,(972) 671-9660,www.mcctltd.com/
PERFORMERS CARPET & TILE,P O BOX 272,BLOOMINGDALE,IL,60108,(630) 665-7533,www.performersflooring.com
TREASURE COAST CARPET,150 N US HIGHWAY 1,TEQUESTA,FL,33469,(561) 575-5158,http://www.treasurecoastcarpet.com/
BIXBY PLAZA CARPETS INC,19062 GOLDENWEST ST,HUNTINGTON BEACH,CA,92648,(714) 847-2828,http://www.bixbyplaza.com/default.aspx
JEZARD FLOORING,646 WASHINGTON ST,SOUTH EASTON,MA,2375,(508) 238-2055,www.jezardflooring.com
GENE SPROWL & ASSOCIATES,210 E ORTEGA ST,SANTA BARBARA,CA,93101,(805) 965-7751,not found
DIANA DRAKE,P O BOX 241045,LOS ANGELES,CA,90024,(310) 301-8405,www.drakescarpetcleaning.com
CAPITOL CARPET CO INC,14250 VENTURA BLVD,SHERMAN OAKS,CA,91423,(818) 783-6733,www.capitalcarpetsinc.com
DESIGNER FLOORS OF TEXAS,3841 RANCH ROAD 620 S,AUSTIN,TX,78738,(512) 263-3333,http://austin.abbeycarpetandfloor.com
B J MESSNER CO INC,1344 UNIVERSITY AVE,ROCHESTER,NY,14607,(585) 271-5670,www.manta.com/c/mmjmw43/messner-carpeting
SISTO INC,1084 NE JENSEN BEACH BLVD,JENSEN BEACH,FL,34957,(772) 334-5221,not found
DAVID'S CARPET SALES INC,P O BOX 23069,KNOXVILLE,TN,37933,(865) 777-0661,www.davidsabbeycarpet.com/
GRIGSBY'S CARPET SHOWROOM INC,4417 S. SHERIDAN ROAD,TULSA,OK,74145,(918) 627-6996,www.grigsbys.com
DESIGNER CONCEPTS LLC,4245 RICHMOND AVE,HOUSTON,TX,77027,(713) 355-7500,http://www.designerfloorsofhouston.com
GSO INVESTMENTS LLC,1133 S PLATTE RIVER DR,DENVER,CO,80223,(303) 744-3300,http://www.carpetexchangeonline.com/
JACK'S CARPET INC,6006 GRIGGS RD,HOUSTON,TX,77023,(713) 640-1115,www.jackscarpet.com
MIKE V BOWMAN,801 SO 900 E,SALT LAKE CITY,UT,84102,(801) 706-5724,not found
FRAZEE CARPET & INTERIORS,3113 HILLSBOROUGH ROAD,DURHAM,NC,27705,(919) 286-5570,http://www.frazeecarpet.com
BAKER BROTHERS FLOORCOVERING,4545 E. BROADWAY RD. SUITE 100,PHOENIX,AZ,85040,(602) 431-1200,www.bakerbros.com
THE DESIGN ELEMENT LLC,1351 MADISON AVE,MANKATO,MN,56001,(507) 345-8708,elementdesignllc.com/
MARINE LUMBER OPERATOR INC,134 ORANGE ST,NANTUCKET,MA,2554,(508) 228-0900,www.marinehomecenter.com
COLES OF LA JOLLA INC,1170 W MORENA BLVD,SAN DIEGO,CA,92110,(619) 276-5140,http://www.colesfineflooring.com/
SMITHCO FLOORING,14071 PROTON RD,DALLAS,TX,75244,(972) 233-5565,www.smithcoflooring.com
"SID'S CARPET BARN, INC.",132 W. 8TH STREET,NATIONAL CITY,CA,91950,(619) 477-7000,http://sidscarpet.com/
RUG WORKS,2521 NW 17TH LANE,POMPANO BEACH,FL,33064,(954) 970-8222,www.rugworksflorida.com
HOME PLACE INTERIORS INC,523 LAKE AIR DR,WACO,TX,76710,(254) 399-9783,www.homeplaceinteriors.com/
MILL CREEK CARPET & TILE,6845 E 41ST STREET,TULSA,OK,74145,(918) 621-4000,http://www.millcreekcarpet.com/ne-oklahoma/tulsa41st
JORDANS RUGS LTD,1470 WEST BROADWAY,CANADA,CN,V6H 1H4,(604) 733-1174,http://jordans.ca/rugs
THE DRAPERY SHOP OF WACO INC,P O BOX 2183,WACO,TX,76703,(254) 753-7021,http://centexmfg.com/
OSCAR ISBERIAN,1028 CHICAGO AVE,EVANSTON,IL,60202,(847) 475-0000,http://www.isberian.com
FLOOR DECOR,363 BOSTON POST RD,ORANGE,CT,6477,(203) 298-4081,http://floordecorct.com
KENT ISLAND ABBEY FLOOR,P O BOX 56,STEVENSVILLE,MD,21666,(410) 643-6752,http://stevensville.abbeycarpet.com
DAWNSKI DESIGN GROUP INC,840 LAKE ST E,WAYZATA,MN,55391,(612) 845-1407,http://www.innovativeflooringdesign.com
KOEBER'S CARPETS & DRAPERIES,6700 SW 111TH AVE,BEAVERTON,OR,97008,(503) 641-1901,www.koebers.com
KISERS FLOOR FASHION,3050 WALNUT GROVE ROAD,MEMPHIS,TN,38111,(901) 458-8000,www.kisers.com
ALLURING FLOORING INC,7400 N FEDERAL HWY,BOCA RATON,FL,33487,(561) 998-2001,none
DESOTO SALES INC,20945 OSBORNE ST,CONOGA PARK,CA,91304,(818) 998-0853,www.desotosales.com
GENERAL INTERIORS LLC,3750 HOOKER RD SUITES A & B,ROSEBURG,OR,97470,(541) 733-4656,www.generalinteriors.biz
BENTLEY CARPET INSTALLATION,3131 N 35TH AVE SUITE D,PHOENIX,AZ,85017,(602) 278-5655,not found
SID'S CARPET BARN INC,132 W 8TH STREET,NATIONAL CITY,CA,91950,(760) 761-1100,www.sidscarpet.com
CARPET DISCOUNTERS LTD,7265 11TH STREET S E,CALGARY  ALBERTA,CN,T2H 2S1,(403) 255-1811,www.carpetandflooring.com
BRIDGETS ROOM LLC,3250 ROCK ISLAND PLACE,BISMARCK,ND,58504,(701) 250-9600,www.bridgetsroom.com
CAREFREE FLOORS,6703 E RANCH RD,CAVE CREEK,AZ,85331,(480) 515-9999,www.carefreefloors.com/
GORDON'S FLOOR COVERING INC,125 WOLF'S LANE,PELHAM,NY,10803,(914) 738-1700,http://www.gordoncarpet.com
585936 BC LTD,24316 RIVER RD,MAPLE RIDGE BC,CN,V2W 1M2,(604) 970-1668,not found