Soft Region,Hard Region,name,ADDRESS LINE #1,ADDRESS LINE #2,ADDRESS LINE #3,city,state,ZIP CODE,website,phone
208 - MID CENTRAL,506 - HS NORTHEAST,RITE RUG CO INC,3949 BUSINESS PARK DR,,,COLUMBUS,OH,43204,http://www.riterug.com/,(614) 261-6060
209 - MID-ATLANTIC,506 - HS NORTHEAST,SOVEREIGN DISTRIBUTORS INC,ATTN: ACCOUNTS PAYABLE,2030 SPRINGDALE RD STE 400,,CHERRY HILL,NJ,8003,N/A,(856) 834-5300
207 - SOUTH CENTRAL,507 - HS SOUTH CENTRAL,JACKS CARPET INC,8433 GULF FWY,,,HOUSTON,TX,77017,http://www.jackscarpet.com/,(713) 640-1115
204 - CENTRAL PLAINS,503 - HS NORTH CENTRAL,KELLYS CARPETS,4600 SOUTH 90TH STREET,,,OMAHA,NE,68127,http://www.therugshopomaha.com/,(402) 593-7144
204 - CENTRAL PLAINS,503 - HS NORTH CENTRAL,SSC CORP DBA Flooring Gallery,11335 MEREDITH DR,,,URBANDALE,IA,50322,http://www.flooringgallery.com/,(515) 270-0087
202 - FLORIDA,502 - HS FLORIDA,GREAT LAKES CARPET & TILE LLC,13553 N US HIGHWAY 441,,,LADY LAKE,FL,32159-8906,http://www.greatlakescarpet.com/,(352) 330-4800
208 - MID CENTRAL,506 - HS NORTHEAST,MC NABB DONALD E COMPANY INC,31250 S MILFORD RD,PO BOX 448,,MILFORD,MI,48381,http://www.demcnabb.com/,(248) 437-8146
210 - NORTH WEST COAST,505 - HS SOUTH WEST COAST,FLOOR STORE INC,D/B/A FLOOR STORE,5327 JACUZZI ST STE 2A,,RICHMOND,CA,94804-5827,http://www.floorstores.com/,(510) 527-3203
206 - NORTHEAST,506 - HS NORTHEAST,WAREHOUSE CARPET & FURNITURE,OUTLET INC,500 REYNOLDS RD,,JOHNSON CITY,NY,13790,http://www.warehousecpt.com/,(607) 797-5040
202 - FLORIDA,502 - HS FLORIDA,JEK CARPET CORPORATION,DOLPHIN CARPET & TILE,3550 N.W.77TH CT,,DORAL,FL,33122,http://www.dolphincarpet.com/,(305) 591-4141
205 - SOUTH WEST COAST,505 - HS SOUTH WEST COAST,"HOME CARPET INVESTMENT, INC.",DBA/AMERICAS FINEST CARPET CO,730 DESIGN CT STE 401,,CHULA VISTA,CA,91911,N/A,(619) 262-8040
202 - FLORIDA,502 - HS FLORIDA,MANASOTA FLOORING INC,4551 N WASHINGTON BLVD,,,SARASOTA,FL,34234,http://www.manasotaonline.com,(941) 355-8437
204 - CENTRAL PLAINS,503 - HS NORTH CENTRAL,CARPET CORNER INC,900 MINNESOTA AVE,,,KANSAS CITY,KS,66101,http://carpetcorneronline.com/,(913) 342-4123
207 - SOUTH CENTRAL,507 - HS SOUTH CENTRAL,C CARPET INC,CC CARPET INC,7600 AMBASSADOR ROW,,DALLAS,TX,75247,http://www.cccarpet.com,(214) 631-0704
203 - NORTH CENTRAL,503 - HS NORTH CENTRAL,MALKINS CARPETS INC,N95W17055 RICHFIELD WAY,,,MENOMONEE FALLS,WI,53051,http://www.malkinscarpets.com/,(262) 255-1400
203 - NORTH CENTRAL,503 - HS NORTH CENTRAL,OLSON RUG CO,832 S CENTRAL AVE,,,CHICAGO,IL,60644,http://www.olsonrug.com,(773) 921-1300
208 - MID CENTRAL,506 - HS NORTHEAST,BARRINGTON CARPET & FLR DESIGN,BARRINGTON CARPET LLC,3602 S ARLINGTON RD,,AKRON,OH,44312,http://www.barringtoncarpet.com/,(330) 896-4141
201 - SOUTHEAST,501 - HS SOUTHEAST,ISSIS AND SONS,2858 HIGHWAY 31 S,,,PELHAM,AL,35124,http://www.issisandsonsrugs.com/,(205) 663-2310
202 - FLORIDA,502 - HS FLORIDA,CAPITOL CARPET INC,500 INDUSTRIAL WAY,,,BOYNTON BEACH,FL,33426-8770,http://www.capitolcarpetandtile.com/,(561) 533-9800
208 - MID CENTRAL,506 - HS NORTHEAST,MCCOOL'S CARPET INC,333 S COUNTY ROAD 00 EW,,,KOKOMO,IN,46902,http://www.mccoolsflooring.com/,(765) 453-3039
204 - CENTRAL PLAINS,503 - HS NORTH CENTRAL,STONERIDGE CARPETS,16838 STATE HIGHWAY 13,,,REEDS SPRING,MO,65737,http://www.stoneridgecarpets.com/,(417) 272-8155
202 - FLORIDA,502 - HS FLORIDA,HADINGER CARPET CO OF NAPLES,HADINGER CARPET,6401 AIRPORT PULLING RD N,,NAPLES,FL,34109,http://hadingerflooring.com/,(239) 566-7100
209 - MID-ATLANTIC,506 - HS NORTHEAST,NIC/LOR FLOORS,SWINEA GARY,4431 BROOKFIELD COR DR STE B,,CHANTILLY,VA,20151-1691,http://www.nic-lorfloors.com/,(703) 968-6498
205 - SOUTH WEST COAST,505 - HS SOUTH WEST COAST,LONG AFFAIR CARPET & RUG INC,L.A. CARPET & RUG,8775 RESEARCH DR,,IRVINE,CA,92618,N/A,(714) 979-0621
204 - CENTRAL PLAINS,503 - HS NORTH CENTRAL,FANTASTIC FLOORS INC,451 COMMERCE DR STE 100,,,WOODBURY,MN,55125,http://www.fantafloors.net/,(651) 739-7101
210 - NORTH WEST COAST,505 - HS SOUTH WEST COAST,NIELSEN BROS & SONS INC,PO BOX 70524,2031 N W 56TH STREET,,SEATTLE,WA,98107,http://www.nbfloors.com/,(206) 783-5454
207 - SOUTH CENTRAL,507 - HS SOUTH CENTRAL,MID TEX OF MIDLAND INC,5206 W WADLEY AVE,,,MIDLAND,TX,79707,www.midtexofmidland.com,(432) 697-2282
206 - NORTHEAST,506 - HS NORTHEAST,AFFORDABLE FLRS OF NY INC,1 DALFONSO RD,,,NEWBURGH,NY,12550,http://www.affordable-floors.com/,(845) 565-2000
201 - SOUTHEAST,501 - HS SOUTHEAST,DALTON WEST OF NEWNAN INC,7 JEFFERSON PKWY,,,NEWNAN,GA,30263,http://www.daltonwest.com,(770) 251-0634
208 - MID CENTRAL,506 - HS NORTHEAST,CARPET BONANZA INC/JDM,11108 CHICAGO DR,,,ZEELAND,MI,49464,http://www.carpetbonanza.com/,(616) 396-2765
203 - NORTH CENTRAL,503 - HS NORTH CENTRAL,NONNS FLOORING INC,7550 GRABER RD,,,MIDDLETON,WI,53562-1002,http://www.nonnsdesignshowplace.com/,(608) 836-8833
208 - MID CENTRAL,506 - HS NORTHEAST,SUPREME CARPET SALES INC,1392 S VALLEY CENTER DR,,,BAY CITY,MI,48706,http://supremefloors.com/,(989) 684-8888
209 - MID-ATLANTIC,506 - HS NORTHEAST,FGD CORPORATION,COUNTRY CARPET,8030 MATTHEWS RD STE 104,,BRYANS ROAD,MD,20616-4266,N/A,(301) 283-0800
203 - NORTH CENTRAL,503 - HS NORTH CENTRAL,CARPET WEAVERS INC,902 S ELDORADO RD,,,BLOOMINGTON,IL,61704,www.carpetweaversflooring.com,(309) 834-3606
202 - FLORIDA,502 - HS FLORIDA,R-TWO CORPORATION,THE FLOORING CENTER,251 S LAKE DESTINY RD,,ORLANDO,FL,32810,http://www.flooringcenterorlando.com/,(407) 660-8400
201 - SOUTHEAST,501 - HS SOUTHEAST,FLEMING CARPET DISTRIBUTORS,1190 KENNESTONE CIR STE 130,,,MARIETTA,GA,30066,http://www.flemingcarpet.com/,(770) 420-3009
207 - SOUTH CENTRAL,507 - HS SOUTH CENTRAL,STEAMOUT CARPET CLEANING,35 BUICK ST,,,SAN ANGELO,TX,76901,http://www.floorstorebysteamout.com/,(325) 949-3619
220 - SOUTHEAST CENTRAL,501 - HS SOUTHEAST,CAROLINA CARPET,5223 RAEFORD ST,,,FAYETTEVILLE,NC,28304,http://www.carolinacarpetfloors.com/,(910) 424-0173
205 - SOUTH WEST COAST,505 - HS SOUTH WEST COAST,BUDGET FLOORING,8805 CLAYSTONE COURT,,,LAS VEGAS,NV,89129,http://budgetflooringlv.com/,(702) 647-3800
208 - MID CENTRAL,506 - HS NORTHEAST,FAMILY CARPET,RT. 14,,,BOAZ,WV,26187,http://www.familycarpetoneboaz.com/,(999) 999-9999
201 - SOUTHEAST,501 - HS SOUTHEAST,CAROLS CARPET INC,1640 N EASTERN BLVD,,,MONTGOMERY,AL,36117,http://carolscarpet.com/,(334) 272-5400
209 - MID-ATLANTIC,506 - HS NORTHEAST,LOUDOUN CARPET CARE,LOUDOUN VALLEY FLOORS,129 N BAILEY LN STE C,,PURCELLVILLE,VA,20132,http://www.loudounvalleyfloors.com/,(703) 777-8056
206 - NORTHEAST,506 - HS NORTHEAST,ONONDAGA FLOORING  INC,1510 N SALINA ST,,,SYRACUSE,NY,13208,www.onondagaflooring.com,(315) 471-2243
206 - NORTHEAST,506 - HS NORTHEAST,LEE APPLIANCE CO INC,593 ROUTE 3,,,PLATTSBURGH,NY,12901,http://www.leeappliance.com/,(518) 563-0900
207 - SOUTH CENTRAL,507 - HS SOUTH CENTRAL,LANDERS FLOORING,2601 MCHALE CT STE 140,,,AUSTIN,TX,78758,http://landerspremierflooring.com/,(512) 873-9470
206 - NORTHEAST,506 - HS NORTHEAST,THE MARKS ORGANIZATION,T/A LEADER CARPET SALES,206 W ROUTE 59,,NANUET,NY,10954,http://www.leadercarpet.com/Home/tabid/6361/Default.aspx,(845) 623-3432
208 - MID CENTRAL,506 - HS NORTHEAST,CARPETIME INC,3564 LINCOLN WAY E,,,MASSILLON,OH,44646,www.carpetime.com,(330) 478-2107
205 - SOUTH WEST COAST,505 - HS SOUTH WEST COAST,CUSTOM FLOOR COVERINGS,2300 N MAIN ST STE C,,,NORTH LOGAN,UT,84341,N/A,(435) 755-0963
206 - NORTHEAST,506 - HS NORTHEAST,BAY STATE RUG DIST INC,671 GRATTAN ST,,,CHICOPEE,MA,1020,http://www.baystaterug.com/,(413) 533-3806
207 - SOUTH CENTRAL,507 - HS SOUTH CENTRAL,HOFFMANN FLOORS INC,710 LOOP 337,,,NEW BRAUNFELS,TX,78130,http://www.hoffmannfloors.com,(830) 625-2629
209 - MID-ATLANTIC,506 - HS NORTHEAST,RICKS DISC CPT &FLR COV,6224 RICHMOND HWY,,,ALEXANDRIA,VA,22303-2438,http://www.rickscarpetandflooring.com/,(703) 765-8000
206 - NORTHEAST,506 - HS NORTHEAST,VALLEY FLOOR COVERING,562 RUBBER AVENUE,,,NAUGATUCK,CT,6770,http://valleyfloorcoveringct.com/,(203) 723-6978
201 - SOUTHEAST,501 - HS SOUTHEAST,D & F CARPET STORE PLUS,9366 FORD AVE,,,RICHMOND HILL,GA,31324,http://carpetstoreplus.com/,(912) 756-6868
205 - SOUTH WEST COAST,505 - HS SOUTH WEST COAST,CARPET KING INC,16438 VALLEY BLVD,,,LA PUENTE,CA,91744,http://www.carpetkingla.com/en/index.html,(626) 820-0550
220 - SOUTHEAST CENTRAL,501 - HS SOUTHEAST,BELLS CARPETS INC,BELL'S INTERIOR DESIGNS,2832 INDUSTRIAL DR,P O BOX 19727,RALEIGH,NC,27609,www.bellscarpets.com/,(919) 833-5707
208 - MID CENTRAL,506 - HS NORTHEAST,JAMIES CARPETSHOP INC,DBA:JAMIE'S CARPETSHOP-AMHERST,46125 TELEGRAPH RD,,SOUTH AMHERST,OH,44001,http://www.jamiescarpetshop.com/,(440) 986-2469
207 - SOUTH CENTRAL,505 - HS SOUTH WEST COAST,EMO CARPETS LLC,DBA/CARPET WAREHOUSE,930 RAYNOLDS ST,,EL PASO,TX,79903,N/A,(915) 565-7847
203 - NORTH CENTRAL,503 - HS NORTH CENTRAL,TROY CARPET INC,560 MAIN ST,,,TROY,MO,63379,http://www.troyfurnitureco.com/,(636) 528-5242
204 - CENTRAL PLAINS,503 - HS NORTH CENTRAL,B & B GENERAL STORE,101 W PLUM,,,DONIPHAN,NE,68832,http://www.bandbcarpet.com/,(402) 845-9241
220 - SOUTHEAST CENTRAL,501 - HS SOUTHEAST,A&D CARPETS INC,MARTINEZ,320 S BELAIR RD,MARTINEZ,AUGUSTA,GA,30907,http://aanddcarpets.com/,(706) 863-8870
206 - NORTHEAST,506 - HS NORTHEAST,RPM CARPETS,192 ROUTE 137,,,EAST HARWICH,MA,2645,http://www.rpmcarpets.com/,(508) 432-4151
202 - FLORIDA,502 - HS FLORIDA,ABOUT FLOORS N' MORE INC,14054 BEACH BLVD STE 3,,,JACKSONVILLE,FL,32250,http://www.aboutfloorsnmore.com/,(904) 726-1700
203 - NORTH CENTRAL,503 - HS NORTH CENTRAL,OLSON RUG COMPANY,DEBTOR IN POSSESSION,832 S CENTRAL AVE,,CHICAGO,IL,60644,http://www.olsonrug.com/,(773) 921-1300
208 - MID CENTRAL,506 - HS NORTHEAST,JACK LAURIE FLOORS LLC,1828 S ANTHONY BLVD,ATTN: ACCOUNTS PAYABLE DEPT,,FORT WAYNE,IN,46803-3606,http://www.jacklauriegroup.com,(260) 745-3971
209 - MID-ATLANTIC,506 - HS NORTHEAST,OCEAN CITY FLOOR GALLERY,FLOOR GALLERY LLC,12319 OCEAN GATEWAY,UNIT 301,OCEAN CITY,MD,21842,http://www.ocfloorgallery.com/,(410) 213-9234
210 - NORTH WEST COAST,505 - HS SOUTH WEST COAST,STRAIT FLOORS,141 N 7TH AVE,,,SEQUIM,WA,98382,http://straitfloors.com/,(360) 683-4343
201 - SOUTHEAST,501 - HS SOUTHEAST,SOUTHERN FLOORING & DESIGN LLC,1940 THOMASVILLE RD,,,TALLAHASSEE,FL,32303,http://www.southernflooring.net/,(850) 224-9850
210 - NORTH WEST COAST,503 - HS NORTH CENTRAL,THE FLOORING PLACE,1891 BOOT HILL CT,,,BOZEMAN,MT,59715-7245,www.theflooringplace.net/,(406) 587-7472
205 - SOUTH WEST COAST,505 - HS SOUTH WEST COAST,ALLMANS CARPET & DRAPERY,822 SO 500 WEST,,,BOUNTIFUL,UT,84010,N/A,(801) 292-1132
201 - SOUTHEAST,507 - HS SOUTH CENTRAL,STOUTS CARPET INC,2 COUNTY ROAD 2050,,,OXFORD,MS,38655,www.stoutscarpets.com,(662) 234-5227
203 - NORTH CENTRAL,503 - HS NORTH CENTRAL,CARPET WEAVERS,(HARD SURFACE ONLY),2940 CONSTITUTION DR,,SPRINGFIELD,IL,62704,http://www.cwfloorcare.com/,(217) 787-0600
206 - NORTHEAST,506 - HS NORTHEAST,SAIL-ON CARPETS INC,4655 RIDGE RD W,,,SPENCERPORT,NY,14559,http://www.sailoncarpets.com,(585) 352-1170
206 - NORTHEAST,506 - HS NORTHEAST,CENTRAL JERSEY FLOORING,3160 BORDENTOWN AVE STE 3,,,OLD BRIDGE,NJ,8857,N/A,(732) 828-7300
201 - SOUTHEAST,501 - HS SOUTHEAST,RANOBI CORPORATION,CARPET CONNECTION,2350 JENKS AVE,,PANAMA CITY,FL,32405,N/A,(850) 763-1700
206 - NORTHEAST,506 - HS NORTHEAST,PARAMOUNT RUG COMPANY INC,71 MANLEY ST,,,BROCKTON,MA,2301,http://www.paramountrug.com/,(508) 583-5022
205 - SOUTH WEST COAST,505 - HS SOUTH WEST COAST,"FURR HENDRON ENTERPRISES,INC.",HIGHLANDS FLOOR COVERINGS,2009 N 4TH ST STE A,,FLAGSTAFF,AZ,86004,http://www.highlandsfloorcoverings.com/,(928) 774-6700
209 - MID-ATLANTIC,506 - HS NORTHEAST,CARPET & FLOOR EXPRESS INC,1488 ROCKVILLE PIKE STE E,,,ROCKVILLE,MD,20852,http://www.carpetandfloorexpress.com/,(301) 231-7355
208 - MID CENTRAL,506 - HS NORTHEAST,CALHOUN TILE & CARPET,MICHIGAN TILE & CARPET CO INC,99 COLUMBIA AVE E,,BATTLE CREEK,MI,49015,http://www.michtile.com/,(269) 962-6227
207 - SOUTH CENTRAL,507 - HS SOUTH CENTRAL,COUTURE FLOORS,29157 INTERSTATE 10 W,,,BOERNE,TX,78006-9125,http://www.couturefloors.com/,(830) 981-8491
201 - SOUTHEAST,501 - HS SOUTHEAST,KEMPS CARPETS,GERALD KEMP,1287 LAFAYETTE PKWY,,LA GRANGE,GA,30240,http://www.daltonwest.com/,(706) 812-0058
208 - MID CENTRAL,506 - HS NORTHEAST,DE GOL ORGANIZATION THE LP,851 PLANK RD,,,DUNCANSVILLE,PA,16635,http://www.degolcarpet.com,(814) 695-1111
209 - MID-ATLANTIC,506 - HS NORTHEAST,FUNCH INC,CRAFT RUG MILLS,901 LINE ST,,EASTON,PA,18042,http://craftrugmills.biz/,(610) 258-3947
207 - SOUTH CENTRAL,507 - HS SOUTH CENTRAL,JIM OWENS CARPET CORP,4400 AIRLINE DR,,,METAIRIE,LA,70001-5661,http://www.jimowensflooring.com/,(504) 835-6969
203 - NORTH CENTRAL,503 - HS NORTH CENTRAL,SMILIN' SAM'S INC.,4358 ORCHARD RD,,,NEW HAVEN,MO,63068,http://www.smilinsams.net/,(573) 459-6483
208 - MID CENTRAL,506 - HS NORTHEAST,JIMELLE INC,927 COUNTY ROAD 12,,,CORUNNA,IN,46730-9746,http://www.jimelleflooring.com,(260) 925-9999
203 - NORTH CENTRAL,503 - HS NORTH CENTRAL,GREAT WESTERN FLOORING CO,1051 FRONTENAC RD,,,NAPERVILLE,IL,60563,http://www.greatwesternflooring.com/,(630) 236-2200
204 - CENTRAL PLAINS,503 - HS NORTH CENTRAL,DUGAN PAINTS INC,3103 ERIKA AVE,PO BOX 1385,,SEDALIA,MO,65302,www.duganpaints.com,(660) 826-0142
207 - SOUTH CENTRAL,507 - HS SOUTH CENTRAL,AMERICAN CARPET,2422 S EXPRESSWAY 83,,,HARLINGEN,TX,78552,http://www.intercarpets.com,(956) 421-3623
206 - NORTHEAST,506 - HS NORTHEAST,CARPET CASTLE INC,2926 TRANSIT RD,,,WEST SENECA,NY,14224,www.flooringcastle.com/,(716) 675-9191
208 - MID CENTRAL,506 - HS NORTHEAST,HARPENAU ENTERPRISES INC,DBA WHITE'S FLOORING,2249 N DETROIT ST,,WARSAW,IN,46580,http://whitesflooring.com/,(574) 269-4443
205 - SOUTH WEST COAST,505 - HS SOUTH WEST COAST,BARGAIN BARN INC.,DBA/CARPET PLUS,1301 W SUNSET BLVD,,SAINT GEORGE,UT,84770,N/A,(435) 628-0870
209 - MID-ATLANTIC,506 - HS NORTHEAST,DAGSBORO PAINT & WALLPAPER,NORTH MAIN ST,PO BOX 57,,DAGSBORO,DE,19939,http://www.dagsboropaint.com/,(302) 732-3333
206 - NORTHEAST,506 - HS NORTHEAST,J & J BRANFORD INC,JOE'S FLOOR STORE,145 N MAIN ST,,BRANFORD,CT,6405,N/A,(203) 483-5667
203 - NORTH CENTRAL,503 - HS NORTH CENTRAL,CARPET WEAVERS - PEORIA,8113 N KNOXVILLE AVE,,,PEORIA,IL,61615,http://www.carpetweaversflooring.com/,(309) 693-7300
220 - SOUTHEAST CENTRAL,501 - HS SOUTHEAST,"HUGHES FLOORCOVERING, INC.",4312 MONROE RD,,,CHARLOTTE,NC,28205,www.hughesfloorcovering.com,(704) 372-7486
220 - SOUTHEAST CENTRAL,501 - HS SOUTHEAST,EASTMAN CARPETS INC,4044 ARENDELL ST,,,MOREHEAD CITY,NC,28557,http://www.eastmancarpet.com/,(252) 726-2737
203 - NORTH CENTRAL,503 - HS NORTH CENTRAL,ONE STOP FLOOR SHOP INC,BESEDA PRO FLOORING,5773 WESTWOOD DR,,SAINT CHARLES,MO,63304,N/A,(636) 926-9989
210 - NORTH WEST COAST,505 - HS SOUTH WEST COAST,"FINISHING TOUCH PNW, INC",14219 SMOKEY PT BLVD BLDG 16,PO BOX 3127,,ARLINGTON,WA,98223,http://www.finishingtouchpnw.com/,(360) 658-0120
208 - MID CENTRAL,506 - HS NORTHEAST,ERIE COUNTY ENTERPRISES INC,JAMIE'S CARPETSHOP-SANDUSKY,46125 TELEGRAPH RD,,AMHERST,OH,44001,N/A,(419) 624-9998
203 - NORTH CENTRAL,503 - HS NORTH CENTRAL,CARPET WEAVERS - BROWNBEE,616 W MARKETVIEW DR,,,CHAMPAIGN,IL,61822,http://www.carpetweaversflooring.com/,(217) 398-1800
205 - SOUTH WEST COAST,505 - HS SOUTH WEST COAST,FURNITURE DISTRIBUTORS INC,APOLLO FLOORING,5851 E SPEEDWAY,,TUCSON,AZ,85712,http://www.apolloflooring.com/,(520) 296-5411
207 - SOUTH CENTRAL,507 - HS SOUTH CENTRAL,LUBBOCK CARPET WORLD I INC,4015 34TH ST,,,LUBBOCK,TX,79410,http://www.lubbockcarpetworld.com/,(806) 792-3848
207 - SOUTH CENTRAL,507 - HS SOUTH CENTRAL,CITATION SECURITIES,DBA CARPET WORLD,8501 SW 34TH AVE UNIT 200,,AMARILLO,TX,79121,N/A,(806) 351-2700
203 - NORTH CENTRAL,503 - HS NORTH CENTRAL,FLOORING & MORE INC,2600 MORSE ST,,,JANESVILLE,WI,53545,www.flooringandmoreinc.com,(608) 757-1151
208 - MID CENTRAL,506 - HS NORTHEAST,"FABULOUS FLOORS, INC",6546 W HIGHWAY 146,,,CRESTWOOD,KY,40014,http://www.fabulousfloors.biz/contact-us/,(502) 241-8799
210 - NORTH WEST COAST,505 - HS SOUTH WEST COAST,RELIABLE FLOOR COVERING INC,542 MAIN ST,,,EDMONDS,WA,98020,www.reliablefloorcoverings.com,(425) 778-1121
210 - NORTH WEST COAST,505 - HS SOUTH WEST COAST,ALEX BUSINESS GROUP,CARPET LAND,3110 E HAMMER LN,,STOCKTON,CA,95212-2812,N/A,(209) 473-3081
220 - SOUTHEAST CENTRAL,501 - HS SOUTHEAST,WILSON CARPET PLUS INC,1718 N MAIN ST,,,SUMMERVILLE,SC,29483,http://www.wilsonscarpetplus.com/,(843) 569-7322
212 - CENTRAL CANADA,212 - CENTRAL CANADA,HOTEK HOLDINGS LTD,CENTRAL ALBERTA FLRINGS & INT,#9 - 7667 50TH AVE,ALBERTA,RED DEER,CN,T4P 1M6,N/A,(403) 342-5010
208 - MID CENTRAL,506 - HS NORTHEAST,CHRISTOFF & SONS FLOOR COV,109 S ELM ST,,,JACKSON,MI,49203-1914,http://www.christoffs.com/,(517) 782-1971
208 - MID CENTRAL,506 - HS NORTHEAST,HOCKEMEYER TODD K INC,K & N CARPET,12108 US 27 SOUTH,,FORT WAYNE,IN,46816,http://www.kncarpet.com/AboutUs/tabid/8715/Default.aspx,(260) 639-3591
208 - MID CENTRAL,506 - HS NORTHEAST,CITY CARPET INC,CARPET MART,2001 WEST PROSPECT RD,,ASHTABULA,OH,44004,N/A,(440) 998-2233
220 - SOUTHEAST CENTRAL,501 - HS SOUTHEAST,EMPIRE CARPET AND DRAPERIES,10500 MCMULLEN CREEK PKWY,,,CHARLOTTE,NC,28226,N/A,(704) 541-3988
205 - SOUTH WEST COAST,505 - HS SOUTH WEST COAST,CARPET U S A,11143 W WASHINGTON BLVD,,,CULVER CITY,CA,90232,www.carpetusa.com,(323) 870-3787
207 - SOUTH CENTRAL,505 - HS SOUTH WEST COAST,MALOOLY'S CARPET CITY,MALOOLY GEORGETTE,765 N VALLEY DR,,LAS CRUCES,NM,88005,www.maloolys.com/,(575) 523-0633
206 - NORTHEAST,506 - HS NORTHEAST,PBK CARPET CORP,CARPET MILL OUTLET,414 STATE ROUTE 10,,EAST HANOVER,NJ,7936,http://ecarpetmill.com/,(973) 884-2060
212 - CENTRAL CANADA,212 - CENTRAL CANADA,SURDEL CARPETS LTD,13562 77TH AVE,,BRITISH COLUMBIA,SURREY,CN,V3W 6Y3,http://www.surdelcarpets.com/,(604) 591-6361
209 - MID-ATLANTIC,506 - HS NORTHEAST,GREATWAY CARPETS INC,520 RT 9 N,,,MANALAPAN,NJ,7726,http://www.greatwaycarpets.com/,(732) 536-3131
210 - NORTH WEST COAST,505 - HS SOUTH WEST COAST,RAYS CARPETS,VERISSIMO DAVID,200 KIERNAN AVE STE A,,MODESTO,CA,95356,http://www.rayscarpets.com/,(209) 577-5642
206 - NORTHEAST,506 - HS NORTHEAST,DELAIRS CARPET BARN INC,3998 ROUTE 2  BOX 56,,,EAST MONTPELIER,VT,5651,http://delairscarpetbarn.com/,(802) 223-7171
203 - NORTH CENTRAL,503 - HS NORTH CENTRAL,VONDERHEIDE FLOOR COVERING,105 N 14TH ST,,,PEKIN,IL,61554,http://www.vonderheide-flooring.com/index.php,(309) 346-3688
204 - CENTRAL PLAINS,503 - HS NORTH CENTRAL,INTERIOR DESIGN INC,1551 SOUTH HOLMEN DR,PO BOX 128,,HOLMEN,WI,54636-0128,http://interiordesignswi.com,(608) 526-3386
210 - NORTH WEST COAST,505 - HS SOUTH WEST COAST,CARPET II INC.,PREMIER FLOORCOVERING,807 S AUBURN ST,,GRASS VALLEY,CA,95945,http://www.premierfloors-gv.com/,(530) 273-3711
208 - MID CENTRAL,506 - HS NORTHEAST,CARPET SHOWCASE,3527 JACOB ST,,,WHEELING,WV,26003,http://www.carpetshowcasellc.com/,(304) 232-2277
204 - CENTRAL PLAINS,503 - HS NORTH CENTRAL,INDEPENDENT PAINT & FLOORING,219 S VICTORY DR,,,MANKATO,MN,56001,http://independentpaintandflooring.com/,(507) 345-7009
203 - NORTH CENTRAL,503 - HS NORTH CENTRAL,CARPET WEAVERS INC,1573 N STATE ROUTE 50,,,BOURBONNAIS,IL,60914,www.carpetweaversflooring.com,(815) 933-1153
208 - MID CENTRAL,506 - HS NORTHEAST,M T DEARING CPT CO INC,7200 APPLE LEAF LANE,,,SELLERSBURG,IN,47172-1869,N/A,(812) 246-5773
204 - CENTRAL PLAINS,503 - HS NORTH CENTRAL,TIM'S RIVER COMPANY INC,DBA CARPET MASTERS,1804 N WOODBINE RD,,SAINT JOSEPH,MO,64506,N/A,(816) 279-3299
203 - NORTH CENTRAL,503 - HS NORTH CENTRAL,TOTAL FLOOR COVERING INC,600 N WESTHILL BLVD,,,APPLETON,WI,54914,www.totalfloorcovering.com,(920) 735-9799
206 - NORTHEAST,506 - HS NORTHEAST,KDK LLC DBA AFFORDABLE FLOORS,1801 W EDGAR RD,,,LINDEN,NJ,7036,http://www.affordable-floors.com,(908) 862-3100
205 - SOUTH WEST COAST,505 - HS SOUTH WEST COAST,LEI FLOOR & WINDOW COVERINGS,430 ALAMAHA ST STE 103,,,KAHULUI,HI,96732,,(808) 871-8008
203 - NORTH CENTRAL,503 - HS NORTH CENTRAL,CARPET WEAVERS - DECATUR,1971 E PERSHING RD,,,DECATUR,IL,62526,,(217) 876-9800
220 - SOUTHEAST CENTRAL,501 - HS SOUTHEAST,JIM KLEMMER FLOORS INC,3022 VIRGINIA BEACH BLVD,,,VIRGINIA BEACH,VA,23452,,(757) 962-3845
207 - SOUTH CENTRAL,507 - HS SOUTH CENTRAL,DICORTE ENTERPRISES LLC,DBA/ADVANCED CARPET & INTS,PO BOX 20834,,WACO,TX,76702,,(254) 772-1717
210 - NORTH WEST COAST,505 - HS SOUTH WEST COAST,TOMMYHAWK INC DBA,CARPET OUTLET THE,7100 CHESTNUT STREET SUITE #B,,GILROY,CA,95020,,(408) 848-6788
210 - NORTH WEST COAST,503 - HS NORTH CENTRAL,"BJM,INC",DBA/NORTHWEST FLOORS,2760 GABEL RD,,BILLINGS,MT,59102,,(406) 651-8080
208 - MID CENTRAL,506 - HS NORTHEAST,RUFENERS INC,137 E OHIO AVE,,,RITTMAN,OH,44270,,(330) 925-9065
220 - SOUTHEAST CENTRAL,501 - HS SOUTHEAST,DIRECT CARPET FACTORY OUTLET,PREMIERE CARPET,223 N CENTER ST,,GOLDSBORO,NC,27530,,(919) 751-5400
207 - SOUTH CENTRAL,507 - HS SOUTH CENTRAL,DAVID'S SUPER FLOOR STORE INC,13885 SOUTHWEST FREEWAY,,,SUGAR LAND,TX,77478,,(281) 491-1114
208 - MID CENTRAL,506 - HS NORTHEAST,SMITTY'S CPT CONNECTION INC,2700 SUNSET BLVD,,,STEUBENVILLE,OH,43952,,(740) 283-3199
201 - SOUTHEAST,501 - HS SOUTHEAST,BUDGET CARPET OUTLET INC,684 MAIN ST SW,,,GAINESVILLE,GA,30501,,(770) 287-8463
208 - MID CENTRAL,506 - HS NORTHEAST,FCB INC,DBA/FLOOR COVERING BROKERS,1794 BARLOW,,TRAVERSE CITY,MI,49686,,(231) 946-3661
206 - NORTHEAST,506 - HS NORTHEAST,TRISTATE CABINET DISTR INC,D/B/A TRISTATE INTERIORS,2925 WESTCHESTER AVE,,BRONX,NY,10461,,(718) 823-3400
201 - SOUTHEAST,501 - HS SOUTHEAST,"AMERICAN CATALOG CARPETS, INC",1050 W I65 SERVICES RD S,,,MOBILE,AL,36609,,(850) 484-8888
207 - SOUTH CENTRAL,505 - HS SOUTH WEST COAST,THE BURRELL CO LLC,DBA FLOORSCAPES,8515 PASEO ALAMEDA NE,,ALBUQUERQUE,NM,87113,,(505) 857-0438
208 - MID CENTRAL,506 - HS NORTHEAST,WILLOWBROOK INTERIORS,JANCCO INC,483 N WILLOWBROOK RD,,COLDWATER,MI,49036,,(517) 278-9889
203 - NORTH CENTRAL,503 - HS NORTH CENTRAL,DONLEN INC,CARPET FOR LESS,13520 TESSON FERRY RD,,SAINT LOUIS,MO,63128,,(314) 849-4420
205 - SOUTH WEST COAST,505 - HS SOUTH WEST COAST,MICHAEL S. BALIAN INC.,67555 E PALM CYN DR STE C113,,,CATHEDRAL CITY,CA,92234,,(760) 324-9797
207 - SOUTH CENTRAL,507 - HS SOUTH CENTRAL,COMMERCIAL FLOORING & MINI,BLINDS OF BATON ROUGE,11840 AIRLINE HWY,,BATON ROUGE,LA,70817,,(225) 293-2225
201 - SOUTHEAST,501 - HS SOUTHEAST,AMERICAN CARPET SALES OF,GULFSHORES,3845 GULF SHORES PKWY,,GULF SHORES,AL,36542,,(251) 967-1700
207 - SOUTH CENTRAL,507 - HS SOUTH CENTRAL,NORTH ACADEMY INTERIORS,3975 N ACADEMY BLVD,,,COLORADO SPRINGS,CO,80917,,(719) 637-9090
205 - SOUTH WEST COAST,505 - HS SOUTH WEST COAST,THE FLOOR STORE INC,THE FLOOR STORE,725 E BASELINE RD,,GILBERT,AZ,85233,,(480) 833-4455
201 - SOUTHEAST,501 - HS SOUTHEAST,MARQUIS FLOORS INC,4694 HIGHWAY 78,,,LILBURN,GA,30047,,(770) 972-1291
210 - NORTH WEST COAST,505 - HS SOUTH WEST COAST,MARSH'S CARPET,9800A BUSINESS PARK DR,,,SACRAMENTO,CA,95827,,(916) 366-9387
208 - MID CENTRAL,506 - HS NORTHEAST,WILLIAMS CARPET INC,1575 HASLETT ROAD,PO BOX 622,,HASLETT,MI,48840,,(517) 339-4385
208 - MID CENTRAL,506 - HS NORTHEAST,CORVINS GENERAL STORE INC,CORVIN FURNITURE & CARPET,6727 N DIXIE HWY,,ELIZABETHTOWN,KY,42701,,(270) 737-5798
201 - SOUTHEAST,501 - HS SOUTHEAST,NORTH GEORGIA FLRS & INTERIORS,470 MONROE STREET,PO BOX 1826,,CLARKESVILLE,GA,30523,,(706) 754-4329
212 - CENTRAL CANADA,212 - CENTRAL CANADA,FLOORSOURCE INC,BOX 190 LAMBETH STATION,,ONTARIO,LONDON,CN,N6P 1P9,,(519) 652-0140
206 - NORTHEAST,506 - HS NORTHEAST,CARPET WAREHOUSE INC,WOOD STOCK AVE,164 US ROUTE 4 E,,RUTLAND,VT,5701,,(802) 747-3314
208 - MID CENTRAL,506 - HS NORTHEAST,HICKERSON FLOOR & TILE HAUS,2234 W M 32,,,GAYLORD,MI,49735,,(989) 731-2003
201 - SOUTHEAST,501 - HS SOUTHEAST,T R FLOORING INC,1328 BUFORD HWY,,,BUFORD,GA,30518,,(770) 945-4097
201 - SOUTHEAST,501 - HS SOUTHEAST,ALBRIGHT FLOORCOVERING CO INC,BILL ALBRIGHT,220 ATHENS HWY STE 500,,LOGANVILLE,GA,30052,,(770) 466-1005
209 - MID-ATLANTIC,506 - HS NORTHEAST,KAKAR LLC,T/A FIRST AMERICAN CARPET,13999 NOBLEWOOD PLZ,,WOODBRIDGE,VA,22193,,(703) 690-6900
205 - SOUTH WEST COAST,505 - HS SOUTH WEST COAST,A C & FLOOR DECOR INC.,ACTION CARPET & FLOOR DECOR,4095 D OCEANSIDE BLVD,,OCEANSIDE,CA,92056,,(760) 726-9777
212 - CENTRAL CANADA,212 - CENTRAL CANADA,RITCHIES CARPET WAREHOUSE,19 PLAZA BLVD,,NEW BRUNSWICK,MONCTON,CN,E1C OE8,,(506) 857-0400
203 - NORTH CENTRAL,503 - HS NORTH CENTRAL,FOREVER FLOORS INC,5407 GREEN BAY RD,,,KENOSHA,WI,53144,,(262) 654-6311
206 - NORTHEAST,506 - HS NORTHEAST,UNITED BUILDERS SUPPLY CO INC,10 OAK ST,,,WESTERLY,RI,2891,,(401) 596-2831
205 - SOUTH WEST COAST,505 - HS SOUTH WEST COAST,TEMPLETON FLOOR CO,734 S MAIN ST,PO BOX 277,,TEMPLETON,CA,93465,,(805) 434-2848
201 - SOUTHEAST,501 - HS SOUTHEAST,HOME CHOICE FLOORING LLC,DB HOME CHOICE WINDOWS,8719 KINGSTON PIKE,,KNOXVILLE,TN,37923,,(865) 357-7007
203 - NORTH CENTRAL,503 - HS NORTH CENTRAL,FLOORING CENTER THE,S4066 HIGHWAY 12,,,BARABOO,WI,53913,,(608) 356-3206
201 - SOUTHEAST,501 - HS SOUTHEAST,CAVENDER'S LLC,DBA: THE INTERIOR COMPANY,1641 E SPRING ST,,COOKEVILLE,TN,38506,,(931) 372-2112
209 - MID-ATLANTIC,506 - HS NORTHEAST,TUFT-TEX CARPET INC,1325 N RIVER ST STE 2,,,PLAINS,PA,18702-1899,,(570) 823-1201
208 - MID CENTRAL,506 - HS NORTHEAST,PONTRICH FLOOR COVERING,PONTRICH THOMAS E,522 HENRY CLAY STREET,,SHELBYVILLE,KY,40065,,(502) 633-3083
209 - MID-ATLANTIC,506 - HS NORTHEAST,NATIONAL CPT WHOLESALE,2431 CROFTON BLVD.,SUITE  #5,,CROFTON,MD,21114,,(410) 451-6100
205 - SOUTH WEST COAST,505 - HS SOUTH WEST COAST,ROBSON COMMUNITIES INC,DBA FLOORING GALLERY & MORE,9666 E RIGGS RD STE 116,,SUN LAKES,AZ,85248,,(480) 895-4241
203 - NORTH CENTRAL,503 - HS NORTH CENTRAL,COMFORT CARPETS INC,3120 N HOME ST,,,MISHAWAKA,IN,46545,,(574) 255-9034
209 - MID-ATLANTIC,506 - HS NORTHEAST,MATTRESS & CARPET EXPRESS,8196 TERMINAL RD.,,,LORTON,VA,22079,,(703) 550-1933
201 - SOUTHEAST,501 - HS SOUTHEAST,CHEROKEE FLOOR COV INC,PO BOX 184,HWY 5 & PALM RD,,LEBANON,GA,30146,,(770) 926-7500
208 - MID CENTRAL,506 - HS NORTHEAST,CORVINS FURNITURE & CARPET LLC,3465 E JOHN ROWAN BLVD,,,BARDSTOWN,KY,40004,,(502) 348-7474
201 - SOUTHEAST,501 - HS SOUTHEAST,CARPET CONCEPTS LLC,386 W MAIN ST STE 101,,,HENDERSONVILLE,TN,37075,,(615) 826-4496
204 - CENTRAL PLAINS,503 - HS NORTH CENTRAL,TRADITIONAL FLOORS *FS,1800 HWY 23 NORTH EAST,,,SAINT CLOUD,MN,56304,,(320) 251-5200
206 - NORTHEAST,506 - HS NORTHEAST,WHOLESALE FLOORING,10 LAFAYETTE RD,,,NORTH HAMPTON,NH,3862,,(603) 964-8023
208 - MID CENTRAL,506 - HS NORTHEAST,SON-SHINE FLOOR COVERING LTD,31065 RYAN RD,,,WARREN,MI,48092,,(586) 795-8020
203 - NORTH CENTRAL,503 - HS NORTH CENTRAL,"ZERSEN FLOORING, INC.",412 8TH ST,,,MONROE,WI,53566,,(608) 325-5044
209 - MID-ATLANTIC,506 - HS NORTHEAST,EADEH HANNAH RUG,WELSH & N WALES,1196 WELSH RD,,NORTH WALES,PA,19454,,(215) 362-6800
207 - SOUTH CENTRAL,507 - HS SOUTH CENTRAL,THE PAINT DEPOT INC.,DBA THE PAINT & CARPET DEPOT,11600 CHENAL PKWY STE 3,,LITTLE ROCK,AR,72211,,(501) 225-1871
206 - NORTHEAST,506 - HS NORTHEAST,NORTHEAST INTERIOR CONST INC,NORTHEAST CARPET CENTER,280 DANBURY RD,,NEW MILFORD,CT,6776,,(860) 354-2600
207 - SOUTH CENTRAL,505 - HS SOUTH WEST COAST,DEVO CORPORATION,MCCRACKEN'S,1218 MECHEM DR,,RUIDOSO,NM,88345-7206,,(575) 258-8801
206 - NORTHEAST,506 - HS NORTHEAST,HOUSE OF CARPET INC,DBA/CARPET EXPRESS,721 RT 25A,,ROCKY POINT,NY,11778,,(631) 399-1890
207 - SOUTH CENTRAL,507 - HS SOUTH CENTRAL,MENKE INC,3142 S 27TH ST,,,ABILENE,TX,79605,,(325) 673-5096
201 - SOUTHEAST,501 - HS SOUTHEAST,H & H CARPETS INC,1251 WATSON BLVD,,,WARNER ROBINS,GA,31093,,(478) 922-7747
205 - SOUTH WEST COAST,505 - HS SOUTH WEST COAST,FACTORY FLOORING DIRECT,7666 HIGHWAY 36,,,LAKE POINT,UT,84074,,(801) 250-0799
220 - SOUTHEAST CENTRAL,501 - HS SOUTHEAST,GRAND STRAND FLOORS INC,1917 10TH AVE NORTH,,,MYRTLE BEACH,SC,29577-5652,,(843) 626-3226
202 - FLORIDA,502 - HS FLORIDA,BURNS FLOORING & DESIGN LLC,6256 CYPRESS GARDENS BLVD,,,WINTER HAVEN,FL,33884-3177,,(863) 299-9080
208 - MID CENTRAL,506 - HS NORTHEAST,BENNETTS CARPETS INC,ATTN: IVAN BENNETT,149 STEVE DRIVE,,RUSSELL SPRINGS,KY,42642,,(270) 866-6930
205 - SOUTH WEST COAST,505 - HS SOUTH WEST COAST,BY DESIGN FLOOR COV,2628 LAVERY CT STE 401,,,NEWBURY PARK,CA,91320,,(805) 376-9586
207 - SOUTH CENTRAL,507 - HS SOUTH CENTRAL,CARPET WORKS OF CHEYENNE INC,3573 E LINCOLN WAY STE G2,,,CHEYENNE,WY,82001,,(307) 778-3173
201 - SOUTHEAST,501 - HS SOUTHEAST,JAYNES RONNIE CARPET CTR INC,JAYNES FLOORING OUTLET,3245 E ANDREW JOHNSON HWY,P.O. BOX 339,GREENEVILLE,TN,37744,,(423) 639-1901
202 - FLORIDA,502 - HS FLORIDA,QUALITY CARPET OUTLET INC,3680 N. ACCESS ROAD,,,ENGLEWOOD,FL,34224,,(941) 474-0076
208 - MID CENTRAL,506 - HS NORTHEAST,PERRYSBURG FLOOR COVERING LLC,27072 CARRONADE DR STE H,,,PERRYSBURG,OH,43551,,(419) 872-4911
205 - SOUTH WEST COAST,505 - HS SOUTH WEST COAST,FLOORMART LLC,DBA/FLOOR RENDITIONS,4601 E BELL RD STE 5,,PHOENIX,AZ,85032,,(999) 999-9999
212 - CENTRAL CANADA,212 - CENTRAL CANADA,COLAUTTI BROS MARBLE TILE AND,CARPET (1985) INC,2779 HOWARD AVE,ONTARIO,WINDSOR,CN,N8X 3X7,,(519) 966-1111
208 - MID CENTRAL,506 - HS NORTHEAST,CUSTOM HOME INTERIORS INC,225 S COCHRAN AVE,,,CHARLOTTE,MI,48813,,(517) 543-7120
201 - SOUTHEAST,501 - HS SOUTHEAST,"110%, INC",DBA  GREAT AMERICAN FLOORS,5965 PEACHTREE CORNERS E,,NORCROSS,GA,30071,,(770) 399-9110
206 - NORTHEAST,506 - HS NORTHEAST,BOGARTS CPT & FLOOR COVERING,1011 US HIGHWAY 46,,,LEDGEWOOD,NJ,7852,,(973) 252-2400
210 - NORTH WEST COAST,505 - HS SOUTH WEST COAST,MEYER FLOOR COV INC,8400 SOUTH TACOMA WAY,,,TACOMA,WA,98499,,(253) 588-6677
203 - NORTH CENTRAL,503 - HS NORTH CENTRAL,MID WISCONSIN FLOORING LLC,5600 WOODLAND ST STE B,,,STEVENS POINT,WI,54481,,(715) 343-5391
206 - NORTHEAST,506 - HS NORTHEAST,DCS WAREHOUSE OUTLET C/O,C/O WHSE,45 INDUSTRIAL PARK RD,,ALBANY,NY,12206,,(518) 459-0200
209 - MID-ATLANTIC,506 - HS NORTHEAST,FLOORWARE INC,1319 SHEPARD DR STE D,,,STERLING,VA,20164,,(703) 796-2292
206 - NORTHEAST,506 - HS NORTHEAST,NEW BEGINNINGS FLOORING,20 WHITTEN RD,,,AUGUSTA,ME,4330,,(207) 512-8650
208 - MID CENTRAL,506 - HS NORTHEAST,MIGALA RUG & TILE LLC,2670 NILES RD,,,SAINT JOSEPH,MI,49085,,(269) 429-8000
205 - SOUTH WEST COAST,505 - HS SOUTH WEST COAST,S & C FLOORING,OGDENS CARPET OUTLET,2232 N MAIN ST,,CEDAR CITY,UT,84721-9790,,(435) 867-1777
208 - MID CENTRAL,506 - HS NORTHEAST,WEST MICHIGAN CPT BROKERS INC,53109 MAIN STREET,PO BOX 428,,MATTAWAN,MI,49071-0428,,(269) 668-5378
206 - NORTHEAST,506 - HS NORTHEAST,JIMMY STUART'S,325 MARKET ST,,,WARREN,RI,2885,,(401) 289-2700
205 - SOUTH WEST COAST,505 - HS SOUTH WEST COAST,DESIGN PLUS INTERIORS LLC,4460 E MAIN ST,,,MESA,AZ,85205,,(480) 807-4460
206 - NORTHEAST,506 - HS NORTHEAST,WE'LL FLOOR U INC,201 W MONTAUK HWY,,,HAMPTON BAYS,NY,11946,,(631) 728-7359
203 - NORTH CENTRAL,503 - HS NORTH CENTRAL,MC CALLS FLOOR MART,458 W LITTLE OAKS RD,,,ROLLA,MO,65401,,(573) 364-7811
207 - SOUTH CENTRAL,507 - HS SOUTH CENTRAL,FLAGSHIP FLOORS INC,1246 E MAIN ST,,,LEAGUE CITY,TX,77573,,(281) 332-2272
208 - MID CENTRAL,506 - HS NORTHEAST,MILFAIR LINOLEUM & CPT CO INC,634 STEUBENVILLE AVE,,,CAMBRIDGE,OH,43725,,(740) 432-3938
210 - NORTH WEST COAST,505 - HS SOUTH WEST COAST,CARPET MILL,715 N MAIN ST,,,MOSCOW,ID,83843,,(208) 883-5567
207 - SOUTH CENTRAL,507 - HS SOUTH CENTRAL,DONS MOBILE CARPET INC,1210 W COLLINS DR,,,CASPER,WY,82604,,(307) 265-8444
205 - SOUTH WEST COAST,505 - HS SOUTH WEST COAST,"CARPET SPECTRUM, INC.",2212 LOMITA BLVD,,,LOMITA,CA,90717,,(310) 539-8818
203 - NORTH CENTRAL,503 - HS NORTH CENTRAL,TILE WORKS & MORE INC,395 SOUTH LOCUST (RT 50),,,MANTENO,IL,60950,,(815) 468-8789
210 - NORTH WEST COAST,505 - HS SOUTH WEST COAST,REAM INC,DBA FLOOR STORE USA,1676 CONTRA COSTA ST,,SAND CITY,CA,93955,,(831) 583-9124
206 - NORTHEAST,506 - HS NORTHEAST,WORLDWIDE IMPEX CORP.,KORKMAZ RUGS & FLOORING,10 ROUTE 17 S,,RUTHERFORD,NJ,7070,,(201) 372-0090
201 - SOUTHEAST,507 - HS SOUTH CENTRAL,FLOORING MART LLC THE,1261 PASS RD,,,GULFPORT,MS,39501,,(228) 864-4111
207 - SOUTH CENTRAL,507 - HS SOUTH CENTRAL,ARBUCKLE FLRG & FINE STONE INC,1211 VETERANS BLVD,,,ARDMORE,OK,73401,,(580) 223-4929
201 - SOUTHEAST,501 - HS SOUTHEAST,DESIGNER FLOORS,FROST DAVID,8200 HIGHWAY 100,,NASHVILLE,TN,37221,,(615) 646-2292
201 - SOUTHEAST,501 - HS SOUTHEAST,FLOOR WORKS INC,"BARNETT, DAVID",309 WEST AVE,,DALLAS,GA,30157,,(770) 445-6263
204 - CENTRAL PLAINS,503 - HS NORTH CENTRAL,QUALITY FLOOR COVERING,3235 E HAMILTON AVE,,,EAU CLAIRE,WI,54701,,(715) 855-1140
220 - SOUTHEAST CENTRAL,501 - HS SOUTHEAST,PIEDMONT FLOOR DESIGN LLC,2011 ENTERPRISE DR,,,FOREST,VA,24551,,(434) 316-5985
206 - NORTHEAST,506 - HS NORTHEAST,CARPET & RUG DEPOT,AHJ MARKETING INC,659 WARREN AVE,,PORTLAND,ME,04103-5904,,(207) 775-7818
220 - SOUTHEAST CENTRAL,501 - HS SOUTHEAST,SHEPARDS FLOORS,413 WESTERN BLVD,,,JACKSONVILLE,NC,28546,,(910) 347-2226
204 - CENTRAL PLAINS,503 - HS NORTH CENTRAL,MENOMONIE FLOORING CENTER,1701 STOUT RD STE A,,,MENOMONIE,WI,54751,,(715) 233-1000
206 - NORTHEAST,506 - HS NORTHEAST,FLOOR STORE THE,TFS COMPANY INC,904 RTE 110,,FARMINGDALE,NY,11735,,(631) 752-7520
203 - NORTH CENTRAL,503 - HS NORTH CENTRAL,FLETCHERS WAREHOUSE CARPET,FLETCHER DEE INC,2100 E TOTO RD,,KNOX,IN,46534,,(574) 772-7088
207 - SOUTH CENTRAL,507 - HS SOUTH CENTRAL,DANNYS HOUSE OF CARPET INC,1670 W SOUTH LOOP,,,STEPHENVILLE,TX,76401,,(254) 968-2880
205 - SOUTH WEST COAST,505 - HS SOUTH WEST COAST,LEATHER GALLERY,9901 INDIANA AVE STE 104,,,RIVERSIDE,CA,92503,,(951) 351-9911
206 - NORTHEAST,506 - HS NORTHEAST,CONTRACT INTERIORS INC,PO BOX 13,2488 GRAND ISLAND BLVD,,GRAND ISLAND,NY,14072,,(716) 773-6995
208 - MID CENTRAL,506 - HS NORTHEAST,GREER'S DON FASHION FLOOR,GREER DON JR,1265 JEFFERSON AVE,,WASHINGTON,PA,15301,,(724) 228-2250
209 - MID-ATLANTIC,506 - HS NORTHEAST,BAER INC,BILLING ACCT ONLY,901 LINE ST,,EASTON,PA,18042,,(610) 258-3947
204 - CENTRAL PLAINS,503 - HS NORTH CENTRAL,FINISHING TOUCH DESIGN STUDIO,302 S 2ND ST,,,ABERDEEN,SD,57401,,(605) 225-4242
210 - NORTH WEST COAST,505 - HS SOUTH WEST COAST,FLOOR CENTER,43421 K-BEACH ROAD,,,SOLDOTNA,AK,99669,,(907) 260-6646
201 - SOUTHEAST,501 - HS SOUTHEAST,RIVERSIDE INTERIORS DULUTH,DBA GREGORY'S PAINT & FLOORING,10350 MEDLOCK BRG RD STE 201,,JOHNS CREEK,GA,30097,,(770) 476-9651
205 - SOUTH WEST COAST,505 - HS SOUTH WEST COAST,HOUSE 2 HOME RETAIL INC,PO BOX 530672,,,HENDERSON,NV,89053,,(702) 888-6666
208 - MID CENTRAL,506 - HS NORTHEAST,MORSE CLARK FURNITURE CO,219 W HOUGHTON AVE,,,WEST BRANCH,MI,48661,,(989) 345-0355
203 - NORTH CENTRAL,503 - HS NORTH CENTRAL,REDLINE MANAGEMENT INC,5186 NORTHWEST HWY,,,CRYSTAL LAKE,IL,60014,,(815) 459-3113
201 - SOUTHEAST,507 - HS SOUTH CENTRAL,HENCO INC,P.O. BOX 547,205 HENCO DR,,SELMER,TN,38375,,(731) 645-3255
208 - MID CENTRAL,506 - HS NORTHEAST,COURTLEE INTERIORS INC,2499 WEST MARKET ST,,,TIFFIN,OH,44883,,(419) 447-1751
209 - MID-ATLANTIC,506 - HS NORTHEAST,MERIDA INC DBA BOUNTIFUL,218 N WASHINGTON ST,,,EASTON,MD,21601,,(410) 763-8500
207 - SOUTH CENTRAL,507 - HS SOUTH CENTRAL,MIKE'S CARPET INC,4005 PRINCE ST,,,CONWAY,AR,72034,,(501) 505-8022
210 - NORTH WEST COAST,505 - HS SOUTH WEST COAST,OLEMILL INC.,DBA SUPERIOR FLOOR COVERING,*** BILL-TO ONLY ***,601 MENDOCINO AVE,SANTA ROSA,CA,95401,,(707) 575-9331
201 - SOUTHEAST,501 - HS SOUTHEAST,KAREN'S CARPET SALES INC.,1961 CLINTON HWY,,,POWELL,TN,37849,,(865) 945-3353
207 - SOUTH CENTRAL,507 - HS SOUTH CENTRAL,JIM OWENS CARPET CORP,MANDEVILLE STORE,4400 AIRLINE DR,,METAIRIE,LA,70001,,(504) 835-6969
206 - NORTHEAST,506 - HS NORTHEAST,STR INC,D/B/A ELEGANT FLOOR LLC,2785 SHELBURNE RD,,SHELBURNE,VT,5482,,(802) 448-3067
206 - NORTHEAST,506 - HS NORTHEAST,FOUR STAR FLOORING INC,52 DOW ST,,,MANCHESTER,NH,03101-1211,,(603) 624-7827
209 - MID-ATLANTIC,506 - HS NORTHEAST,K A R  INC.,CHURCHVILLE TILE & MARBLE,2203 COMMERCE ROAD UNIT 1,,FOREST HILL,MD,21050,,(410) 879-3010
208 - MID CENTRAL,506 - HS NORTHEAST,HILLTOP CARPET,G&R WAGNER ENTERPRISES INC,6226 DAVIS CREEK ROAD,,BARBOURSVILLE,WV,25504,,(304) 736-3946
205 - SOUTH WEST COAST,505 - HS SOUTH WEST COAST,CURTIS CARPETS,614 OLIVE ST,,,SANTA BARBARA,CA,93101,,(805) 963-1921
208 - MID CENTRAL,506 - HS NORTHEAST,WWTT INTERIORS INC,OLIVERS HOUSE OF CPT & FURN,P.O. BOX 140- 1348 W HOUGHTON,,PRUDENVILLE,MI,48651,,(989) 366-7245
206 - NORTHEAST,506 - HS NORTHEAST,NASSAU'S FURNITURE CO,1315 JOHN FITCH BLVD,,,SOUTH WINDSOR,CT,6074,,(860) 291-2853
208 - MID CENTRAL,506 - HS NORTHEAST,FLOORSCAPES BY FARIS LLC,1020 TOWNE SQUARE DR STE 2,,,GREENSBURG,PA,15601,,(724) 216-5619
212 - CENTRAL CANADA,212 - CENTRAL CANADA,SELYANS ORIENTAL RUGS LTD,1783 AVENUE RD,**FOR BILLING ONLY**,ONTARIO,TORONTO,CN,M5M 3Y8,,(416) 781-2030
212 - CENTRAL CANADA,212 - CENTRAL CANADA,WEST VALLEY CARPET & FLRNG LTD,"#101, 12018 SYMONS VALLEY RD N",,ALBERTA,CALGARY,CN,T3P 0A3,,(403) 614-5813
International,International,EDIES DECOR LTD,PO BOX 10671 A P O,64 EASTERN AVENUE,,GRAND CAYMAN,,,,(345) 949-6348
,,,,,,,,,,
,,,,,,,,,,