name,address,city,postal,state,phone,websites,owners,primary_email,contacts,other_emails
RC Willey,2301 S. 300 W.,Salt Lake City,84165,UT,(801) 493-4252,rcwilley.com,,,"Steve Hendricks,Steve Hendricks,Steve Hendricks",steve.hendricks@rcwilley.com
CARPET EXCHANGE,1133 S. PLATTE RIVER DRIVE,DENVER,80223,CO,(303) 744-3300,www.carpetexchange.com,Bruce Odette,bodette@carpetexchange.com,"Bruce Odette,Chuck Sari,Bruce Odette",csari@carpetexchange.com
Peek's Carpet & Tile,3933 N. Central Expressway,Plano,75023,TX,(972) 529-6677,www.peekscarpet.com,,,"Bill Ferron,Murphy Dykes,Todd",murphyd@peekscarpet.com
Bill`s Carpet Fair Inc,7100 Rutherford Rd,BALTIMORE,21244,MD,(410) 944-0010,www.billscarpetfair.com,,,"Bonnie Riddle,,",
Hadinger Carpet,6401 N Airport Road,Naples,34109,FL,(239) 566-7100,Hadinger.com,Tom Hadinger,tomh_hadinger@yahoo.com,"Tom Hadinger,Paul Demarais,",Paul Demarais
Air Base Carpet Mart Inc,230 N Dupont Hwy,New Castle,19720,DE,(610) 363-5017,http://www.airbasecarpetandtile.com/,Michael Longwell,rugnroll@aol.com,",Dan Parker,Jeanie",dparker@carpetmart.com
Paulson,13545 NW Science Park Dr.,Portland,97229,OR,(503) 235-8711,www.paulsonsfloorcovering.com,,,"Lloyd Shipman,,Lloyd",
Rusmur Floors,500 Station St,Bridgeville,15017,PA,(412) 221-6366,rusmurfloors.com,rick murray,rick@rusmurfloors.com,"rick murray,john murray,rick murray",john murray
Bode Floors,9305 Gerwig Lane,Columbia,21046,ML,(410) 381-5900,www.bodefloors.com,Chuck Bode,chuckbode@cbflooring.com,"Michele Amedeo,Michele Amedeo,Ellen Liber",micheleamedeo@cbflooring.com
Mill Creek Carpet and Tile,6845 E 41st St,Tulsa,74145,OK,(918) 621-4000,http://www.millcreekcarpet.com/ne-oklahoma/tulsa41st,Jack Rodden,,",Gary Grey,",garyg@millcreekcarpet.com
Floor Store,1460 Concord Ave,Concord,94520,CA,(510) 527-3203,www.floorstores.com,Larry Flick,Larryf@Floorstores.com,",Bret Lowder,",BretL@Floorstores.com
Baker Brothers,3719 E Bell Rd,Phoenix,85032,AZ,(602) 493-5780,www.bakerbros.com,Phil Koufidakis,philk@bakerbos.com,"Maggie Henry,Craig Washington,Maggie Henry",craigw@bakerbros.com
Levi 4 Floors,6329 Busch Blvd,Columbus,43229,OH,(614) 846-4441,www.levis4floors.com,Tom Levi,tlevi@levis4floors.com,"Tom Levi,Tom Levi,Tom Levi",tlevi@levis4floors.com
Sergenian`s Floor Coverings,2805 W Beltline Hwy,Madison,53713,WI,(608) 271-1111,http://www.sergenians.com/,Jim Garner,jimg@sergenians.com,"Bob Steinberg,Mark Maly,Bob Steinberg",markm@sergenians.com
Brewer Carpet & Design Center,801 W 15th St,Edmond,73013,OK,(405) 340-5140,www.brewercarpetoneedmond.com,Tom Brewer,,"Tom Brewer,John Randall,",
Nonn's Design Showplace,W1707 Hwy 164 S,Waukesha,53186,WI,(608) 836-8833,http://www.nonnsdesignshowplace.com/,Adam Nonn,anonn@nonnsflooring.com,"Joe,Joe Laskiewitz,Kelly",jlaszkiewicz@nonnsflooring.com
SSC corp,11335 Meredith Dr,Urbandale,50322,IA,(515) 270-0087,N/A,Dan Stalzer,dans@flooring-gallery.com,"Joe Stalzer,Joe Stalzer,Joe Stalzer",jstalzer@flooring-gallery.com
Hall's Flooring,3300 Monroe Rd,Charlotte,28205,NC,(704) 376-8501,http://www.hallsflooring.com/,Keith Dunn,hkdunn50@yahoo.com,"KEITH DUNN,Keith Dunn,KEITH DUNN",hkdunn50@yahoo.com
EMW Carpet & Furniture,2141 South Broadway,Denver,80210,CO,(303) 744-2754,www.emwcarpets.com,Eric and Claudia Helmstaedter,claudia@emwcarpets.com,"Eric Helmstaedter,Eric,Eric Helmstaedter",
Carpet One Tucson,2726 E Ft. Lowell,TUCSON,85716,AZ,(520) 327-6838,www.tucsoncarpetstore.com,Dave Lucas,dlucas@carpetonetucson.com,"Dave Lucas,Windy Baker,Dave Lucas",wbaker@carpetonetucson.com
Elte Carpets Ltd,80 Ronald Ave,Toronto,M6E 5A2,ON,(416) 785-7885,http://www.elte.com/,ken metick,kmetrick@elte.com,"ken metrick,,ken metrick",
Carpet One of San Ramon Floor & Home,1985 San Ramon Blvd,San Ramon,94583,CA,(925) 837-3716,http://www.carpetoneofsanramon.com/,Tony Leonard,tleonard@carpet1sr.com,"Tony Leonard,Greg Gibbert,Tony Leonard",ggibbert@carpet1sr.com
Abbey Carpet Of Naples LLC ST1220,13250 Tamiami Trail North,Naples,34110,FL,(239) 596-5959,www.naples.abbeycarpet.com,Phil Guitterrez,pguitterrez@abbeycarpet.com,"Gene Presson,Gene Presson,Gene Presson",gpresson@abbeycarpet.com
Carpet Den Interiors,264 Mallory Station Rd Ste 1,Franklin,37064,TN,(615) 771-0128,www.carpetden.com,,,"Keith Earp,Keith Earp,",Keith Earp
Jack's Carpet,8433 Gulf Freeway,Houston,77017,TX,(713) 640-1114,Jackscarpet.com,Jack Fitzpatrick SR,JackSr@jackscarpet.com,"Jack Fitzpatrick,Kurt Duitsman,",Kurt.Duitsman@Jackscarpet.com
Myers Carpet,1500 Northside Dr,Atlanta,30318,GA,(404) 352-8141,myerscarpet.com,Ray Myers,,"Chris Fonville,,Chris Fonville",
Britts Carpet One,3293 Stone Mountain Hwy,Snellville,30078,GA,(770) 972-2808,N/A,Dianne Britt,jamie@britts.com,"Dianne,,",
Carpet One,2001 Coit Road Suite 301,Plano,75075,TX,(972) 596-5556,http://www.carpetoneplano.com/,,,",Tom Crowl,",tomc@floorsinc.com
Landry & Arcari,63 Flint St,Salem,1970,MA,(978) 744-5909,landryandarcari.com,Jerry Arcari,jerry@landryandarcari.com,"Julie Arcari,Jeff Arcari,Julie Arcari",jeff@landryandarcari.com
Marshall Carpet,1451 SOM Center Rd.,Mayfield Hts.,44124,OH,(440) 449-4977,marshallcarpet.com,Chuck Wien,cwien@marshallcarpet.com,"Mark Wien,,Mark Wien",
Giant Floor & Wallcovering,1345 Hwy 315,Wilkes Barre,18702,PA,(570) 825-3435,www.giantfloor.com,Peter Rubando,prubandosouth@comcast.net,"Peter Rubando,Alice Fassett,",alicefassett@hotmail.com
California Carpet,1197 Folsom Street,San Francisco,94103,CA,(415) 487-3636,WWW.Calfloor.com,John Wilson,JWilson@Calfloor.com,"John Wilson,,John Wilson",
Naffco,1510 S Macdill Ave,Tampa,33629,FL,(813) 254-4066,http://www.naffco.biz/,,,",Rick Saa,",Rick Saa
Carpet Trends,5 Smith Street,Rye,10580,NY,(914) 967-5188,carpettrends.com,Rob Rodgers,robr@carpettrends.com,"John Burns,John Burns,",johnb@carpettrends.com
Carpet Exchange,4901 Alpha,Dallas,75244,TX,(972) 385-3545,http://www.carpetexchangeonline.com/,Clyde Cumby,crptx@aol.com,"Clyde Cumby,,Clyde Cumby",
Crest Wholesale Carpet Distributors,6412 Hamilton Blvd,Allentown,18106,PA,(610) 395-3395,www.crestcarpet.com,Steve Weisberg,sweisberg@crestcarpet.com,"Steve Weisberg,Cheri Chinnici,Steve Weisberg",cchinnici@crestcarpet.com
Russell-Martin and Son,663 N. Washington St,Naperville,60563,IL,(630) 961-1312,www.rmcarpets.com,Dave Martin,dmartin@rmcarpets.com,"Dave Martin,Dave Martin,Dave Martin",dmartin@rmcarpets.com
Lehms Inc/Carpetland,4301 Industrail Ave.,Lincoln,68504,NE,(402) 467-6363,www.carpetlandonline.com,Jeff Lehms,lehms4301@aol.com,"Jeff Lehms,Greg Gose,Jeff Lehms",lehms4301@aol.com
Florcraft Inc.,1991 Fox Ave.,Fairbanks,99701,AK,(907) 452-1423,N/A,,,"Wayne Miller,,Wayne Miller",
A & M Flooring America,160 E Bullard Ave.,Fresno,93710,CA,(559) 448-1000,amcarpet.com,Lee Horwitz,chiamleb18@aol.com,"Lee Horwitz,,Lee Horwitz",
Luna Flooring Gallery,1253 E. Golf Rd,Schaumburg,60173,IL,(630) 848-1155,www.luna.com,Morrie DeZara,mdezara@luna.com,"Morrie DeZara,Steve Kritz,Morrie DeZara",
Brentwood Carpets Inc,4600 Paragon Park Road,Raleigh,27616,NC,(919) 872-2775,http://www.brentwoodcarpets.com/,,,"Harry Harles,,Harry Harles",
HJ Martin,320 S Military Ave,Green Bay,54303,WI,(920) 494-3461,http://www.hjmartin.com/,Edward Martin,,"Randy Krause,Randy Krause,Randy Krause",randy@hjmartin.com
Ruggs Benedict,810 Nottingham Rd,Avon,81620,CO,(970) 949-5390,www.ruggsbenedict.com,Roger Benedict,rbenedict@ruggsbenedict.com,"Roger Benedict,GiGi Lepley,Roger Benedict",glepley@vail.net
J P FLOORING DESIGN CENTER,9097 UNION CENTRE BLVD,WEST CHESTER,45069,OH,(513) 346-4300,jpflooring.com,Phil Schrimper,pschrimper@jpflooring.com,",Rick Ianetti,",Rick Ianetti
Fishers Floor Covering,1572 Wilmington Pike,West Chester,19382,NY,(610) 558-0900,N/A,Lee Fisher,,",Lee Fisher,",Lee Fisher
Kerns Carpets,19655 West Bluemound Rd,Brookfield,53045,WI,(262) 782-4500,http://www.kernscarpets.com/,Bill Kerns,billk@kernscarpets.com,"Bill Kerns,Mark Hefflefinger,Bill Kerns",
Prestige Carpets,23351 Avenida de la Carlota,Laguna Hills,92653,CA,(949) 768-7445,http://www.occarpet.biz/,Jim Winn,,"Jim Winn,,Jim Winn",
Rocklin Carpet One Floor & Home,6506 Lone Tree Blvd.,Rocklin,95765,CA,(916) 782-1188,http://www.rosevillecarpetonerocklin.com/,Earl Mann,,"Mark Knasko,Mark Knasko,Earl Mann",mknasko@aol.com
We`ll Floor U,951 Alternate A1A,Jupiter,33477,FL,(561) 744-2750,www.wellfloorufla.com,Steve DeSmit,wellfloorujup@aol.com,"Steve DeSmit,Micheal Strahan,Steve DeSmit",
MIKES CARPET OF VIRGINIA INC,4425 BROOKFLD CORP DR STE-300,CHANTILLY,20151,VA,(703) 802-3485,www.mikescarpetdesign.com,Mike,rbeahm@mikescarpet.net,",Bob Beahm,",rbeahm@mikescarpet.net
Macco's Flooring Inc,2035 Larsen Road,Green Bay,54303,WI,(920) 432-5501,http://www.maccosflooring.com/,Jim Walters,jimw@maccosflooring.com,",Jim Walters,",
JB Factory Carpets,3100 22nd Ave North,St. Petersburg,33713,FL,(727) 322-5757,www.rugsrus.biz & www.jbfactorycarpet.com,Bill Boukalis,,",Bill Boukalis,",Bill Boukalis
Floors*USA,555 S. Henderson Road,King of Prussia,19406,PA,(610) 757-4000,www.floorsusa.com,MIchael Erlbaum,,",Janice Giadano,",JG@floorsusa.com
Mid West Floor Co,2714 Breckeridge Industrial Ct,St Louis,63144,MO,(314) 647-6060,www.mid-westfloor.com,Vergil Hendricks,,"Herb Olmsted,Herb Olmsted,Herb Olmsted",herb@mid-westfloor.com
Ernies In Ceresco,318 South 2nd Street,Ceresco,68017,NE,(402) 665-3151,www.erniesinceresco.com,Dean Swanson,dswanson@erniesinceresco.com,"Jerry Taff,Jerry Taff,Jerry Taff",jtaff@erniesinceresco.com
Rochester Linoleum & Carpet,2850 West Ridge Road,Rochester,14626,NY,(585) 396-2707,http://www.rochesterlinoleumncarpetone.com/,albert pelusio,,"albert pelusio,,albert pelusio",
Coyle Carpet,250 W. Beltline Hwy,Madsion,53713,WI,(608) 257-0291,http://www.coylecarpetonemadison.com/,Pat Coyle,,"Tom Coyle,Tom Coyle,Tom Coyle",
Floortech,10180 Washington Ave,Sturtevant,53177,WI,(262) 554-4645,,David Hawes,dhawes@floortechwi.com,"David Hawes,,David Hawes",
Halpins Carpets,7740 Greenwill Springs,Baton Rouge,70814,LA,(504) 927-8741,http://www.halpinsflooringbatonrougela.com/contact-us,RUSS HALPIN,,",LARRY THIBODEAUX,",LARRY THIBODEAUX
Runyon`s Furniture & Floor Covering,1975 N. Monroe Street,Monroe,48161,MI,(734) 242-2836,N/A,Tony Runyon,tprunyon@yahoo.com,"Tony Runyon,Tony Runyon,Tony Runyon",
Dalton Carpet One,3690 Atlanta Hwy Ste 108,Athens,30606,GA,(706) 353-0547,www.daltoncarpetone.com,Mike Blanton,mblanton@daltoncarpetone.com,"Mike,,Mike",
Strathmore Floors,"50 E Great Southwest Pkwy, SW",Atlanta,30336,GA,(404) 872-0024,strathmorefloors.com,Gerald Lyle,,"Gerald,,Gerald",
Barb - Lin Carpet One,640 N Main St,Doylestown,18901,PA,(215) 348-8116,,Lin Bosler,Floors@barb-lin.com,",Lin Bosler,",Floors@barb-lin.com
Apelian Carpets,2900 Central Street,Evanston,60201,IL,(847) 328-9500,www.apeliancarpets.com,George Apelian Sr,,"George Apelian Sr,George Apelian Jr.,George Apelian",gapelian@Yahoo.com
Powers Carpet One,71-685 Hwy 111,Rancho Mirage,92270,CA,(760) 346-0523,linda@powerscarpetone.com,Gray Powers,gary@powerscarpetone.com,"Gary Powers,Linda Lauden,Gary Powers",Linda Lauden
Floors of Distinction,12642 Bass Lake Road,Maple Grove,55369,MN,(763) 553-1800,www.floorsofdistinction.com,Bruce Beaudoin,bbeaudoin@floorsofdistinction.com,",Bruce Beaudoin,",bbeaudoin@floorsofdistinction.com
Dillabaughs Flooring America,2895 South Federal Way,Boise,83705,ID,(208) 287-2450,http://www.dillabaughsflooringamerica.com/,Cal Dillabaugh,,"Casey Dillabaugh,Casey Dillabaugh,Casey Dillabaugh",Casey Dillabaugh
Stevens Carpet One,207 East Carroll St,Carrollitown,15722,PA,(814) 344-8414,stevenscarpetone.com,Sam Stevens,samcpt1@comcast.net,"Sam Stevens,,",
FREDS RUG SERVICE,2153 W TORRANCE BLVD,TORRANCE,90501,CA,(310) 533-8133,,Jerry Butler,freds@fredscarpetsplus.com,"Jerry Butler,,Jerry Butler",
Rotmans Furniture & Carpet,725 Southbridge St,Worcester,1610,MA,(508) 755-5276,www.rotmans.com/,Barry Rotman,barryrotman@rotmans.com,"Paula Davis,Paula Davis,Paula Davis",pdavis@rotmans.com
Jacobi's Carpet One,236 N Denver,Hastings,68901,NE,(402) 463-3811,www.carpetone.com/jacobis,Tim Jacobi,jc14626@windstream.net,"Tim Jacobi,Tim Jacobi,Tim Jacobi",Tim Jacobi
Custom Carpet Centers,2847 Southwestern Blvd,Orchard Park,14127,NY,(716) 674-0678,http://www.customcarpetcenters.com/,jay mcdonnell,jmcdonnell@customcarpetcenters.com,"mike martin,mike martin,mike martin",mmartin@customcarpetcenters.com
Felikian Carpet One,188 N Rosemead Blvd,Pasadena,91107,CA,(626) 795-2821,http://www.felikiancarpet.com/,Greg Felikian,gfelik@aol.com,"Greg Felikian,,Greg Felikian",
The Floorshow Corporation,1475 Associates Dr.,Dubuque,52002,IA,(563) 557-9952,N/A,Dick Gregory,dgregory@floorshowcompanies.com,",Mark Rellihan,",mrellihan@floorshowcompanies.com
Iskalis Interiors,4437 Grand Ave,Gurnee,60031,IL,(847) 662-7900,www.americanfloorshow.com,Iskalis Family,jiskalis@iskalisfloor.com,"John Iskalis,John Iskalis,John Iskalis",jiskalis@iskalisfloor.com
Robinson's Carpet One Floor & Home,230 N. 11th Street,Hanford,93230,CA,(559) 582-2610,http://www.robinsonsinteriorhanford.com/,Mike Robinson,miker@robinsonscarpetone.com,"Steve Richardson,Steve Richardson,Steve Richardson",
Randy's Carpets & Interiors,401 2nd Street,Coralville,52241,IA,(319) 354-4344,http://www.randyscarpets.com/,Randy Ward,randy.ward@randyscarpets.com,",Bill Lancial,",bill.lancial@randyscarpets.com
Olson Rug Co.,1630 75th Street,Downers Grove,60516,IL,(630) 788-1300,http://www.olsonrug.com/,,robertr@olsonrug.com,",,Robert Rosenburg",
Specialty Carpet Showroom,1123 E 2700 S,Salt Lake City,84106,UT,(801) 484-8836,n/a,Jeff Penrose,jefflpenrose@gmail.com,"Jeff Penrose,Mike Bowman,Jeff Penrose",
Carpet Crafter's,5160 W. 127th St.,Alsip,60803,IL,(708) 371-8900,carpetcrafters.com,Ted Argiris,ted@carpetcrafters.com,"Ted Agris,Tony,Ted Agris",
Montgomery Carpets,2222 E 53rd Street,Davenport,52807,IOWA,(563) 324-2176,http://www.montgomeryfloorcoverings.com/,Dean Montgomery,,",,",
Heritage Carpet Redi-Cut Carpet,"1936 South Road, Rt.9",Poughkeepsie,12601,NY,(845) 297-3492,Heritagecarpet.com,Mark Plansky,heritagecarpet@optonline.net,"Mark Plansky,Tim Fitzpatric,",
KENTS CARPETLAND,61 ACCORD PARK DR,Rockland,2370,MA,(781) 871-1000,kentscarpetland.com,Tom Rypkema,trypkema@kentscarpetland.com,"Tom Rypkema,Scott Burnham co-owner,Tom Rypkema",sburnham@kentscarpetland.com
Homeworks Carpet One,8403 Coastal Highway,Ocean City,21842,MD,(410) 524-1800,homeworkscarpetone.com,Warren Hampstead,ochomeworks@verizon.net,"Warren Hampstead,,Warren Hampstead",
The Malchow Co,502 S Main,Aberdeen,57401,SD,(605) 225-1900,N/A,Mark Malchow,mmalchows@midconetwork.com,"Mark Malchow,Mark Malchow,Mark Malchow",mmalchows@midconetwork.com
Louis Shanks of Texas,2930 W. Anderson Lane,Austin,78766,TX,(512) 451-6501,louisshanksfurniture.com,Mike Forwood,mf@louisshanksfurniture.com,"Pete Hilstrom,,Pete Hilstrom",
Abbey Carpets of San Francisco,3301 Geary Blvd,San Francisco,94118,CA,(415) 752-6620,abbeysf@aol.com,Chuck McMechen,Elaine@Abbeycarpetsf.com,"Chuck McMechen,Elaine Mercado,Chuck McMechen",Elaine@Abbeycarpetsf.com
Northern Flooring & Interiors,616 S Lapeer,Lake Orion,48362,MI,(248) 693-9457,www.northernflooringandinteriors.com,Matt Pfieffer,mjpfeiffer@ameritech.net,"Matt Pfieffer,Matt Pfieffer,Matt Pfieffer",
Fox Floors,2391 Richmond Ave,Staten Island,10314,NY,(718) 494-4300,www.foxfloors.com,Scott Markoff,smarkoff@foxfloors.com,"Scott Markoff,Denise Calautti,",dcalautti@foxfloors.com
Flooring America,2970 Plummers Cove Rd,Jacksonville,32223,FL,(904) 880-5252,http://www.flooringamerica.com,Calvin Modling,cmodling@carpetndrapes.com,"Bonnie Modling,Bonnie Modling,Bonnie Modling",bonnie@fajaxusa.com
Michael's Floor Covering,2200-A NE Andesen Rd.,Vancouver,98661,WA,(360) 695-1231,http://www.michaelsfc.com/,,,"Mike,,Mike",
M M M Carpets,3100 Molinaro Dr,Santa Clara,95054,CA,(408) 988-4661,www.mmmcarpets.com,Steve Boardman,steveb@mmmcarpets.com,"Steve Boardman,Steve Boardman,Steve Boardman",steveb@mmmcarpets.com
Best Flooring Center,8590 E. County Road 466,Lady Lake,32162,FL,(352) 753-1739,http://www.bestflooringcenter.com/,W.H. Barnes,bobarnes@aol.com,"Doug Anderson,Doug Anderson,Doug Anderson",Doug Anderson
South Dakota Carpet One,2101 W 41st,Sioux Falls,57105,SD,(605) 336-1600,www.carpetone.com,Bill Hinks,,"John Pohlmann,John Pohlmann,John Pohlmann",john.pohlmann@furnitureoutletsusa.com
New York Carpet Dist Inc,1791 Post Road E,Westport,6880,CT,(203) 255-0266,http://www.newyorkcarpetdistributors.com/,Dolores Sabados,,"Rudy Sabados,Rudy Sabados,Rudy",
Jimmie Lyles Carpets,2660 Lakeland Dr,Jackson,39232,MS,(601) 932-2926,www.jlflooringgallery.com,T J Anderson,,"T J Anderson,Eady North,T.J Anderson",Eady North
Carpet Image,3615 Southside Blvd,Jacksonville,32216,FL,(904) 645-5224,None,Kelly Cote',carpet_image@yahoo.com,"Kelly Cote,,Kelly Cote",
Carpet One Floor and Home,227 NW 23rd Ave,Gainesville,32609,FL,(352) 377-8652,www.carpetonegainesville.com/,Harriett Jones,,",Denny Shepard,",Denny Shepard
Flooring America,10200 Hickman Court,Clive,50325,IA,(515) 331-4613,fivestarfa.com,Shane Sonberg,shane@fivestarfa.com,"Shane Sonberg,Shane Sonberg,Shane Sonberg",shane@fivestarfa.com
Cloud Carpets,7351 W Lake Meade,Las Vegas,89129,NV,(702) 631-2850,http://www.cloudcarpetonelasvegas.com/,Roy Shelton,,"Marshall Blodgett,Marshall Blodgett,Marshall Blodgett",
Everett Carpet Company,318 Ashman Street,Midland,48640,MI,(989) 835-7191,everettcarpet@sbcglobal.net,Bob and Tom Everett,,"Jim Everett,Jim Everett,Jim Everett",everettcarpet@sbcglobal.net
Holland Floor Covering,35 Swamp Rd,Newtown,18940,PA,(215) 357-0909,www.hollandfloor.com,Roger Hansbarger,,"Roger Hansbarger,Roger Hansbarger,Roger Hansbarger",Roger Hansbarger@hollandfloor.com
Rick's Carpet and Flooring,6224 Richmond Hwy,Alexandria,22303,VA,(703) 765-8001,www.rickscarpetandflooring.com,Jeff Puryear,jonathan@rickscarpetandflooring.com,",,",
Interiors by France,322 North 26th Street,Bismarck,58501,ND,(701) 223-8818,www.interiorsbyfrance.com,France Sponskowski,,"Peggy,,Peggy",
I & J CARPET,601 NE 1ST STREET,BEND,97701,OR,(541) 382-5570,www.IandJcarpets.com,Paul Imwalle,IandJCarpets@bendbroadband.com,"Paul Imwalle,,Paul Imwalle",
Barrington Capet & Flooring Design,3602 S. Arlington Rd.,Akron,44312,OH,(330) 896-4141,barringtoncarpet.com,Craig Phillips,craig.phillips@barrington-carpet.com,"Craig Phillips,Kurt Neading,Craig Phillips",kurt.neading@barrington-carpet.com
JB Flooring America,13310 NE Bel-Red Rd,Bellevue,98005,WA,(425) 644-4777,,Ray Glover,,"Ray Glover,,Ray Glover",
Tri-jay Carpets,7003 - 5th Street SE,Calgary,T2H1K4,AB,(403) 253-4441,N/A,Jack van Deventer,john_panjer@isocanada.com,",,",
Montauk Carpet & Rug Co,65 Price Pkwy,Farmingdale,11735,NY,(631) 293-3900,http://www.montaukcarpet.com/,Stephen Fruchtner,,",,",
Tuttle's Carpet & Draperies,27751 A La Paz Rd Ste A,Laguna Niguel,92677,CA,(949) 831-1332,N/A,Kevin Hentzen,khentzen@tuttlescarpet.com,"Kevin Hentzen,,Kevin Hentzen",
Flooring Center Inc,4066 Highway 12,Baraboo,53913,WI,(608) 356-3206,http://www.barabooflooringcenter.com/,Jon Marking/Bill Imray,jonmarking@hotmail.com,"Bill Imray,Scott Sloan,Bill Imray",ss70usa@netscape.net
Carpets of Dalton,3010 Old Dug Gap Road,Dalton,30720,GA,(706) 277-3132,carpetsofdalton.com,Jerry Hennon,,"Neil,,Neil",
D S Tiftickjian & Sons,5225 Sheridan Dr,Williamsville,14221,NY,(716) 634-8835,http://tiftrugs.com/aboutus.htm,dick tiftickjian,,",,",
Turabian & Sariyan,21 Northfield St,Greenwich,6830,CT,(203) 869-5950,http://turabianandsariyan.com,Peter Ehnes,sariyan@aol.com,"Pat Ehnes,Pat Ehnes,Peter",same
Pumco Interiors,1844 M-119 Hwy,Petoskey,49770,MI,(231) 347-8124,design@pumcointeriors.com,Tom Behan II,tmb@pumcointeriors.com,"Tom Behan II,Tom Behan II,Tom Behan II",
The Carpet Shoppe,2754 Downhill Dr.,Steamboat Springs,80477,CO,(970) 879-1658,www.steamboatcarpet.com,Bob Sabel,bsab@springsips.com,"Bob Sabel,Bob Sabel,Bob Sabel",bsab@springsips.com
Carpet N' Darpes,8956 Phillips Hwy.,Jacksonville,32256,FL,(904) 260-0109,http://www.carpetndrapes.com,Calvin Modling,calvin@carpetndrapes.com,"Dick Bach,Dick Bach,Dick Bach",dbach@carpetndrapes.com
Nu-way Floor Fashions,219 - 50th Avenue SE,Calgary,T2G2B2,AB,(403) 252-3551,http://www.nu-wayfloors.com/,Fred Gifford,,",Shea Gifford,",sgifford@nu-wayfloors.com
Sail On Carpet,4655 Ridge Rd W,Spencerport,14559,NY,(585) 310-1642,http://www.sailoncarpet.com,mike pavone,,",,",
Leftwich-Chapman Designer Floor Inc,4517 50th St,Lubbock,79414,TX,(806) 687-3411,www.leftwichchapmandesignerfloor.com,Larry Leftwich,lleftwich@leftwichchapman.com,"Larry Leftwich,Larry Leftwich,Larry Leftwich",lleftwich@leftwichchapman.com
La Salle Bristol,601 CR 17,Elkkhart,46516,IN,(574) 295-0199,http://www.lasallebristol.com,,,",Ken Bohn,",kbohn@lasallebristol.com
warehouse carpet,500 reynolds ave,johnson city,13790,NY,(607) 797-5040,N/A,,,",,",
Feasterville Floor,410 W St Rd,Feasterville,19053,PA,(215) 355-4100,http://www.feastervillefloor.com/,John Menarde,,",Dottie Greco,",Dottie@feastervillefloor.com
Jack Laurie Home Design,9901 Auburn Rd.,Fort Wayne,46825,IN,(260) 490-3655,http://jacklauriegroup.com/index.php,John Laurie,John.Laurie!lauriefloors.com,",John Hoffman,",John.Hoffman!lauriefloors.com
Carpet One by Henry,2010 North Church Street,Greensboro,27405,NC,(336) 379-1018,http://www.carpetonebyhenrygreensboro.com/,Henry Scott,henrys@carpetonebyhenry.com,",Ryan Scott,",Ryan Scott
McBride Wayside Carpet Co.,3153 BERLIN TURNPIKE,NEWINGTON,6111,CT,(860) 666-2512,http://www.mcbridecarpet.com,Paul Mcbride,paulmcbride@snet.net,"Jeff Mcbride,Jeff Mcbride,Jeff Mcbride",Jeff Mcbride
Nice Carpets Inc.,1441 Fallsburg Rd.,Newark,43055,OH,(740) 345-2263,N/A,Steve Stacey,stevestacey@windstream.net,"Steve Stacey,,Steve Stacey",
Marett Carpet,1 Potter Run Road,Volant,16156,PA,(724) 533-2610,http://www.marettcarpetonevolant.com/,craig marett,craig4carpet@yahoo.com,",katie marett,",katie4carpet@yahoo.com
"Yeager and Co., Inc.",2310 Success Dr,Odessa,33556,FL,(727) 375-7813,http://www.yeagerflooring.net/,,,"Jim,,",
Ruggieri's Carpet One,1191 Pontiac Ave,Cranston,2920,RI,(401) 942-1700,www.ruggiericarpetone.com,Paul Ruggieri,paul@ruggieriflooring.com,"Ted Adams,Ted Adams,Ted Adams",Ted Adams
Morrison - Clark Inc,889 South Barre Rd,South Barre,5670,VT,(802) 479-5572,http://morrisonclarkfloors.com/,Paul Morrison,morrisonclark@aol.com,",Paul Morrison,",
Aldens,1663 Placentia Ave,Costa Mesa,92627,CA,(949) 646-4838,http://www.aldenscarpets.com/,John Asaro,John@aldenscarpets.com,",,",
Leader Carpet,206 W ROUTE 59,NANUET,10954,NY,(845) 623-3432,www.leadercarpet.com,Paul Marks,linmarks@optonline.net,"Paul Marks,Linda Rosinburgh & Isabel DeGuilio,",leadercarpet@opton.net
Douds of Plumville,254 Main St,Plumville,16246,PA,(724) 397-5511,http://www.doudsfurniture.com,bart brice,bbrice@doudsfurniture.com,"bart brice,bart brice,bart brice",bart brice
Archer Floorcovering,1915 Austin St,San Angelo,76903,TX,(325) 653-1995,N/A,Tim Archer,archer.floorcovering@verizon.net,"Tim Archer,,",
Hamernick Decorating Center,1381 Rice St.,St. Paul,55117,MN,(651) 487-3211,www.hamernicksdecorating.com,Ted Natus,ted@hamernicksdecorating.com,"Julie Pirie,Julie Pirie,Julie Pirie",juliep@hamernicksdecorating.com
Century Floorcoverings,1115 - 11th Avenue SW,Calgary,T2R0G5,"Calgary, Canada",(403) 245-1115,,Ches Bennett,,",David Mately,",dmatley@centurycarpetone.com
Carpet Collection,5939 S Transit Road,Lockport,14094,NY,(716) 433-9377,http://www.carpetcollection.com,Gary Case,gcase@CarpetCollection.com,",,",
Faber's Rug Company,9 Central Street,Wellesley,2482,MA,(781) 235-5996,www.fabersrug.com,Tom Faber Sr.,no e-mail,"Bob Faber,Bob Faber,Bob Faber",rugman9@aol.com
TILE & CARPET TOWN EAST,3195 ERIE BLVD EAST,DE WITT,13214,NY,(315) 446-9100,http://www.tileandcarpettowndewitt.com/,stuart shapiro,ssshapiro@choiceonemail.com,",,",
Florence Carpet & Tile,1706 Pamplico Hwy,Florence,29504,SC,(803) 669-1851,http://www.florencecarpetandtile.com/,Walt Parker,,"Walt Parker,Allison Parker,Walt Parker",Allison Parker
Sanders Floor Coverings,2908 University Ave,Morgantown,26505,WV,(304) 599-4500,N/A,rick sanders,sandersflo@aol.com,",rick sanders,",sandersflo@aol.com
The Carpetman,633 COUNTY ROAD 39A,SOUTHAMPTON,11968,NY,(631) 283-0885,http://www.thecarpetman.net/,Robert Gill,the.carpetman@verizon.net,",Kristyn Poole,",the.carpetman@verizon.net
Swanson Floor Coverings,4400 Maray Dr.,Rockford,61107,IL,(815) 226-0011,N/A,Bruce Swanson,SWNFLOR@AOL.COM,"Bruce Swanson,,Bruce Swanson",
Newport Floor Covering,3500 East Coast Hwy,Corona Del Mar,92625,CA,(949) 675-1636,http://www.newportfloorcoronadelmar.com/,Steve Terpstra,,"Steve Terpstra,,Steve Terpstra",
"Rug Masters, Inc",1001 Morrison Dr,Charleston,29403,SC,(843) 723-2155,www.rugmastersinc.com/,John Kammeyer,rugchs@birch.net,"John Kammeyer,Vickie Kammeyer,John Kammeyer",rugchs@birch.net
Murison`s Flooring America,3278 Almaden Expressway 150,San Jose,95118,CA,(408) 267-0220,www.murisonsflooringamerica.com,Ed Lacina,carpet@pacbell.net,"Ed Lacina,Ed Lacina,Ed Lacina",carpet@pacbell.net
"Roberts Floorcovering, Inc.",1570 E Colfax Ave,Denver,80218,CO,(303) 831-7080,www.robertsfloorcoverings.com,Pat Rounds,par547@aol.com,"Pat Rounds,Patti Rounds,Pat Rounds",par547@aol.com
ABC Carpet & Home,777 S Congress Ave,Delray Beach,33445,FL,(561) 279-7777,abchome.com,Bob Boushehri,BBoushehri@abchome.com,"Michael Tesser,Michael Tesser,Michael Tesser",dhook@abchome.com
DLW LLC,3217 N SHADELAND AVE,INDIANAPOLIS,46226,IN,(317) 545-2174,http://www.drexelin.com/,,aweisenburger@drexelin.com,",,",
Krauseneck Carpet One Floor & Home,166 S. Main Street,Mount Clemens,48043,MI,(586) 463-0585,http://www.carpetone.com/,Ric Chouinard,carpet@krauseneck1.com,"Ric Chouinard,Ric Chouinard,Ric Chouinard",
Robert's Carpet,681 Spring Street,Herndon,20170,VA,(703) 471-7120,http://www.robertscarpet.com/,Chuck Roberts,linda@robertscarpets.co,",,",
Scharm Carpets & Interiors,1843 E Oakton,Des Plaines,60018,IL,(847) 298-8233,www.scharm.com,Fred Scharm Jr.,fred@scharmfloorcovering.com,"Fred Scharm Jr.,Lisa Monoson,Fred Scharm Jr.",
Mitchell's Floor Coverings,532 Stevens Ave,Solana Beach,92075,CA,(858) 755-8880,www.getfloored.com,Mitch Chavira,mchavira@getfloored.com,"Mitch Chavira,Melissa Richardson,Mitch Chavira",mrichardson@getfloored.com
Culver Rug Company,708 Mall Blvd.,Savannah,31406,GA,(912) 354-6232,www.culverrug.com,Eddie Culver,,",Sue Rinehart,",
Ambassador Floor Company,17770 Chesterfield Airport Rd.,Chesterfield,63005,MO,(636) 728-1600,www.ambassadorfloor.com,Kelly Taylor,ktaylor@ambassadorfloor.com,"Jeff Schwalb,Mike Hart,Jeff Schwalb",mikehart@ambassadorfloor.com
Sutton Carpet Company,123 W McClure Ave,Peoria,61604,IL,(309) 682-7711,http://suttoncarpetcenter.com/index.html,Dan Sutton,dmsutton53@hotmail.com,"Emert Emert,Emert Emert,Emert Emert",emert@comcast.net
Kemper Carpet of Maryland,12145 Rockville Pike,Rockville,20852,MD,(301) 231-6300,www.kempercarpetmd.com,Amir Mashajekhi,mashayekhi.amir@comcast.net,"Amir Mashajekhi,Amir Mashajekhi,Amir Mashajekhi",mashayekhi.amir@comcast.net
Carpeteria-Semerjian,5610 Hollister,Goleta,93117,CA,(805) 964-3551,http://www.carpeteriasantabarbara.com,Avo Semerjian,CarpetileA@aol.com,"Avo Semerjian,,Avo Semerjian",
Normans Carpet,60 Greenfield Ave,Ardmore,19003,PA,(610) 260-0333,http://www.normancarpet.net/,Norman Chaiken,,",David Sulkin,Norman Chaiken",
TOTAL FLOOR COVERING INC,600 N WESTHILL BLVD,APPLETON,54914,WI,(920) 735-9799,www.totalfloorcovering.com,Shane Lathrop,shane@totalfloorcovering.com,"Shane Lathrop,Shane Lathrop,Shane Lathrop",Shane Lathrop
Flooring America of Bradenton,3200 Cortez Rd West,Bradenton,34207,FL,(941) 756-1213,http://www.flooringamericaofbradenton.com/,Randy & Debbi Clark,,",Raymond,",Raymond
"Commercial Flooring, Inc.",3418 E Pershing Blvd,Cheyenne,82001,WY,(307) 632-6449,http://www.carpet1cheyenne.com/,DOUG FINCH,dwfinch@juno.com,"Valerie FINCH,VALERIE FINCH,Valerie FINCH",vjfinch@juno.com
Carpetland,274 Rickenbacker Circle,Livermore,94551,CA,(925) 455-7200,N/A,Sam Hassan & Judy Lund,carpetlandflooring@sbcglobal.net,"Sam Hassan or Judy Lund,Sam Hassan & Judy Lund,Sam Hassan or Judy Lund",carpetlandflooring@sbcglobal.net
Jamie's Carpet Shop,308 East Perkins Ave,Sandusky,44870,OH,(419) 624-9998,www.jamiescarpetshop.com,Chris Zeitler,jamiescarpetshop@gmail.com,"Jeff Gregory,Jeff Gregory,Jeff Gregory",jamiescarpetshop@gmail.com
Franey Carpet One,121 N Encina Ave.,Visalia,93291,CA,(559) 733-9990,http://www.franeysdesigncenter.com/,Mark Franey,mjfraney@att.net,"Mark Franey,Dean Harrington,",Dean Harrington
National Floor Covering,117 Old York Rd,Jenkintown,19046,PA,(215) 884-1212,http://www.nationalfloorcovering.net,Al Einhaber,al.e@cavtel.net,",Mike Cosgrove,",carpetman1@comcast.net
Migala Carpet One Floor & Home,1440 West Columbia Ave.,Battle Creek,49015,MI,(269) 965-0516,migalacarpetone.com,Lori Ruimveld,lori@migalac1.com,"Joe Sikkema,Joe Sikkema,Joe Sikkema",joe@migalac1.com
Floor Decor,456 Sunrise Highway,Rockville Centre,11570,NY,(516) 764-4466,www.carpetone.com/floordecor,Glen Altarac,,"Glen Altarac,Anthony Safonte,",Anthony Safonte
The Balentine Collection,533 E Hopkins Ave,Aspen,81611,CO,(970) 925-4440,balentinecarpets.com,Bridget Balentine,bbalentine@balentinecollection.com,"Bridget Balentine,Bridget Balentine,Bridget Balentine",bbalentine@balentinecollection.com
"Rod`s Carpet , Tile & Wood",99 West Granada,Ormond Beach,32174,FL,(386) 677-8721,RodsCarpet.com,Rodney Gammon,,"Eileen,,Sheila Gammon",Sheila Gammon
Carpets by Phillip`s,4001 Avenida De La Plata,Oceanside,92056,CA,(760) 757-5033,www.phillipsabbeycarpet.com,Chuck Ward,chuckw@phillipsabbeycarpet.com,"Chuck Ward,Debbie Gillia,Chuck Ward",Debbie Gillia
J&M Paint & Wallcovering Inc,1615 Buffalo Jones Ave,Garden City,67846,KS,(316) 276-3811,http://gardencity.abbeycarpet.com/,Jim,jandmpaint@odsgc.net,",Jim,",jandmpaint@gmail.com
Russell S Lee Flooring America,915 31st Ave,Tuscaloosa,35401,AL,(205) 345-1735,http://www.rslee.com,Russell S. Lee,,"Wanda Young,Wanda Young,Wanda Young",wyoung@rslee.com
Rite Loom Carpet Co,1295 N Kraemer Blvd,Anaheim,92806,CA,(714) 764-1122,www.RiteLoom.com,George Lowe,GloweJr@Aol.com,"George Lowe,Karyn Hadley,",Karyn@riteloom.com
Classic Carpets & Interiors,802 South 8th Street,Fernandina Beach,32034,FL,(904) 261-0242,http://classiccarpetsameliaisland.com/,Buddy Kellum,classic802@rocketmail.com,"Eric,,Eric",
World of Floors,46511 Van Dyke,Shelby Township,48317,MI,(586) 254-2000,http://www.worldoffloors.com/,Larry Bondra,lbondra@worldoffloors.com,"Larry Bondra,Larry Bondra,Larry Bondra",
Harry`s Carpet One,676 Hancock St,Quincy,2170,MA,(617) 328-4002,www.harryscarpetonequincy.com,Harry Balekjian,harry@harryscarpetone.com,"Harry Balekjian,Brian Lowe,Harry Balekjian",brian@harryscarpetone.com
Carillon Carpet & Rugs LLC,29450 US Hwy 19 N,Clearwater,33761,FL,(727) 771-0905,http://www.carillonrugs.com/,Tyler Rice,tylerr@carillonrugs.,",Kathie Rice,",Kathie Rice
Anderson Furniture,232 3rd Street,Huron,57350,SD,(605) 352-4115,N/A,Bill Anderson,furn4115@yahoo.com,"Bill Anderson,Bill Anderson,Bill Anderson",urn4115@yahoo.com
Tim`s Carpets,425 Pine ST. N.E.,Salem,97303,OR,(503) 371-7556,http://www.timscarpet.com/,Tim Youngkin,Tim@timscarpet.com,"Tim Youngkin,Angela Youngkin,Tim Youngkin",angela@timscarpet.com
Carroll's Carpet,726 E.Main Street,Lebanon,45036,OH,(513) 932-5898,www.carrollscarpets.com,Tracey Stacey,,"Tracey Stacey,,Tracey Stacey",
Floor To Ceiling Store,224 St. Andrews Dr.,Mankato,56001,MN,(507) 625-3472,http://www.floortoceiling.com/,Dave Munson,dmunson@mankato.floortoceiling.com,",Dave Munson,",dmunson@mankato.floortoceiling.com
Seldens Home Furnishings,1802 62nd. Ave. E.,Tacoma,98424,WA,(253) 922-5700,www.seldens.com,,,"Jake Cross,,Jake Cross",
Manas Torcom /Touch of Beauty,616 Bussy Hwy,Park Ridge,60068,IL,(847) 825-1116,N/A,Jim and Debbie,tobcarpet@yahoo.com,"Jeff Naataz,Jeff Naatz,Jeff Naataz",
CarpetBagger,800 Marshall Ave # 30,Williston,5495,VT,(888) 600-7915,http://www.flooringamerica-vt.com/,,,",,",
Zersen Flooring,412 S. 8th Street,Monroe,53566,WI,(608) 325-5044,http://www.zersenflooring.com/,Brad Zersen,,"Ben,,Ben",
Benjamin's Carpet One,527 East Main Street,Walla Walla,99362,WA,(509) 946-4506,http://www.benjaminscarpetonerichland.com/,Madie Thornhill,benjaminscarpet1@yahoo.com,"Madie,,Madie",
Mayfair Carpet,661 S Main Street,Crystal Lake,60014,IL,(815) 455-4070,www.mayfairfurnitureandcarpet.com,Pat Murphy,,"Patrick or Keith Murphy,Patrick Murphy,Patrick or Keith Murphy",pkmurphy71@yahoo.com
Exeter Decorating Center Inc,164 Epping Rd,Exeter,3833,NH,(603) 778-7540,www.exeterdecorating.com,Ralph Dutton,decorate@exeterdecorating.com,"Ralph Dutton,Troy Dutton,Ralph Dutton",decorate@exeterdecorating.com
California Design Inc,12800 US Hwy 1,Juno Beach,33408,FL,(561) 625-5250,www.californiadesigns.com,Ernie Rushing,califdesigns@aol.com,"Ernie Rushing,,Ernie Rushing",
Floors To Go Outlet,1762 Rogers Circle,Campbell,95008,CA,(408) 378-7700,N/A,Mike Rorie,floorstogo116@aol.com,"Mike Rorie,Mike Rorie,Mike Rorie",Mike Rorie
Jones Flooring America,3500 N Palofox St,Pensacola,32505,FL,(850) 438-4409,www.jfc-inc.com,Steve Faircloth,,"Kevin Pulford,Steve Faircloth,",Steve Faircloth
Carpets of Cape Cod,130 Route 6A,Orleans,2563,MA,(508) 775-4266,carpetsofcapecod.com,Mike Cote,cotebros.mc@comcast.net,",,Mike Cote",
America's Carpet,1518 N Atherton,State College,16803,PA,(814) 238-2103,http://www.americascarpetoutletinc.com,george mcmurtrey,george@americascarpetoutletinc.com,"george mcmurtrey,george mcmurtrey,george mcmurtrey",george mcmurtrey
Traynor`s Floors & Carpet,467 Baltimore Blvd,Westminister,21157,MD,(410) 876-1919,www.traynorsfloors.com,Ed Traynor,janell_traynorsfloors@hotmail.com,",Ed Traynor,",janell_traynorsfloors@hotmail.com
Luna Flooring Gallery,750 S. Rand Rd,Lake Zurich,60047,IL,(847) 540-8900,www.luna.com,Rob Bush,lunaflooring@sbcglobal.net,"Rob Bush,Mike Ishkanian,Rob Bush",
Sharp Carpet & Ceramic Tile Inc,2617 Hwy 77,Panama City,32405,FL,(850) 769-8505,http://panamacity.abbeycarpet.com/Default.aspx,Herb Sharp,sharpcarpet@comcast.net,"Ike Rhodes,Ike Rhodes,Gary Whiting",Ike Rhodes
Bailey's Carpet One Floor and Home,692 Theodore St,Joliet,60435,IL,(815) 727-7777,www.baileyscarpetonejoliet.com,Lee Bailey,lee@baileycarpetonefloorandhome.com,"Randal Bailey,Randal Bailey,",randal@baileycarpetonefloorandhome.com
Creative Floors,830 S.R. 436,Casselberry,32707,FL,(407) 265-9566,http://creativefloorsonline.com/,Bob Campbell,,"Bob Campbell,,",
Cartozian Fine Flooring,3320 South G St,Tacoma,98408,WA,(253) 474-8433,http://www.cartozian.com/,Rachel McLain,rachel@cartozian.com,"Rachel McLain,,Rachel McLain",
Bridgeport Carpets,11605 Jonesbridge Rd,Alpharetta,30022,GA,(770) 751-0702,http://bridgeportcarpets.com/,Matt Francoletti,,"Matt Francoletti,,Matt Francoletti",
Carpet Palace of Bethesda,7351 Wisconsin Avenue,Bethesda,20814,MD,(301) 718-0020,www.carpetpalacebethesda.com,,carpetpalace@yahoo.com,"Amir Bamdad,,",
PARKER FURNITURE,10375 SW BEAVERTON HWY,BEAVERTON,97008,OR,(503) 644-0155,www.parkerfurniture.com,Craig Parker,craig@parker-furniture.com,"Bruce Gibson,Bruce Gibson,Bruce Gibson",bruce@parker-furniture.com
Magic Carpet & Drapery,511 19th st,Sioux City,51105,IA,(712) 277-2565,http://www.magiccarpetanddrapery.com/,Greg Engel,carpet3333@aol.com,"Greg Engel,Greg Engel,Greg Engel",carpet3333@aol.com
Carpet World Carpet One,390 New Circle Rd NE,Lexington,40505,KY,(859) 253-0004,http://www.carpetworldcarpetonelexington.com/carpetone-about-us,Gordon Patterson,,",Carrie Patterson,",Carrie Patterson
Churchills,127 Grove St,Montclair,7042,NJ,(973) 746-6820,churchillrugs.com,Mark Friedman,mark@churchillrugs.com,"Mark Friedman,,",
Dalton Flooring Inc.,15986 Middlebelt Rd.,Livonia,48154,MI,(734) 522-5100,http://www.daltonflooringcenter.com/,Sam Salloum,,"Sam Salloum,Akram Ismail,",
Abbey Carpet and Floor Gallery,8590 Phillips Hwy,Jacksonville,32256,FL,(904) 739-7300,http://southjacksonville.abbeycarpetandfloor.com/,Davis Bradshaw,david@abbeyfloors.cc,"David Bradshaw,Marsha Bradshaw,David Bradshaw",david@abbeyfloors.cc
Higgins & Spencer,902 Talbot Street,St Michaels,21663,MD,(410) 745-5192,www.higginsandspencer.com,,,"Jim Plack,,",
Armstrong Carpets,369 West Portal Ave,San Francisco,94127,CA,(415) 751-2827,Armstrongcarpet.com,Steve Balestrieri,Floors@Armstrongcarpets.com,"Steve Balestrieri,,",
Flooring Distributors,1350 S. State College Blvd,Anaheim,92806,CA,(714) 687-1166,http://www.flooringdistributorsca.com/,Jim Winn,,"Jim Winn,,",
Lewis & Lewis Carpets,2615 N. Main St,Walnut Creek,94547,CA,(925) 939-2145,www.lewisandlewiscarpets.com,Mike Wenrich,,"Mike Wenrich,Mike Wenrich,Mike Wenrich",Mike Wenrich
Paramount Rug Co,71 Manley St,Brockton,2301,MA,(508) 583-5022,www.paramountrug.com,Greg Kashigian,greg@paramountrug.co,"Greg Kashigian,,",
Carpet Giant,139 Croton Ave,Ossining,10562,NY,(914) 941-2091,http://ossining.abbeycarpetandfloor.com/,Robert Rosbi,rrossicg@yahoo.com,"Robert Rosbi,,Bob Rossi",
Centex Carpet & Interiors,3716 Franklin Ave,Waco,76710,TX,(254) 753-7021,http://www.centexcarpet.com/,John Schwartz,john@centexmfg.com,"John Schwartz,John Schwartz,John Swartz",john@centexmfg.com
Shaw's Carpet,4367 Dale Blvd,Dale City,22193,VA,(703) 680-4021,http://www.shawfloors.com/,Joyce Shaw,shawdalecity@aol.com,"Todd Nash,Todd Nash,Todd Nash",shawdalecity@aol.com
JOE`S FLOOR STORE,145 N MAIN ST,BRANFORD,6405,CT,(203) 483-5667,www.joesfloorstore.com/,Joseph Pagliaro,joesfloorstore@gmail.com,"Joseph Pagliaro,N/A,Joseph Pagliaro",N/A
"John Moore Floorcovering, Inc",1629 Sun City Center Plaza,Sun City Center,33573,FL,(813) 633-7116,www.johnmoorefloorcovering.com,John Moore,,",Jacob Moore,",
Maguire's 5th Avenue Floors,2521 5th Avenue NW,Calgary,T2N0T4,AB,(403) 270-2205,http://www.maguiresflooring.com,Greg Maguire,,",Sheron Maguire,",Sean@maguires.ab.ca
Clemons Carpet Mill Direct,1018 E. Overland,Scottsbluff,69361,NE,(308) 632-2234,http://retailflooringstores.com/clemenscarpet/,Jerry Clemens,clemco@charter.net,"Jerry Clemens,Jerry Clemens,Jerry Clemons",clemco@charter.net
Friendly Floors,3815 Tamiami Trail,Port Chalotte,33952,FL,(941) 624-0077,http://www.friendlyfloors.com/,Marjorie Benson,,",Gary,",
Airam Carpet,284 Main St,West Orange,7052,NJ,(973) 325-3086,,richie barone,none,"Richie Barone,self,",
McQueen`s Carpets & Rugs Inc.,746 East Maple Road,Birmingham,48009,MI,(248) 647-5250,www.mcqueenscarpet.com,Greg McQueen,greg@mcqueenscarpet.com,"Greg McQueen,Greg McQueen,Greg McQueen",
Carpet Country,13268 Poway Rd,Poway,92064,CA,(858) 748-2997,http://www.carpetcountryflooring.com/,Nazem,Nazem@carpetcountryflooring.com,"Nazem,Scott,Nazem",Scott@carpetcountryflooring.com
Sutton's Western Wholesale,823 S Main,Salt Lake City,84111,UT,(801) 363-4563,N/A,Barry Sutton,,"Jim Florence,Jim Florence,Jim Florence",suttonscptone@hotmail.com
Terpstra's Floor Center,402 W Madison St,Ottawa,61350,IL,(815) 434-9800,terpstrasfloorcenter.com,Larry and Donna Terpstra,terpstrasfloorcenter.com,"Donna Terpstra,,Donna Terpstra",
Courtesy Carpet,921 White Plains Rd,Trumbull,6611,CT,(203) 261-2597,http://www.courtesycarpet.com/,Lester Cohen,,"Ellen Reilly,Ellen Reilly,Ellen",Ellen Reilly
Schillings Carpet,2728 West 8th St,Erie,16505,PA,(814) 835-6686,http://www.schillingscarpetoneerie.com/,,,"jeff weyand,,jeff weyand",
Inside Lines,506 Water St,Eau Claire,54703,WI,(715) 834-4230,http://www.insidelinesdesign.com/,,,"Robin,,Robin",
Fred Callaghan Carpet & Flooring,500 W lincoln Highway,Fraizer,19335,PA,(610) 647-5566,www.fredcallaghanflooring.com,Skip Callaghan,,"Skip Callaghan,Leo Woehlcke,Leo Woehlcke",leopaddy@yahoo.com
Floortex of Marin,5768 Paradise Dr,Corte Madera,94925,CA,(415) 924-6545,http://www.floortexdesign.com/,Rudy Hassid,Rudyhassid@yahoo.com,"Rudy Hassid,Rubin Kembikian,Rudy Hassid",
Poiema Flooring America,206 West Center Street,Kalispell,59901,MT,(406) 752-4995,www.flooringamericapoiema.com,Greg Scarff,,"Greg Scarff,Greg Scarff,",gscarff@montanasky.net
Floor Fashions,"990 S. Rogers Circle, suite #1",Boca Raton,33487,FL,(561) 997-2101,www.floridafloorfashions.com,Bob Dyer,floorfashionsboca@aol.com,"Bob Dyer,,Bob Dyer",
Sedlak Interiors,34300 Solon Rd.,Solon,44139,OH,(440) 248-2424,www.sedlakinteriors.com,J.P. Sedlak,,"June Sedlak Mooney,,June Sedlak Mooney",
"Sutton's Rugs & Carpet, Inc.",3520 South College Road,Wilmington,28412,NC,(910) 794-8100,www.suttonrugs.com,Hobbs Sutton,hobbs888@aol.com,"Hobbs Sutton,,Hobbs Sutton",
T.F. Andrew Co,607 Main Street,New Rochelle,10801,NY,(914) 654-8000,http://www.tfandrewfurniturestore.com/,Tom Fahey,tom@tfandrew.com,"Peter,Peter del Monaco,",
Schneider's Flooring America,400-3 Talcottville Rd. Route 83,Vernon,6066,CT,(860) 870-0055,www.flooringamerica.com,Maxine and Wayne Schneider,sfavernonct.com,"Maxine Schneider,Joe Virga,Maxine Schneider",Joe Virga
Meelan Carpet One,5126 Commercial Dr,Yorkville,13495,NY,(315) 736-7723,,Joe Meelan,,"Kyra Meelan,Kyra Meelan,kyra meelan",kyra meelan
Carpet Club,518 W Washington Ave,Escondido,92025,CA,(760) 740-9545,www.carpetclub.com,Denis Royer,,"Michael Kenny,,",
Stinson Carpet One Floor and Home,2188 Semoran Blvd,Apopka,32703,FL,(407) 889-4128,http://www.stinsoncarpetoneapopka.com/,Mark Stinson,marks@stinsonc1.com,"Mark Stinson,,Mark Stinson",
Haight Carpet & Interiors,12910 NE 178th St.,Woodinville,98072,WA,(425) 485-1354,www.haightcarpet.com,Mark Haight,,"Mark Haight,,Mark Haight",
Carpet Warehouse of Rutland,164 US Route 4 East,Rutland,5701,VT,(802) 747-3314,http://carpetwarehousevt.com,Tom Cohen,tcohen@sover.net,",Tom Cohen,",
Young's Floor Covering,460 S. E. Catawba Rd.,Port Clinton,43452,OH,(419) 734-2117,www.carpetone.com,Pete Spieldenner,youngs@cros.net,"Lisa Johnson,Lisa Johnson,Lisa Johnson",youngs@cros.net
Carlson's Floors,728 W State St,Geneva,60134,IL,(630) 232-4964,www.carlsonsfloors.com,Lisa Nelson,lnelson@carlsonsfloors.com,"Lisa Nelson,Lisa Nelson,Lisa Nelson",
Willis Wayside Furniture,4220 Virginia Beach Blvd,Virginia Beach,23450,VA,(757) 340-2112,www.willisfurniture.com/,Ben Willis,ben@willisfurniture.com,"Kappy Kaplan,Kappy Kaplan,Kappy Kaplan",Kappy Kaplan
Barnes Drapery & Floor Covering,2008 N Orange Ave,Orlando,32804,FL,(407) 898-5381,barnesdraperyandfloors.com,Bob / Bill Barnes,,"Bob / Bill Barnes,,Bob / Bill Barnes",
Fenway Floor Covering,346 North Ave,New Rochelle,10801,NY,(914) 235-0400,N/A,Gary Klotzko,garyfenway@aol.com,",Gary Klotzko,",
Colonial Brandywine Rug Co,2107 Concord Pike,Wilmington,19803,DE,(302) 654-1121,N/A,Norma Mcgee,,"Norma McGee,Noma McGee,Norma McGee",colbrarug@verizon.net
Anderson Carpet & Home,686 Guelph Line,Burlington,L7R3M8,ON,(905) 639-0666,www.andersoncarpetandhome.com,jim anderson,janderson@skylinc.net,"Kellie Kenney,,Kellie Kenney",
The Carpet Barn,227 Muse Business Parkway,Waynesville,28786,NC,(828) 456-7422,www.carpetbarncarolina.com,Joe Schneider,cbarnschneider@yahoo.com,"Karen Schneider,Joe Schneider,",cbarnschneider@yahoo.com
Vallow Floor Covering Inc,1009 Plummer Dr,Edwardsville,62025,IL,(618) 656-7788,www.vallowfloor.com,Rich Vallow,,"Seth Renkin,Mark Vallow,Seth Renkin",
Griffis Tile Company Inc,4901 E Silver Springs Blvd,Ocala,34470,FL,(352) 438-0060,www.griffistileandflooring.com,Doug Griffis,griff2001@earthlink.,"Doug Griffis,Debbie,Doug Griffis",griff2001@earthlink.net
HOME BEAUTIFUL INC,141 DANIEL WEBSTER HWY,BELMONT,3220,NH,(603) 524-5588,www.home-beautiful.com,Bruce Hamel,bruce@home-beautiful.com,"Brian Hamel,Skip Dubois,",skip@home-beautiful.com
Doug`s Carpet House,4901 Jefferson Davis Hwy,Fredricksburg,22408,VA,(540) 898-0003,http://www.carpethouseva.com/,Doug Simms,,"Brad Lamie,,Brad Lamie",
Carpet Depot,4485 Broadway,Eureka,95503,CA,(707) 442-3470,Thecarpetdepot.com,Debbie Mealhouse,Debbie@Thecarpetdepot.com,"Debbie Mealhouse,Debbie Mealhouse,Debbie Mealhouse",Debbie@Thecarpetdepot.com
BUDGET INTERIORS,355 HALL STREET,BRIDGEPORT,43912,OH,(740) 635-1144,www.budgetinteriors.com,Randy Dlesk,,"Randy Dlesk,Jennifer,Randy Dlesk",jennifer@budgetinteriors.com
Bradford Carpet One,880 Broadway,Saugus,1906,MA,(781) 231-2955,www.bradfordcarpet.com,Robert Mastrocola,rm@bradfordcarpet.com,"Bob Mastrocola,Dave Stevens,Bob Mastrocola",dave@bradfordcarpet.com
Modern Flooring,3619 S Carrollton Ave,New Orleans,70118,LA,(504) 488-1364,www.modernflooring.net/,Mark Levy,,"Keith Delaune,KEITH DELAUNE,Keith Dalune",KEITH DELAUNE
Craft Rug Mills,901 Line St,Easton,18042,PA,(610) 258-3947,www.craftrugmills.biz,Marvin Deemer,crm9858@aol.com,"Marvin Deemer,Marvin Deemer,",marvin.deemer@craftrugmills.biz
Flooring and More,2600 Morse Street,Janesville,53545,WI,(608) 757-1151,http://www.flooringandmoreinc.com/,Sandra Molski,smolski@flooringandmoreinc.com,"Sandi Molski,,Sandi Molski",
Alpine Carpet One,3961 Sepulveda Blvd.,Los Angeles,90230,CA,(310) 390-7639,http://www.alpinecarpetonela.com/,,johannes@alpinecarpetone.com,"Johnannes Van Ireland,,",
Tyson Furniture Co Inc,109 Broadway,Black Mountain,28711,NC,(704) 669-5000,http://www.tysonfurniture.com/,Joe Tyson,joetyson@tysonfurniture.com,",Tommy Logan,",tommylogan@tysonfurniture.com
Builder`s Floor Service,411 N 14th St,Leesburg,34748,FL,(352) 787-7909,www.floorsofdistinction.net,Steve / Patti Singer,buildersfloor@earthlink.net,"Patti Singer,,",
Paradise Carpet One Floor & Home,2108 West 27th St.. Suite E,Lawrence,66047,KS,(785) 856-8011,http://www.paradisefloors.com/,,,"Jeff Wyatt,,Jeff Wyatt",
C G Coe & Son,4905 Del Ray Ave,Bethesda,20814,MD,(301) 986-5800,www.coeandson.com,Chuck Coe,,"Matt,Chuck,Matt",Chuck
American Flooring,463646 Stae Rd. 200,Yulee,32097,FL,(904) 548-9906,www.americanflooring.info,Jeff Jones,mohawkcolorcenter@gmail.com,"Jeff Jones,,Jeff Jones",
The Rug Gallery of Zionsville,130 S Main St,Zionsville,46077,IN,(317) 873-6139,www.zionsvilleruggallery.com,MarkHilton,mark@zionsvilleruggallery.com,",Mark Hilton,",mark@zionsvilleruggallery.com
Thad's Carpet One,5110 Atlantic Ave,Raleigh,27616,NC,(919) 873-1115,thadscarpetone.com,T. J. Lewis III,,"Greg Johnson,Buddy Parrish,Greg Johnson",Buddy Parrish
Early's Carpet Inc,14574 Lee Highway,Amissville,20106,VA,(540) 937-5500,www.earlyscarpetinc.com,Lorraine Early,,"Sonja,,Sonja",
Petersen's Carpet & Flooring,1060 W. Patrick Street,Frederick,21703,MD,(301) 698-4789,www.petersenscarpetandflooring.com,Dave Petersen,,"Gayle Petersen,Gayle Petersen,Gayle Petersen",gpetersen@petersenscarpetandflooring.com
Anderson's Carpet One,19871 Coastal Highway,Rehoboth Beach,19971,DE,(302) 227-3244,www.andersoncarpetone.com,Steve Anderson,andersoncarpetone@comcast.net,"John Fleming,John Fleming,John Fleming",andersoncarpetone@comcast.net
J M Carpets,107 S Main St,Fort Atkinson,53538,WI,(920) 563-0820,http://www.jmcarpets.net/,Jerry Mooren,,"Jerry Mooren,,Jerry Mooren",
NASHUA PAINT & WALLPAPER CO,129 W PEARL ST,NASHUA,3060,VT,(603) 889-6200,www.universaldecor.com/,George Katis,,"Denis Depelteau,Denis Depelteau,Denis Depelteau",
Landers Premier Flooring,2601 McHale Ct,Austin,78758,TX,(512) 873-9470,www.landerspremierflooring.com,John Landers,landerspremier@austin.rr.com,"John Landers,,John Landers",
Carpet One Mentor,7625 Mentor Ave.,Mentor,44060,Ohio,(440) 975-0097,http://www.carpetonementor.com/,Larry Rakes,rakes731@yahoo.com,"Larry Rakes,Stacey Rakes,Larry Rakes",staceyr6@yahoo.com
David Morris Co,1378 Sutter St,San Francisco,94109,CA,(415) 346-8333,N/A,David Morris,none,",,",
Executive Floors Inc.,11400 Robertson Dr.,Manassas,20109,VA,(703) 530-8535,www.executivefloors.com,Paul Eskew,,",Jack Robinson,",Jack Robinson
Fitz Flooring,3817 Bow Trail SW,Calgary,T3C 2G6,AB,(403) 686-3370,www.fitzflooring.com,,,",,",
Jill's Carpets,315 E Main St,Aspen,81611,CO,(970) 925-7128,http://www.jillscarpets.com/,Jill Westerlind,ole@jillscarpets.com,"Jill Westerlind,Ole,Jill Westerlind",ole@jillscarpets.com
Frazee Carpet & interiors,3113 Hillsborough rd,Durham,27705,NC,(919) 286-5570,frazeecarpetandinteriors.com,Doug Frazee,,"Doug Frazee,,Doug Frazee",
Yarbrough Interiors,1928 E 70th St,Shreveport,71135,LA,(318) 797-7997,http://www.yarbroughinteriors.com/index.html,Mary Sentell and Family,,"Jennifer Owen,Jennifer Owens,Jennifer Owen",Yarbroughltd@aol.com suzanne.s.brown@tx.rr.com
Flooring America Mill Store,2068 Hamilton Rd,Lagrange,30241,GA,(706) 884-2674,www.flooringamericalagrange.co,Howard Lester,,"Jason,Jason Creel,Jason",jcreel@tms-flooringamerica.com
Permanent Floors Carpet One,5620 Ridge Rd.,Parma,44129,OH,(440) 884-3300,www.permanentcarpetone.com,Ken Kassouf Jr.,,"Ryan Mackey,Ryan Mackey,",
Myers Carpet,641 Division St,Nashville,37203,TN,(615) 777-3344,www.myersrug.com,Ray Myers,,"Donna Bishop,Donna Bishop,Doug Peeples",Donna Bishop
Cappy's Carpet,450 Main St,Port Jefferson,11777,NY,(631) 473-2600,www.cappyscarpets.com,Peter Capobianco,sales@cappscarpets.com,"Peter,Jo Ann,",Jo Ann
Woods Interiors of Distinctions,937 Sugarland Dr,Sheridan,82801,WY,(307) 672-7620,http://www.thewoodsinteriorsflooringamerica.com,Ron Wood,lh-woods@actaccess.net,"Buch Dillon,Butch Dillon,Buch Dillon",bd-woods@actaccess.net
Esprit Decor,107 Kegman Rd West,Chesapeake,23322,VA,(757) 482-5175,N/A,Mark Christian,mark.christian@esprit -decor.com,"Mark Christian,,Mark Christian",
Haley's Flooring,2806 Bob Wallace Ave,Huntsville,35807,AL,(256) 536-8086,www.carpetsystemsofhsv.com,Carter Haley,carter@haleysflooring.com,"Carter Haley,,Carter Haley",
AW Rugs & Carpet,16862 Stagg Street,Van Nuys,91406,CA,(818) 994-9993,AW Rugs,Max Boujal,maxbajoul@gmail.com,"Max Bojual,,Max Bojual",
PacWest Design,170 S. W. Scalehouse Loop,Bend,97702,OR,(541) 389-2089,http://www.pacwesthomes.info/,Kristy Yozamp,dristyy@pacwesthomes.com,"Tim,Tim,Tim",
Brunswick Floors Inc,3550 Darien Hwy,Brunswick,31525,GA,(912) 265-0222,http://www.brunswickfloors.com/,Bobby Blake,,",Francis Wilber,",fwilber@brunswickfloors.com
Abbey of Gig Harbor,6880 Kimball Dr.,Gig Harbor,98335,WA,(253) 851-8326,www.gigharbor.abbeycarpet.com,Len Mallory,,",,",
Henderson Floors Covering,1719 Us Highway 79 South,Henderson,75654,tx,(903) 657-9141,N/A,,,"Lisa,,",
Williamson's Interiors,110 E 3rd St,Grand Island,68801,NE,(308) 382-7327,www.williamsonsinteriors.com,,,"Dave,Dave,Chuck Kohn",ckohn@kdsi.net
Contempo Floor Covering,902 S Barrington Ave,Los Angeles,90049,CA,(310) 826-8063,http://www.contempofloorcoverings.com/,Mark Haloossim,mark@contempofloorcoverings.com,"Mark Haloosim,,David Haloosim",
Leicester Carpet,1229 7th Avenue East,Hendersonville,28792,NC,(828) 254-8937,leicestercarpet.com,Brad Snelson,brad@leicestercarpet.com,"Duane Adams,Tim Reid,",
Carpets by French,1300 Main St,Dunedin,34698,FL,(727) 736-5669,www.carpetsbyfrench.com,John French,john@carpetsbyfrench.com,"John French,Rob Wagner,John French",rob@carpetsbyfrench.com
Mitchell's Floor Designs,Route 13 South,Laurel,19956,DE,(302) 875-2221,www.mitchellsinteriors.com,Roger Feist,,"Jim Ashcraft,Jim Ashcraft,",brenda@mitchellsinteriors.com
Flairmont Furniture,1836 East Main Street,Montrose,81402,CO,(970) 249-4116,www.flairmontfurniturecarpetone.com,Ed DeJulio,,"Ed DeJulio,Mark DeJulio,",flairmont@qwest.net
C & P CARPETS & ENT INC,10014 N. Rodney Parham Rd.,LittleRock,72207,AR,(501) 224-6000,N/A,Dennis Campbell,dkchunterboy@live.com,"Dennis Campbell,Gene Busselle,Dennis Campbell",tbusselle@hotmail.com
Burkholder's Floor Covering Inc,13412 Pennsylvania Ave,Hagerstown,21742,NY,(301) 733-9196,www.burkholdersflooringamerica.com,,,",,",
Floor Fashions of Virginia,2422 Richmond Rd Rt 250,Charlottesville,22901,VA,(434) 296-7744,www.floor-fashions.net,Phillip Ryder,pryder@earthlink.net,"Phillip Ryder,Same,Phillip Ryder",Same
Choice Floor Specialists Inc,2822 North Nebraska Ave.,York,68467,NE,(402) 362-7778,,Terri Heffelfinger,terricfs@windstream.net,"Terri Heffelfinger,Erin Heffelfinger,Terri Heffelfinger",erincfs@windstream.net
America's Carpet Gallery of Pinehurst,585 Hwy 5,Pinehurst,28374,NC,(910) 295-2293,N/A,Ted Rhodes,carpetgallery@pinehurst.net,",,",
Expressway Carpet,1300 Montlimar Dr,Mobile,36609,AL,(251) 666-1900,http://www.expresswaycarpet.com/,Anthony Hammontree,awtree1@bellsouth.net,"Anthony Hammontree,Neil Holifield,",Neil Holifield
Green Mountain Tile Dist. Inc.,1267 Harwood Hill Drive,Bennington,5201,VT,(802) 442-2494,www.benningtontile.com,Andrew Sparta,asparta@benningtontile.com,",Andrew Sparta,",asparta@benningtontile.com
Drenners Carpet Gallery,5615 7th St,Bay City,77414,TX,(979) 245-9103,Drenners.com,"FRANK, PAT DRENNER",Pat@drenners.com,"Pat Drenner,Pat Drenner,",Pat@drenners.com
Nebraska Furniture Mart,700 S 72nd St,Omaha,68114,NE,(402) 397-6100,www.nfm.com,,,"David Snedeker,Gary Cissell,David Snedeker",gary.cissell@nfm.com
Gilman Floors,1113 Fording Island Road,Bluffton,29910,SC,(843) 757-5800,www.gilmanfloors.com/index2.htm,Doug Gilman,doug@gilmanfloors.com,"Doug,,Doug",
Flooring Expo,25141 Lorain Rd,North Olmsted,44070,OH,(440) 777-5500,http://flooringexpoonline.net,Rob Krueger,rob_krueger@roadrunner.com,"Rob Krueger,Rob Krueger,Rob Krueger",rob_krueger@roadrunner.com
Carpet One Floor & Home,5131 SW 29th Street,Topeka,66614,KS,(785) 273-1402,http://www.carpetone.com/,,,"Dale Smith,Dale Smith,Dale Smith",dale.smith@capcarpetinc.com
Busenbark Carpetmax,151 Busenbark Dr,Farmington,63640,MO,(573) 431-4100,www.busenbarkcarpet.com,Gary Busenbark,,"Todd Busenbark,Todd and Chad Busenbark,Todd Busenbark",sales@busenbarkcarpet.com
Go Green Flooring (Carpet Line),5485 Western Ave,Boulder,80301,CO,(303) 440-4429,www.gogreenflooring.com,JERRY & BRENDA STEELE,skisteele@aol.com,"JERRY STEELE,BRENDA STEELE,JERRY STEELE",BRENDA STEELE
Don Booth Co.,245 Salem Warren Rd.,North Jackson,44451,OH,(330) 538-3101,www.donboothco.com,Chuck Booth,cbooth@donboothco.com,"Chuck Booth,Chuck Booth,Chuck Booth",cbooth@donboothco.com
Barnetts Crenshaw Carpet,4611-17 Crenshaw Blvd,Los Angeles,90043,CA,(323) 295-7731,www.crenshawcarpet.com,Bruce Barnett,crenshawcarpet@aol.com,"Bruce Barnett,Beverly Barnett,Bruce Barnett",Beverly Barnett
Glovers Flooring America,3510 Chamblee Dunwoody Rd,Chamblee,30341,GA,(770) 457-2557,www.gloversfloors.net,Tad Provence,judpro@hotmail.com,"Ryan Provence,,",
LaCour`s Carpet World Abbey Carpet & Floor,7421 Tom Dr,Baton Rouge,70806,LA,(225) 927-4130,http://lacoursbr.com/,SAM LACOUR,,"David LaCour,DAVID LACOUR,David LaCour",DAVID LACOUR
Griffin's Floorcrafters,1305 Fifth Avenue,Moline,61265,IL,(309) 762-9423,www.griffinsfloorcrafters.com,Steve Griffin,,"Bruce Griffin,Bruce Griffin,Bruce Griffin",floorcrafter@surfbest.net
BUCHANAN JOHN CARPET CO INC,1636 ROUTE 9G,HYDE PARK,12538,NY,(845) 229-7172,,Dennis Palazzo,ddmp@valstar.net,"Dennis,Dennis Palazzo,",ddmp@valstar.net
FARSH INC,710 JEFFERSON ST,ALEXANDRIA,22314,VA,(703) 548-8884,n/a,Mansour Zamani,farshinc@aol.com,",Mansour Zamani,",
Creative Interiors,1404 Boundary Street,Beaufort,29902,SC,(843) 524-2612,http://www.creativeinteriorsbeaufort.com/,Will Dukes,creative@islc.net,"Will Dukes,Elizabeth Dukes,Will Dukes",edukes@islc.net
C. Markarian & Sons Inc,3807 Deleware Ave,Kenmore,14217,NY,(716) 873-8667,N/A,"mike,jeff,randy markarian",,"mike markarian,,mike markarian",
Carpet Hut,3325 Big Horn Ave.,Cody,82414,WY,(307) 527-7525,N/A,Larry Dye,rickdye@hotmal.com,"Larry Dye,Rick Dye,",rickdye@hotmal.com
Carpet Concepts Inc,4148 Herschel St,Jacksonville,32210,FL,(904) 388-4110,N/A,Mark Stone,CarpetKg@aol.com,"Mark Stone,Frank Stone,Mark Stone",CarpetKg@aol.com
Carpet World of Chesapeake,669 Cedar Road,Chesapeake,23322,VA,(757) 436-1393,carpetworldofva.com,,,"Kevan Jonassen,Kevan Jonassen,Kevan Jonassen",kjonassen@carpetworldofva.com
Abbey Carpet Missoula,407 South Catlin Street,Missoula,59801,MT,(406) 721-1810,missoula.abbeycarpet.com,Curt Bowler,curt@msla-abbeycarpet.com,"Curt Bowler,Gary Mace,Curt Bowler",garym@msla-abbeycarpet.com
Carpet Specialists,2101 Stanley Gault Parkway,Louisville,40223,KY,(502) 245-0221,http://www.carpetspecialistsonline.com/,Harry Lloyd & David Turner,,"Harry Lloyd,John Faulkner,Harry Lloyd",John Faulkner
Kalamian's,963 Bank Street,New London,6320,CT,(860) 442-0615,www.kalamians.com,Lisa Rehg,lisarehg@yahoo.com,"Lou Fiano,Miriam Kalamian,Lou Fiano",Miriam Kalamian
The Flooring Gallery,2208 Plantside Drive,Louisville,40299,KY,(502) 964-3301,www.theflooringgallery-ky.com,Nick Freadreacea,nickF@tfgusa.net,"Nick Freadreacea,,Nick Freadreacea",
Roger's Flooring Ltd,27 W 743 St Charles Rd,West Chicago,60185,IL,(630) 231-8500,www.rogersflooring.com,Roger Wanshek,roger@rogersflooring.com,"Roger Wanshek,Henry Latkowski,Roger Wanshek",Henry@rogersflooring.com
Quality Carpet,214 Ditmas Ave,Brooklyn,11218,NY,(718) 941-4200,www.qualitycarpet.com,Herb Frank,herb@qualitycarpet.com,"Herb Frank,Joseph Frank,",joseph@qualitycarpet.com
Floorscapes Inc,6230 Centre Street SE,Calgary,T2H0C6,AB,(403) 296-0985,www.floorscapes.net,Bryce Osbourne,,",,",
Austin Fine Floors,10321 Burnet Road,Austin,78758,TX,(512) 339-9590,www.austinfinefloors.com,Dale Miller,dmiller@austinfinefloors.com,"Ryan Drouin,Ryan Drouin,Ryan Drouin",rdrouin@austinfinefloors.com
AC Ramirez,824 Cacique St.,Santa Barbara,93103,CA,(805) 965-0095,http://www.acramirez.com/,Alan Ramirez,alan@acramirez.com,",,",
FLOOR DESIGNS INC,25 RHODE ISLAND,SAN FRANCISCO,94103,CA,(415) 626-1005,Floordesign.com,Patrick Aaron,JPA@Floordesign.com,"Patrick Aaron,,Patrick Aaron",
Floor Creations,"1955 Sigman Rd, Suite 108",Conyers,30012,GA,(770) 918-0043,www.afloorcreation.com,Rob Lowder,afloorcreation@bellsouth.net,"Robb,,Robb",
Albrite Carpets Inc,223 Winthrop Ave,Lawrence,1843,MA,(978) 682-7651,www.albritecarpets.com,George Abdinor,abbeyalbrite@verizon.net,"George Abdinor,John Abdinor,George Abdinor",
Botimer & Associates,3 East Main Street,Walla Walla,99662,WA,(509) 525-2597,N/A,Gloria Botimer,,"Poe Perry,Poe Perry,Poe Perry",poeperry@yahoo.com
Carpet Designers,1168 W Fourth St,Winston Salem,27101,NC,(336) 725-8220,www.bobgrubbscarpet.com,Bob Grubbs,rwg35@aol.com,"Bob Grubbs,,Bob Grubbs",
Avalanche Floor Coverings Inc,7715 Colland Dr,Fort Collins,80525,CO,(970) 203-1000,www.Avalanchefloorcoverings.com,Andrea Becvar,andrea@avalanchefloorcoverings.com,"Renee Horne,Joleen Becvar,",joleen@avalanchefloorcoverings.com
JSS Carpets,5801 Lincoln Ave,Buena Park,90620,CA,(714) 828-0742,www.jsscarpetonebuenapark.com,John Smith,,"John Smith,,John Smith",
Miller's Interiors Carpet One,15615 Hwy 99,Lynnwood,98037,WA,(425) 743-3213,www.millersinteriors.com or www.floorbiz.com/Biz/bizProfile.asp?CompanyID=85735,Kevin Miller,ktmiller@millersinteriors.com,",,",
Youngs Interiors,1830 Hwy 9 East,North Myrtle Beach,29597,SC,(843) 399-6524,younginteriorsflooring.com,Alan Thomas,alan@younginteriorsflooring.com,"Alan Thomas,,Alan Thomas",
Custom Tile Works,110 West Naches,Selah,98942,WA,(509) 697-7028,http://www.customtileworks.net/,John Maher,customtileworks@elltel.net,"John Maher,Maher,John Maher",customtileworks@elltel.net
Floor to Ceiling Carpet One,360 36th St. SW,Fargo,58103,ND,(701) 237-6601,http://www.floortoceilingcarpetone.com/,,mroman@ftcc1.com,",,",
Carbone's Carpets,169 Freemans Bridge Rd,Scotia,12302,NY,(518) 372-0332,,John Carbone,,"Pam Anderson,Pam,Pam Anderson",Pam
Hosner Carpet & Interiors,4925 West Tuscarawas St.,Canton,44708,OH,(330) 477-2231,www.carpetone.com/hosner,Terry Hosner,thosner@hcico.org,"Terry Hosner,Mary Hosner Lucius,Terry Hosner",mlucius@hcico.org
LaRocco Floorcovering,1615 Franklin St,Michigan City,46360,IN,(219) 872-0694,http://www.4lfc.com/,John LaRocco,jlarocco@sbcglobal.net,",John LaRocco,",jlarocco@sbcglobal.net
"M Austin Designer Floor, Inc.",4060 A Morena Blvd.,San Diego,92117,CA,(858) 483-3200,www.maustinfloors.com,Ron Alleger,ron@maustinfloors.com,"Tamara,Tamara Bonafede,Tamara",tamara@maustinfloors.com
Joers Floor Center,4119 Grape Rd.,Mishawaka,46545,IN,(574) 277-9711,http://www.joerscarpetonemishawaka.com/,Ron Joers,joersfloor@sbcglobal.net,"Ron Joers,,Ron Joers",
Abbey Carpet of Stockton,3008 E HAMMER LN STE 117,STOCKTON,95212,CA,(209) 956-0188,http://stockton.abbeycarpet.com/Default.aspx,Joe Heskett,retha.a@sbcglobal.net,"Joe Heskett,Joe Heskett,Joe Heskett",
Lake Forest Interior Design,9245 N Government Way,Hayden,83835,ID,(208) 772-5658,,Bob & Jane Legasa,freeridepromo@msn.com,"Bob Legasa,Margaret,Bob Legasa",margaretlakeforest@yahoo.com
Klocker Furniture,765 E Sioux,Pierre,57501,SD,(605) 224-8619,www.klockerfurniture@aol.com,Jerry Klocker,klockerfurniture@aol.com,"Jerry Klocker,Zeb Klocker,Jerry Klocker",zebklocker@aol.com
BLODGETT'S FLOOR COVERING,3291 MT DIABLO COURT,LAFAYETTE,94549,CA,(925) 284-4807,WWW.BLODGETTS.COM,Larry Blodgett,Larryb@blodgetts.com,"Larry Blodgett,Larry Blodgett,Larry Blodgett",Larryb@Blodgetts.com
Williams Carpet Service Inc,1600 Hwy 17 North,North Myrtle Beach,29582,SC,(843) 249-2224,not found,TREVIS WILLIAMS,,"TREVIS WILLIAMS,SANDRA LEE,TREVIS WILLIAMS",SANDRA LEE
Chase Carpets & Tile,6203 N. Capital of Texas Highway,Austin,78731,TX,(512) 360-2222,www.chasecarpets.com,Marc Chase,marc@chasecarpets.com,"Ron Wright,Chris Chase,Ron Wright",chris@chasecarpets.com
The Carpet Mart Carpet One,2500 South M - 139,Benton Harbor,49022,MI,(269) 925-7079,http://www.carpetmartcarpetone.com/,John Kolaskey,carpetmart1@sbcglobal.net,"John Kolaskey,John Kolaskey,John Kolaskey",
Designer Carpets,1010 W Main,Lebanon,37087,TN,(615) 453-3000,www.designercarpets.com,Rex Atkins,,"Rex Atkins,Johnny Bush,Rex Atkins",Johnny Bush
Flooring Solutions,3206 Raasch Drive Suite # 100,Norfolk,68701,NE,(402) 379-5757,www.flooringsolutions.com,Todd Pospisil,flooringsolutions@telebeep.com,"Todd Pospisil,,Todd Pospisil",
Watson Flooring Center,464 Hampshire Drive,Gaffney,29341,SC,(864) 488-9884,N/A,Floyd Watson,hailyeli09@yahoo.com,"Floyd Watson,Floyd Watson,Floyd Watson",hailyeli09@yahoo.com
Carpets By Duane,2095 Chicago Ave,Riverside,92507,CA,(951) 784-2630,www.carpetsbyduane.com,Duane Ritz,,"Saron Ritz,Sharon Ritz,Sharon Ritz",Sharon Ritz
Flooring Max / Main Office,PO Box 2208,Leonardtown,20650,MD,(301) 705-7995,http://www.flooringmaxinc.com/,Pete Griffin & Greg Tennyson,,"Pete Griffin,Greg Tennyson,Greg Tennyson",greg.tennyson@flooringmaxinc.com
Rheinschmidt's Inc.,1201 N Roosevelt,Burlington,52601,IA,(319) 753-1611,not found,Jim Rheinschmidt,jimr@rheinschmidts.net,"Michelle Russell,Michelle Russell,Michelle Russell",micheller@rheinschmidts.net
Deans Carpet & Decorating Center,186 Granite Street,Manchester,3101,VA,(603) 668-0200,http://www.deanscarpetonemanchester.com/,George Katis,,"Eric Sandquist,Dennis DePelteau,Eric Sandquist",
Auburn Carpet One Floor & Home,10068 Streeter Rd Unit 15,Auburn,95602,CA,(530) 268-0502,http://www.auburncarpetoneauburn.com,Jim Holbrook,carpetoneauburn@sbcglobal.net,"Jim Holbrook,Jim Golding,Jim Holbrook",
Abbey Carpet of Puyallup,708 E Main,Puyallup,98372,WA,(253) 445-1122,www.abbeycp.com,Barry Lindgren,barry@abbeycp.com,"Barry Lindgren,,Barry Lindgren",
Simas Floor Covering,3550 Power Inn Road,Sacramento,95826,CA,(916) 452-4933,http://www.simasfloor.com,Mark Simas,mark.simas@simasfloor.com,"Mark Simas,Jan Madison,Mark Simas",
S & J Biren Inc,9563 W Pico Blvd,Los Angeles,90035,CA,(310) 553-0971,http://www.sjbiren.com/,Evan Biren,Evan@sjbiren.com,"Evan Biren,,Evan Biren",Eric@sjbiren.com
Budget Carpet Outlet,684 Main St SW,Gainesville,30501,GA,(770) 287-8463,http://www.budgetcarpetoutlet.com/,Jason Everett,,"Jason,,",
KPM Flooring,"35 Main St, Suite 110",Hilton Head,29926,SC,(843) 342-4955,www.kpmflooring.com,Kathleen Mayers,kathleen@kpmflooring.com,"Kathleen Mayers,Kathleen Mayers,Kathleen Mayers",kathleen@kpmflooring.com
East Texas Carpets,1115 N University Dr,Nacodoches,75961,TX,(936) 564-6742,N/A,,,",LISA THOMPSON,",LISA THOMPSON
Morris Floorcovering,524 N. Roosevelt Dr.,Seaside,97138,OR,(503) 738-8621,www.morrisfloors.com,John Morris,morrisfloors@theoregonshore.com,",,",
Montgomerys Furniture,1312 W Havens Ave,Mitchell,57301,SD,(605) 996-6900,www.montgomeryfurniture.net,Jim Loomer,montgomerys@santel.net,"Todd Loomer,Todd Loomer,Todd Loomer",montgomerys@santel.net
CarpetMaster Carpet One,600 Troy Schenectady Road,Latham,12110,NY,(518) 785-9544,http://www.carpetmastercarpetonelatham.com,Tom Taylor,,",Chris Taylor,",ctaylor@floormail.net
The Added Touch,3849 Park Ave. W.,Mansfield,44903,OH,(419) 468-3146,http://www.addedtouchfurniture.com/,Loretta Compton,,"Lori McClintock,,Lorreta Compton",
Innovative Interiors by Deaton's,1624 South Taylorville Rd.,Decatur,62521,IL,(217) 875-4594,,Mike Deaton,mdeaton1624@comcast.net,"Brian Deaton,Brian Deaton,Brian Deaton",bmdeaton@yahoo.com
Gold River Flooring Gallery,4339 Granite Drive,Rocklin,95677,CA,(916) 415-1056,www.goldriverfloors.com,Jeff & Meridith Kreckleberg,jkreckleberg@goldriverfloors.com,"Gene Andrews,,Gene Andrews",
Heritage Place Gallery of Floors,105 Pleasant Dr,Aliquippa,15001,PA,(724) 378-1925,,dave deluco,elained@hplacefloors.com,"dave de luco,elaine deluco,dave de luco",elaine deluco
Carpet One of Durham,3612 Durham Chapel Hill Blvd,Durham,27707,NC,(919) 493-3437,http://www.carpetonedurham.com/,,,",,",
A & D Carpet and Hardwoods,320 S. Belair Rd.,Martinez,30907,GA,(706) 863-8870,http://aanddcarpets.com/,Angela Key,bcritell@bellsouth.net,"Becky Critell,Becky Critell,Becky Critell",bcritell@bellsouth.net
Baldwin Flooring America,3403 Samson Way,Bellevue,68123,NE,(402) 571-3777,http://www.baldwinsflooringamericaomaha.com/,Don Baldwin Jr.,don@baldwinfa.com,"Don Baldwin Jr.,Don Baldwin Jr.,Don Baldwin Jr.",don@baldwinfa.com
BROONER FLOOR CENTER,1506 E 6TH AVE,STILLWATER,74074,OK,(405) 377-7707,www.broonersfloorcenter.com,Joe Broooner,brooners1506@hotmail.com,"Joe Brooner,Ramona Brooner,Joe Brooner",Ramona Brooner
Grand Design,9636 85th Ave. North,Maple Grove,55369,MN,(763) 424-3736,http://www.gdfloorsmn.com/home.html,Mark Anderson,manderson@gdfloorsmn.com,"Mark Anderson,Kim Hesser,Mark Anderson",khesser@gdfloorsmn.com
Charlestowne Floors,2965 Niagara Falls Blvd,Amherst,14228,NY,(716) 691-6212,N/A,charlie butera,,"leo butera,,leo butera",
Speice & Speice Interiors,PO Box 277,Duncan,73534,OK,(580) 252-0522,N/A,,,"John Speice,,John Speice",
Jaime's Designs & Floors,1402 N. Blackstone Ave.,Fresno,93703,CA,(559) 498-0677,http://www.jaimesdesignsandfloors.com/,Jaime Martinez,jmsfloors@yahoo.com,"Jaime Martinez,Lisa Smith,Jaime Martinez",
Community Floor Covering,868 Lancaster Ave,Devon,19333,PA,(610) 688-1882,N/A,Joesph Tartaglio,,",Pat Tartaglio,",ptartaglio2@verizon.net
Capitol Carpet Co.,14250 Ventura Blvd.,Sherman Oaks,91423,CA,(818) 783-6733,N/A,,,"John Saracyn,,John Saracyn",
ROCKFORD FLOOR COV,41 CORTLAND NE,ROCKFORD,49341,MI,(616) 866-2748,www.rockfordfloorcoveringinc.com,Randy Vanderwerp,jan.strauss@sbcglobal.net,"Randy Vanderwerp,Randy Vanderwerp,Randy Vanderwerp",
Cliffside Floors,645 Anderson Ave,Cliffside Park,7010,NJ,(201) 941-9505,N/A,hamid & hermine amirhamzeh,hermine125@aol.com,"Hermine,lynne nesbihal,",lynne nesbihal
Gary Denney Floor Covering Inc,816 W 6th St,The Dalles,97058,OR,(541) 298-4252,http://www.garydenneyfloorcovering.com/,,,"Wendy Denny,,",
Hatch Furniture,109 E 3rd,Yankton,57078,SD,(605) 665-4416,www.hatchfurniture.com,Ron Hatch,ronhatch@hatchfurniture.com,"Ron Hatch,Jennifer Eickhoff,Ron Hatch",jennifere@hatchfurniture.com
Dorello Carpets,594 Main Ave.,Norwalk,6851,CT,(203) 847-0335,http://www.dorellocarpet.com/,James/Andrew Vecchiariello,dorello@optonline.net,"James/Andrew Vecchiariello,Nick Distillio,James",Nick Distillio
Marina Carpet,2035 E Jericho Turnpike,East Northport,11731,NY,(631) 499-5353,http://eastnorthport.abbeycarpet.com/,Bob DiVito,marinacarpetone@aol.com,"Robert Devito,,",
West Coast Flooring Center,28011 Jefferson Avenue,Temecula,92590,CA,(951) 693-1866,http://www.westcoastflooring.com/,John Cunningham,jcunningham@westcoastflooring.com,",Ken Thompson,",
Floors Etc.,1110 Reisterstown Road,Pikesville,21208,MD,(410) 484-4123,www.floorsetc.com,Stanley Ginsburg,sginsburg@floors-etc.com,"Stanley Ginsburg,,Stanley Ginsburg",
Floorida Floors,1110 Capital Circle NE,Tallahassee,32301,FL,(850) 656-4200,www.flooridafloors.com,Warren Weeks,,",,",
A P T CUSTOM CARPETS LTD,75 WEST BEAVER CREEK RD,RICHMOND HILL,L4B 1K6,ON,(905) 764-1588,http://www.aptcustomcarpets.com/,,,",,",
Mizell Floor Covering,423 Connell Rd,Valdosta,31602,GA,(912) 244-2333,http://www.mizellinteriors.com/,Bart Mizell,btm8167@bellsouth.ne,"Bart Mizell,,Bart Mizell",
Marshfield Flooring,1915 S Roddis,Marshfield,54449,WI,(715) 384-3484,http://www.marshfieldflooring.com/,Jay Schlagenhaft,,"Jay,Hannah,Jay",hannahdieringer@charter.net
Functional Design,2365 Glendale Ave.,Sparks,89431,NV,(775) 359-9898,http://www.functionaldesignsreno.com/,Venture Capital Group,,"Nancy Lilyhorn,Nancy Lilyhorn,Nancy Lilyhorn",nancy@functionaldesigns.com
Butler Floors & Carpet Co,1763 N Main St,Butler,16003,PA,(724) 287-2289,http://www.butlerfloor.com/,dave croft,"cindykay@zoominternet,com","dave croft,dave croft,dave croft",dave croft
Boyles Floor & Window,2920 West Chester Pike,Broomall,19008,PA,(610) 353-0400,http://boylesflooring.com/,Mark Beesman,,",Don Schexnayder,",Don @boylesflooring.com
CORI BROWN ASSOC LLC,29 W. 800 S.,Salt Lake City,84101,UT,(801) 580-2860,N/A,Cori Brown,cori@coribrownassoc.com,"Cori Brown,,Cori Brown",
Wayne's Color Center,1000 N. Bayshore,Coos Bay,97420,OR,(541) 267-2010,http://www.waynescarpetonecoosbay.com/,Kyle Zender,kzender@waynescarpetone.com,"Kyle Zender,,Kyle Zender",
Home Interiors,2719 S. Onieda St.,Green Bay,54304,WI,(920) 497-0497,www.homeinteriors.com,Fred Hoffmen,fredh@homefloors.com,"Fred Hoffman,,Fred Hoffman",
Keck Furniture,104 E. Main,Watertown,214077,WI,(920) 261-7214,http://www.keckfurniture.com/,Tom/Lynn,keckfurniture@mcleodusa.net,"Tom,,Tom",
Contract Carpet Systems,10212 Southard Drive,Beltsville,20705,MD,(301) 937-0030,www.contractcarpetsystems.com,Kurt Zanelotti,kzanelotti@contractcarpetsystems.com,"Dave Callaghan,Dave Callaghan,Dave Callaghan",Dave Callaghan
Highlands Decorating Center,330 Dillard Road,Highlands,28741,NC,(828) 526-3571,http://www.highlandsdecorating.com/,Derek Taylor,hdc@brmemc.net,"Derek Taylor,LeeAnn Hall,Derek Taylor",hdc@brmemc.net
Greater Tennessee Flooring,222 W Baxter Ave,Knoxville,37917,TN,(865) 522-0606,www.greatertennessee.com,Steve Hall,greatertennessee@aol.com,"Steve Hall,,Steve Hall",
Interiors Plus,1021 20th Ave SW Ste 113,Minot,58701,ND,(701) 838-6476,www.interiorsplusnd.com,,,",,",
Shaheen Floor Gallery,4120 Whipple Ave. NW,Canton,44711,OH,(330) 493-9000,http://canton.abbeycarpet.com/,Nicholas Shaheen,rugs1338@aol.com,"Nick Shaheen,,Nick Shaheen",
Hodge Carpets,459 Marion Ave,Spartanburg,29303,SC,(864) 573-9288,www.hodgecarpets.com,Jamie Hodge,jamie@hodgecarpets.com,"Jamie Hodge,Jamie Hodge,Jamie Hodge",jamie@hodgecarpets.com
Madison Carpet,26 Boston Post Rd,Madison,6443,VA,(203) 245-2709,,John Fonda,rm0844@aol.com,"John Fonda,N/A,John Fonda",N/A
Floor Expo and Design,18020 Euclid St,Fountain Valley,92708,CA,(714) 979-1007,http://www.floorexpoonline.com/,,hayan@floorexpoonline.com,"Hayan Tumih,,Hayan Tumih",
INTERIORS BY KRIS,13020 BOOKER T WASHINGTON HWY,HARDY,24101,VA,(540) 721-8354,www.interiorsbykris.com,Kris Willard,kris@interiorsbykris.com,",Joe Russell,",joe@interiorsbykris.com
Downeast Rug Company,659 Warren Avenue,Portland,4103,ME,(207) 772-9680,http://www.downeastrugcompany.com/,Randy Akers,rcakers@sprint.blackberry.net,"Steve Heyanka,Steve Heyanka,Steve Heyanka",
Family Carpet,501 Division St,Parkersburg,26101,WV,(304) 375-7545,http://familyinteriors.com/,rob parrish,family1@wirefire.com,"bob powell,bob powell,bob powell",bob powell
CARPET STUDIO THE,6334 HWY 93 SO,WHITEFISH,59937,MT,(406) 862-2880,http://www.carpetstudioonline.com/,Dawn Platke,cstudio@aboutmontana.net,"Dawn West,Dawn Platke,Dawn West",cstudio@aboutmontana.net
Espinoza Flooring,PO Box 114,Sunvalley,83353,ID,(208) 726-3232,,Bea Espinoza,@espinoza.comfreight@espinozaflooring.com,"Bea Espinoza,,Bea Espinoza",
Williams Carpet,1904 9th Ave SE,Watertown,57201,SD,(605) 882-1963,http://www.williamscarpetonewatertown.com/,Mark Williams,,"Mark Williams,,Mark Williams",
Allied Floor Covering,325 Main Rd,Tiverton,2878,RI,(401) 624-4477,http://www.alliedfloorcoveringinc.com/,Ray Caron,ray@alliedfloorcovering.necoxmail.com,"Ray Caron,chris,Ray Caron",chris@alliedfloorcovering.necoxmail.com
Steven's World of Flooring,5 Chesire Road,Pittsville,1201,MA,(413) 443-6459,http://www.stevensworldofflooring.com/,Bill Murray,wmurray@aol.com,",,",
Distinctive Interiors,2800 E Outer Drive,Marion,62959,IL,(618) 993-2202,www.distinctiveinteriors.info,Wayland Sims,distint@shawneelink.net,"Wayland Sims,,Wayland Sims",
Sams Carpet,3041 Webster Ave,Bronx,10467,NY,(718) 882-7800,www.samscarpet.com,Ronnie Aquino & Carmine Rossi,samscarpet@aol.com,"Ronnie/Carmine,,Ronnie/Carmine",
Skelton's Carpet One,1st and C Street,Lewiston,83501,ID,(208) 746-3663,http://www.skeltonscarpetonelewiston.com/,Carlene Skelton,carlenes@hibek.net,"Carlene Skelton,Ann Skelton,Carlene Skelton",anna1974marie@hotmail.com
Tottens Carpet,1450 East Main St.,Lancaster,43130,OH,(740) 653-3866,http://tottenscarpets.com/,Ed Stacey,tottenscarpets@yahoo.com,"Ed Stacey,Brett Stacey,Ed Stacey",tottenscarpets@yahoo.com
Bridgman's Furniture Inc,387 Miracle Mile,Lebanon,3766,NH,(603) 448-2510,http://www.bridgmans.com/,Dan Rutledge,drutledge@bridgmans.com,"Dan Rutledge,Dan Rutledge,Dan Rutledge",drutledge@bridgmans.com
Carpet Gallery & Interiors Inc,173 2nd st,Williamsburg,23185,VA,(757) 253-0688,http://www.carpetgalleryc1williamsburg.com/,,,"Greg Sutherland,Greg Sutherland,Greg Sutherland",carpetgallint@aol.com
Grahams Carpet,2525 - 25th St.,Columbus,47203,IN,(812) 372-3311,http://www.grahamscarpets.co.uk/,Lee Graham,,"Sherri Graham,Sherry Graham,",gcw2525@netzero.net
GRANDE DESIGNER FLOORCOVERING,5855 PLACIDA RD,ENGLEWOOD,34224,FL,(941) 697-7676,N/A,Sharon Honacher,,"Sharon Honacher,,",
Classic Flooring and Design,"560 Industrial Way, Suite B",Fallbrook,92028,CA,(760) 723-8131,www.classicflooringanddesign.com,,,",,",
Metro Design Center,1206 N Sherman St,Allentown,18103,PA,(610) 434-0161,www.metrodesigncenter.com,Kevin Hausman,khausman@metrodesigncenter.com,"Kevin Hausman,,",
Standale Interiors,4046 Lake Michigan Dr,Grand Rapids,49534,MI,(616) 453-8201,http://www.standaleinteriors.com/,,,"Danette Bailey,Danette Bailey,Danette Bailey",danetteb@standalelumber.com
Floor Show Inc.,880 Kooteni Cut Off Rd.,Ponderay,83852,ID,(208) 263-5198,http://floorshowsandpoint.com/,Chet Whitney,floorshowinc@hotmail.com,"Chet,Chad Whitney,Chet",floorshowinc@hotmail.com
Sarkissian Carpet One,21840 Ventura Blvd.,Woodland Hills,91364,CA,(818) 883-1711,http://www.sarkissiancarpetone.com/,,,",,",hector@sarkissiancarpetone.com
Williams Carpet,5422 Oleandar Drive,Wilmington,28403,NC,(910) 452-5792,http://www.williamscarpetinc.com/,,,"Patricia Williams,,Patricia Williams",
Cottage Floors,8365 Monterey St,Gilroy,95020,CA,(408) 842-0215,www.cottagefloors.com,Tom Ruiz,thruiz@garlic.com,"Tom Ruiz,,Tom Ruiz",
Kuhn Carpet and Tile,12504 Wiles Road,Coral Springs,33065,FL,(954) 344-4838,http://kuhnflooring.com/index.php,Steve Kuhn,stevekuhncarpet@aol.com,"Steve Kuhn,Gary Feldman,Steve Kuhn",gary@kuhnflooringgallery.com
Floor Decor Carpet One Floor & Home,1870 E. Grand Avenue,Lindenhurst,60046,IL,(847) 265-7493,www.floordecorcarpetonelindenhurst.com,Dan Inman,,"Dan Inman,Lynn Tyson,Dan Inman",LTyson@carpetonestore.com
Carpet Town,778 Portland Rd,Saco,4072,ME,(207) 773-3331,http://www.maineflooringandfurniture.com/,Leon Foster,carpetto@maine.rr.com,"Leon Foster,Jim Haskell,Leon Foster",carpetto@maine.rr.com
Hoffman FLOOR AND HOME,160 TILLMAN ST,WESTWOOD,7675,NJ,(201) 664-0700,http://www.hoffmanfloorandhome.com/,Tony Sicilia,tsicilia@floorandhome.com,"Tony Sicilia,Eric Gore,",staff@floorandhome.com
Axminstor Rug Co,7360 Castor Ave,Philadelphia,19152,PA,(215) 742-5002,http://www.axrug.com/,Mark Saul,,"Mark Saul,Mark Saul,",
Jeff Ollivierre`s Carpet,59 Cove Rd,South Dartmouth,2748,MA,(508) 999-2237,N/A,Jeff Ollivierre,jcarpets@verizon.net,"Jeff Ollivierre,Jane Ollivierre,Jeff Ollivierre",jcarpets@verizon.net
B&B Carpet One,2983 Water Tower Place,Chanhassen,55317,MN,(952) 361-0844,www.bandbcarpetonechanhassen.com,,,"Jarod Johnson,Jarod Johnson,",jjohnson@bbcarpetone.com
Jon Delleman Inc. DBA Koesters Linoleum Shop,1353 W 53rd Street,Davenport,52802,IA,(563) 323-3301,,Jon Delleman,,"Jon Delleman,,Jon Delleman",
Rice Furniture and Appliance,1100 SW Booth Bend Rd.,McMinnville,97128,OR,(503) 472-7322,http://www.ricefurniture.com/,Todd Buehler,,"Todd Buehler,,Todd Buehler",
Flooring America of Seminole,9012 Seminole Blvd,Seminole,33772,FL,(727) 397-5509,www.floorcolorcenter.com,Patrick Marlowe,patmarlowe@aol.com,"Patrick Marlowe,,",
Majestic Abbey Carpet,28 Fair Ave.,Middletown,10940,NY,(845) 343-8292,http://middletown.abbeycarpet.com/,Anthony Casabona,acasabona@citlink.net,"Anthony,Anthony Casabona,",middletown.abbycarpet.com
Preferred Floors,12-68 150th,Whitestone,11357,NY,(718) 746-8666,www.preferredfloorsofwhitestone.com/,Mark Loschiavo,preferred1268@aol.com,"Allen Simon,Allen Simon,Mark Loschiavo",
Carpet One of New Bern,1709 Red Robin Lane,New Bern,28562,NC,(252) 672-8912,www.carpetonenewbernnc.com,David Eckberg,deckberg@suddenlink.net,"David Eckberg,,David Eckberg",
Village Interiors,370 E. Cascade Ave,Sisters,97759,OR,(541) 549-6406,http://villageinteriorsdesign.com/,Patricia Molesworth,patricia@villageinteriorsdesign.com,"Pat,,Pat",
Sistare Carpets Inc,1743 Great Falls Hwy,Lancaster,29720,SC,(803) 285-4224,www.sistarecarpets.com,Mike Sistare,sistarecarpets@yahoo.com,"MIKE SISTARE,Mike Sistare,MIKE SISTARE",sistarecarpets@yahoo.com
Andersons Carpet One,11 Office Park Dr,Hattiesburg,39402,MS,(601) 545-7198,http://www.andersondesigncenter.com/,Allen Anderson,allen@andersonretail.com,"Betty Wimberly,Betty Wimberly,",Betty Wimberly
Swan's Furniture,420 E 4th St,North Platte,69101,NE,(308) 532-3550,www.swansfurniture.com,Don Lucas,swansfurniture@windsteam.net,"Don Lucas,Don Lucas,Don Lucas",swansfurniture@windstream.net
Merrimac Rug @ Durkin's Carpet,287 Appleton St,Lowell,1852,MA,(978) 458-1253,http://merrimacrug.com/,Tom Durkin,TPdurkinatdurkins@verizon.net,",,",
Not Just Carpet Warehouse,2920 SW 30th Avenue,Pembroke Park,33009,FL,(954) 454-6993,www.notjustcarpetwarehouse.com,Rick Alleyn,rick@notjustcarpetwarehouse.com,"Rick Alleyn, Don Panzer,Don Panzer,Rick Alleyn, Don Panzer",don@notjustcarpetwarehouse.com
Saliba's Rug Sales & Service,2 Pleasant St,Bangor,4401,ME,(207) 942-4029,http://www.salibas.com/,Steve Saliba,steve@salibas.com,"Steve Saliba,Dave Saliba,Steve Saliba",
Carpet Royale,929 West Broad St.,Falls Church,22046,VA,(703) 237-9411,www.carpetroyalerug.com,,,"Tony Asi,,Tony Asi",
Carpet Gallery,3716 B Maccorkle Ave,Charleston,25304,WV,(304) 925-7799,N/A,John &Susan Nickbean,,"SusanNickbean,susan Nickbean,SusanNickbean",
Arrow Floor Carpet One,207 N Main St,Andover,1810,MA,(978) 247-6060,www.arrowfloor.com,Ken Traub,arrowfloorcarpetone@att.net,"Ken Traub,Fred Garozzo,Ken Traub",
Williams Carpet Center,8745 Ocean Highway,Pawleys Island,29585,SC,(843) 235-0218,N/A,BEVERLY CAUSEY,,"BEVERLY CAUSEY,,BEVERLY CAUSEY",
Simply Floors,22 Crystalridge Drive,Okotoks,T1S 2C8,AB,(403) 995-3321,www.simplyfloors.ca,,,",,",
Kahle Wholesale,501 Nathan Ln,Elkhorn,53121,WI,(262) 723-4514,http://www.kahlefloors.com/,Jeff Kahle,,"Jeff Kahle,,Jeff Kahle",
CONTEMPO FLOOR COVERINGS INC,2460 OVERLAND AVE,LOS ANGELES,90064,CA,(310) 837-8110,http://www.contempofloorcoverings.com/,David Haloosim,Haloo2u@hotmail.com,"David Haloosim,,David Haloosim",
Carpet Cowboys,890 S. US Highway 89,Jackson,83001,WY,(307) 733-6321,N/A,Chris Thulin,info@carpetcowboys.com,"Chris Thulin,,Chris Thulin",
Standard Paint & Abbey Carpet,101 North 3rd Ave.,Yakima,98902,WA,(509) 453-3171,www.standardpaintandcarpet.com,,,"Gwen Gamache,John Sullivan,Gwen Gamache",j.sullivan@standardpaintandcarpet.com
Warren Clark`s Custom Carpets,715 Mounta in Ave,Upland,91786,CA,(909) 981-0045,www.warrenclarkscustomcarpets.com,Warren Clark,,"Rogene Clark,,Rogene Clark",
Gotcha Covered,1233 Infinity Crt,Lincoln,68512,NE,(402) 420-5566,www.gcovered.com,Kelli Fowler,kfowler@gcovered.com,"Kelli Fowler,Kelli Fowler,Kelli Fowler",kfowler@gcovered.com
Carpet Gallery,245 S.Washburn Street,Oshkosh,54904,WI,(920) 233-1950,http://www.carpetgalleryoshkosh.com/,Randy Bunker,bunkersgallery@hotmail.com,"Randy Bunker,Katie,Randy",bunkersgallery@hotmail.com
Rogers Carpet One Floor and Home,971 Topsy Lane #322,Carson City,89705,NV,(775) 267-2555,http://www.rogerscarpetonecarsoncity.com/,Roger Pierce,rp@rogers.minden.nv.us,"Roger Pierce,Roger Pierce,Roger Pierce",Roger Pierce
Tastinger`s Floorcovering,276 W. Palmer St.,Franklin,28744,NC,(828) 369-8360,http://tastingersfloorcovering.com/,Tom Tastinger,tfc@smnet.net,"Tom Tastinger,Tom Tastinger,Tom Tastinger",tfc@smnet.net
Independent Floor Covering of Port Huron Inc.,3842 Pine Grove Ave.,Fort Gratiot,48059,MI,(810) 984-4196,www.independentfloor.com,Tom Thiele,indep@comcast.net,"Wing Thiele,Tom Thiele,Tom Thiele",
Floor Master Carpet One,63 Quaker Rd,Queensbury,12804,NY,(518) 793-3367,http://www.floormastercarpetonequeensbury.com/,Al Boychuck,floormasterny@gmail.com,"Al Boychuck,Larissa Boychuck,",Larissa Boychuck
Rustigian Rugs,One Governor Street,Providence,2906,RI,(401) 751-5100,www.rustigianrugs.com,Ros Rustigian,,"Ros Rustigian,Erich Haslehurst,Ros Rustigian",ehaslehurst@rustigianrugs.com
HERITAGE CARPET & INTS LTD INC,600 HARTBROOK DR,HARTLAND,53029,WI,(262) 367-5951,www.heritagecarpethartland.com,Jim Taylor,,"Jim Taylor,Jim Taylor,Jim Taylor",Jim Taylor
PAT METZGER'S FLOORING CENTER INC,2935 E. CLEAR LAKE AVE,SPRINGFIELD,62702,IL,(217) 744-7711,N/A,Pat Metzger,patron76@mac.com,"Pat Metzger,,Pat Metzger",
San Marco Floor & Wall,1711 San Marco Road,Marco Island,34145,FL,(239) 394-1171,http://www.sanmarcotile.co.za/,Bill Pascale,Bill@floridafloors.net,",,",
Village Barn Carpets & Rugs,2650 S. Van Dyke,Imlay City,48444,MI,(810) 724-6483,www.villagebarncarpets.com,David and Candi Shapano,diane_s@villagebarncarpets.com,"Diane Shapano,David Shapano,David Shapano",
Russells House of Furniture,28 N Park Row,Waterford,16441,PA,(814) 796-2671,http://www.russellsfurniture.com/,,,"chet russell,,chet russell",
Perrysburg Floor Coverings,27072 Carronade Dr.,Perrysburg,43551,OH,(419) 872-4911,http://www.perrysburgflooring.com/,kraig Keil,kkeil@perrysburgflooring.com,"Kraig Keil,Kraig Keil,Kraig Keil",kkeil@perrysburgflooring.com
Cutlers Inc,33 W William St,Corning,14830,NY,(607) 962-2466,www.cutlersinc.com,Cathy Cutler,cutlerscarpeting@stny.rr.com,"cathy cutler,,cathy cutler",
DECORATIVE CARPETS INC,8900 MELROSE AVE,W. HOLLYWOOD,90069,CA,(310) 859-6333,http://decorativecarpets.com/,GEORGE SUGARMAN,,",,",jose@decrotivecarpets.com
Carpet One,105 Business Loop 70 East,Columbia,65203,MO,(573) 449-0081,http://www.carpet1columbia.com/,Mike Trittler,Trittler@tranquility.net,"Scott Bradley,Scott Bradley,Scott Bradley",rscottb@tranquility.net
Boucher Interiors dba Westwwod Carpets,8811 Beverly Blvd,Los Angeles,90048,CA,(310) 273-6400,,Brad Boucher,brad.westwoodcarpets@yahoo.com,",,",
Kahians Carpet One Inc.,96 Long Pond Road,Plymouth,2360,MA,(508) 746-4670,www.stevekahian.com,Steve Kahian,stevenkahian@hotmail.com,"Steve Kahian,Steve Kahian,Steve Kahian",
"Gene's Floor Covering II, Inc.",3741 Gulf Shores Pkwy,Gulf Shores,36547,AL,(251) 968-6456,http://www.genesfloorcovering.com/,Russell Judkins,genesgulfshores@gulftel.com,"Darlene Johnson,Darlene Johnson,",Darlene Johnson
About Floors N More,14050 Beach Blvd.,Jacksonville,32250,FL,(904) 726-1700,www.aboutfloorsnmore.com,Richard Sherzer,floors1rs@bellsouth.net,"Richard Scherzer,,Richard Scherzer",
Harms Carpet One,1007 Key Street,Maumee,43537,OH,(419) 891-0900,www.harmscarpetone.com,Randy Harms,randy@harmscarpetone.com,"Jake Harms,Jake Harms,Jake Harms",jake@harmscarpetone.com
Carpet Man of York,700 W Market St,York,17401,PA,(717) 846-2000,www.helfcarpetman.com,Mike Helf,mlhelf@aol.com,"Michael Helf,,",
Wholesale Floorcovering,10708 Lee Highway,Fairfax,22030,VA,(301) 654-0202,N/A,Sharam,sharam333@yahoo.com,"Sharam,Sharam,Shahram Bagheri",sharam333@yahoo.com
The Floor Pavilion,269 Executive Park Dr NE,Concord,28025,NC,(704) 793-1900,www.thefloorpavilion.com,Mark Whitley,mwhitley1@vnet.net,",Karen Whitley,",kwhitley1@vnet.net
Regal Carpet,5411 Northfield Rd.,Bedford Heights,44146,OH,(216) 475-1844,http://www.regalcarpetandtile.com/,Howard Kinsley,,"Howard Kinsley,Marvin Kinstlinger,Howard Kinsley",Marvin Kinstlinger
Oasis Floors and Design Center,621 Lake Havasu Ave N,Lake Havasu,86403,AZ,(928) 680-0550,www.abbeycarpets.com,Kieth Williams,,"Kieth Williams,Bill,Kieth Williams",Bill
Barry Carpet,11061 West Pico Blvd.,Los Angeles,90064,CA,(310) 479-3761,www.barrycarpetcarpet.com,Jill Pierce,Jill@barrycarpet.com,",Marbella Fuentes,",Marbella@barrycarpet.com
Milburn Carpet One,35th St,Copaigue,11726,NY,(631) 842-1600,http://www.milburncarpetone.com/,Charlie Colletti,charliec@milburncarpet1.com,",,",
Pocono Interiors,215 E Harford St.,Milford,18337,PA,(570) 296-6204,www.poconointeriorsonline.com,Tom Lattanzio,,"Tom Lattanzio,,",
Aladdin Carpet and Floors,18505 N. Frederick Avenue,Gaithersburg,20879,MD,(301) 258-8000,http://www.aladdincarpet.com/,Amir,amir@aladdinsurfaces.com,"Nezam,Nezam,",amir@aladdinsurfaces.com
Stanges of Waupaca,110 W. Union St.,Waupaca,54981,WI,(715) 258-8113,http://www.stanges.com,John/Mark Stange,mark@stanges.com,"Mark Stange,Mark Stange,Mark Stange",mark@stanges.com
Home Design Center & Flooring,8501 1-B Tyco Rd,Vienna,22172,VA,(703) 883-8010,www.homedesigncenterandflooring.com,Nafi Saafi,myhomedesigncenter@yahoo.com,"Nafi Saafi,,Nafi Saafi",
Burnell's Decor,502 N Main St,Rice Lake,54868,WI,(715) 234-4505,www.burnellsdecor.com,,,"Bjorn Hanson,,Bjorn Hanson",
Ace Flooring,12962 S.W. 89th Avenue,Miami,33176,FL,(305) 238-2593,www.aceflooringsystems.com,Robert Rodriguez,rr@aceflooringsystems.net,",,",
Better Floors Inc,11300 Polo Place,Midlothian,23113,VA,(804) 378-1405,http://www.betterfloorsinc.net/,Tony Godbolt,tonygodbolt@betterfloorsinc.net,"Tony Godbolt,Same,Tony Godbolt",Same
Sunset Plaza Carpet,8256 Melrose Ave,Los Angeles,90046,CA,(323) 653-5555,N/A,,sunsetplaza1@gmail.com,"Cameron Besharat,,Cameron Besharat",
Anderson Carpet,4101 Broadway,Oakland,94611,CA,(510) 652-1032,http://www.andersoncarpet.net,"Tom, Don, Mike Cristoffe",tom@andersoncls.com,"Matt McGill,Matt McGill,Matt McGill",Matt@andersoncls.com
Family Floors,553 Baltimore Annapolis Blvd,Severna Park,21146,MD,(410) 647-1115,www.familyfloors.com,Bruce Karner,bkarner@familyfloors.com,"Bruce Karner,Mitchell Norin,Bruce Karner",mnorin@familyfloors.com
Paducah Floor Service - Home Floor Center,1908 Lone Oak Rd,Paducah,42003,KY,(270) 554-7655,www.homefloorandkitchens.com,,,"Chris,Chris Thompson,Chris",cthompson@homefloorandkitchens.com
Weavers Floor Coverings,3245 S Main St,Harrisonburg,22801,VA,(540) 433-1517,www.weaversflooringamericaharrisonburg.com,Kenneth Weaver,weaverfa@shentel.net,"Chad Nausbaum,Chad Nussbaum,Chad Nausbaum",Chad Nussbaum
Interior Fashions by Connie,204 W. 11th St,Bottineau,58318,ND,(701) 228-2728,www.interiorsbyconnie.hdfpd.com,,,",,",
Rice Furniture Co Inc,72 W Main St,Brevard,28712,NC,(828) 883-9210,http://rice-furniture.com/,Eddie Rice,ricefurniture@hotmail.com,"Eddie Rice,Ellen Whitesel,Eddie Rice",ricefurniture@hotmail.com
Independent Flooring Center,2506 S HASTINGS WAY,EAU CLAIRE,54701,WI,(715) 833-2432,www.ifcec.com,Tom Kruse,merchandiser@ifcec.com,",,",
Pace Stone,663 Washington St,Eden,27289,NC,(336) 623-2158,www.pacestone.com,Jay Pace,,",Ty Pace,",pacestomeinc@yahoo
Carpets by Denny Lee,1003 C Edgewood Rd,Edgewood,21040,MD,(410) 679-7978,www.carpetsbydennylee.com/,Denny Lee,,"Denny Lee,John Gabinet,Denny Lee",John Gabinet
Wilton Floor Covering,10 Broad St,Norwalk,6851,CT,(203) 847-3161,http://www.wiltonfloorcovering.com,Chuck Angione,,"Chuck Angione,,Chuck Angione",
Weisshouse,324 S. Highland,Pittsburgh,15206,PA,(412) 441-8888,www.weisshouse.com,stacey weiss,,"jim welsh,jim welsh,jim welsh",jim welsh
Barnard's Carpet One,950 SW 17th Ave.,Delray Beach,33444,FL,(561) 278-3600,www.BarnardsCarpetoneDelrayBeach.com,Cheryl Barnard,carpetbarn@bellsouth.net,"Cheryl Barnard,Cheryl Barnard,",carpetbarn@bellsouth.net
Carpet One of the Hamptons,675 North Sea Rd.,Southampton,11968,NY,(631) 287-1070,www.carpetone.com,Gary,,",John Annunziata,",
Southeastern Galleries,1885 Ashley River Rd,Charleston,29407,SC,(843) 556-4663,www.southeasterngalleries.com,Rick Cooper,rickc@southeasterngalleries.com,"Rick Cooper,Rick Cooper,Rick Cooper",rickc@southeasterngalleries.com
Absolute Floor Design,3368 FAIRFIELD AVE,Bridgeport,6605,CT,(203) 333-3248,www.afd123.com,Sam,,",Lisa Leso,",
FloorEver Interiors,2705 s Alma School rd,Chandler,85286,AZ,(480) 899-2640,http://www.flooreverinteriors.com/,Jeanne Mcmurdy,jmcmurdy@cox.net,",,",
Hagopian Rug Outlet,14000 W. Eight Mile Road,Oak Park,48237,MI,(248) 546-7847,www.originalhagopian.com,Edmond Hagopian,edmond@originalhagopian.com,",,",
Tina`s Interior Design,2757 Bechelli Lane,Redding,96002,CA,(530) 223-1195,http://interiordesignresources.com/,Tina Hitchcock,tina@interiordesignresources.com,",,",
Value Carpet One,1530 N Salisbury Blvd.,Salisbury,21801,MD,(410) 742-5224,http://www.valuecarpetonesalisbury.com/,Chris Adams,cindypilchardco@comcast.net,"Chris Adams,Terry Banks,Chris Adams",terrybanks@comcast.net
Interiors by Jayme,633 SW 153rd St,Burien,98166,WA,(206) 246-1122,N/A,Brian Trautmann,interiorsbyjayme@msn.com,"Brian Trautmann,,Brian Trautmann",
Call for Carpet,937 Ulster Ave.,Kingston,12401,NY,(845) 338-5104,,Andy Bahl,android52@gmail.com,"Andy Bahl,Andy Bahl,Andy Bahl",
Bay Carpet,65-04 Myrtle Ave,Glendale,11385,NY,(718) 366-5001,www.baycarpet.com,Karl Lifavi,baycarpet@yahoo.com,"Karl,,Karl",
Indiana Flooring,313 E 14th St,Anderson,46016,IN,(765) 643-6635,www.indianacarpetone.com,Mike,,",,",
C. C. CARPET,7600 AMBASSADOR ROW,DALLAS,75247,TX,(214) 631-0704,WWW.CCCARPET.COM,MARK FITZGERALD,mark@cccarpet.com,"MARK FITZGERALD,,MARK FITZGERALD",
Casey Carpet One,4201 South Georgia,Amarillo,79110,TX,(806) 318-9127,http://www.caseycarpetoneamarillo.com/,Dick/Dusty Doyle,,",,",
James Flooring,4490 US Highway 1 N. #107,Bunnell,32110,FL,(386) 445-4050,www.jamesflooring.net,John James,jamesbroscarpet1@bellsouth.net,"John James,,John James",
Village Carpets & Interiors,1425 N Magnolia Avenue,El Cajon,92020,CA,(619) 401-6472,www.villagecarpetsinc.com,George Woods,,"Randy Woods,Randy Woods,Randy Woods",
Roy Bennett Furniture,311 Main St.,Quincy,62301,IL,(217) 222-1240,www.roybennettfurniture.com,Mac Bennett,,"Ann Bennett-Wright,Ann Bennett-Wright,Ann Bennett-Wright",wright125@adams.net
Amore Floor Covering,1165 Boston Post Road,West Haven,6516,CT,(203) 933-7523,www.amorefloorcovering.com,Annamarie Amore,amorefloor@aol.com,",Lori,",
River Floors,12450 Eaton Commerce Parkway,Columbia Station,44028,OH,(440) 748-2813,www.riverfloors.com,Jeff Cooper,jeff@riverfloors.com,"Jeff Cooper,,Jeff Cooper",
B & B Flooring,2217 Dryden Rd,Dryden,13053,NY,(607) 844-4901,www.bbfloor.com,Bruce Baker,bruce@bbfloors.com,"Bruce Baker,,Bruce Baker",
Castle Floor Covering,2122 S Dale Mabry Hwy,Tampa,33629,FL,(813) 877-1823,www.castlecarpetone.com,Larry / Joseph Cox,joe@flooringsolutionsflorida.com,"Joseph Cox,Jennifer,Joseph Cox",Jennifer
Wagner's Home Furnishings,916 SW Higgins,Missoula,59803,MT,(406) 728-3214,http://wagnershomefurnishings.com/index.html,Mike Wagner,info@wagnershomefurnishings.com,"Dan Brockway,Dan Brockway,Dan Brockway",infowagnershomefurnishings.com
Coastal Paint & Decorating,63 PORTLAND RD.,Kennebunk,4043,ME,(207) 985-3317,www.coastaldecorating.com,Steve Mahler,steve@coastaldecortaing.com,",Doug Mahler,",
Home Choice,8719 Kingston Pike,Knoxville,37923,TN,(865) 357-7007,www.thehomechoice.net,Spencer Collins,Spencer@thehomechoice.net,"Amanda Armstrong,Jack Simmons,Amanda Armstrong",Jack@thehomechoice.net
Legacy Floor Covering,2471 I-40 West,Amarillo,79109,TX,(806) 331-0094,http://legacyfloorcovering.com/index.htm,Rick Walders,rick.legacy@nts-online.net,"Rick Walders,,Rick Walders",
Rufener Furniture,137 E. Ohio St.,Rittman,44270,OH,(330) 925-9065,http://rufenersfinefurniture.com/,Steve Rufener,steverufener@yahoo.com,"Steve Rufener,,Steve Rufener",
Straus Carpets,2828 Ford Str,Oakland,94601,TN,(510) 428-2828,www.strauscarpets.com,Tom Straus,Tom@strauscarpets.com,",Liz Trujillo,",Liz@strauscarpets.com
Great American Carpet Store,3103 S 3rd St Pl,Terre Haute,47802,TN,(812) 234-7070,,Wayne Gore,floors@ma.rr.com,",Wayne Gore,",floors@ma.rr.com
Deel's Floor Covering,3204 Memorial Blvd,Kingsport,37664,TN,(423) 247-8157,http://deelsfloorcoverings.com/component/content/frontpage,David Caperton,davecapetron@hotmail.com,"David Caperton,,David Caperton",
Kehnes Carpet One,1306 W Patrick St,Frederick,21703,MD,(301) 662-2141,http://www.kehnescarpetonefrederick.com/,,,"Dick Santora,Dick Santora,Dick Santora",dick@kehnes.com
Nantucket Home,603 Broadway,Chico,95928,CA,(530) 895-1038,www.natuckehomeinc.com,Rick & Nan Tofanelli,rick@nantuckethomeinc.com,"Rick Tofanelli,Robing Tofanelli-Cook,",Robing Tofanelli-Cook
Burgess Carpet Center,4123 Forsyth Rd,Macon,31210,GA,(478) 742-3366,N/A,,burgessdesigncenter@gmail.com,"Mickey,Mickey Rivers,Mickey",peter.schultz@gmail.com
UBS Design Center,30 Oak St.,Westerly,2891,RI,(401) 596-2831,www.unitedbuilderssupply.com,,,"Andrew Plasse,Andy Plasse,Andrew Plasse",Andy Plasse
Guido's Soft Step Floor Covering,271 West Boylston Street,West Boylston,1583,MA,(508) 835-2928,www.guidosoftstep.net,Paul caracciolo,,",Paul Caracciolo,",
Angelos Carpet,942 S Woodbourne Rd,Levittown,19057,PA,(215) 547-5576,http://www.angeloscarpetonelevittown.com/,Angelo Palasano,angelo@angeloscarpet.com,"Jim McGowan,Jim McGowan,Jim McGowan",
Carousel Custom Floors,676 E Green St,Pasadena,91101,CA,(626) 795-8085,http://www.carouselfloors.com/,Terry O~Toole,carouselfloors@earthlink.com,"Terry O~Toole,Marv Schoenrock,Terry O~Toole",Marv Schoenrock
Carpet One Valley Flooring,1133 West Cook Street,SANTA MARIA,93454,CA,(805) 925-8718,http://www.carpetonesantamaria.com/about/index.htm,Ron Ferrari,Rferrari29@hotmail.com,"Ron Ferrari,,Ron Ferrari",
Jack Twohig's Floor Covering,600 Fond Du Lac Ave,Fond Du Lac,54935,WI,(920) 921-8940,http://www.jacktwohigcarpetonefonddulac.com,Jack Twohig,,"Jack Twohig,Tom Huettl,Jack Twohig",
Mr Robert Furniture,109 E Main St,Norman,73069,OK,(405) 321-1818,N/A,Steve Calonkey,,"Steve Calonkey,,Steve Calonkey",misterrobert@coxinet.net
Carpet One,1111 W. Washington Center Rd,Fort Wayne,46825,IN,(260) 489-4584,http://www.carpet1fortwayne.com,Steve Lipp,carpetonefw@comcast.net,",,",
The Floor Store,725 E Baseline Road,Gilbert,85233,AZ,(480) 833-4455,http://www.floorstoreaz.com/,Bob Galvin,bob@floorstoreaz.com,"Bob Galvin,Marla Dutton,Bob Galvin",mdutton@floorstoreaz.com
Justice & Company,2462 Pearl Rd.,Medina,44256,OH,(330) 225-6000,http://www.Justiceandcompany.com/,James A. Justice,jjustice@justiceandcompany.net,"James A. Justice,,James A. Justice",
Sedona Window and Flooring Solutions,2550 West Hwy 89a,Sedona,86336,AZ,(928) 282-5496,http://www.sedonawfs.com/,Jared and Tanya Adams,info@sedonawfs.com,",Jared Adams,",info@sedonawfs.com
2ND CENTURY RUG CO.,3594 MAIN STREET,Vancouver,V5V 3N3,BC,(604) 733-4811,http://www.2ndcenturyrug.ca/,,,",,",
Durfee's Carpet Center,29 Bath Rd,Brunswick,4011,ME,(207) 729-0042,http://www.durfeesflooringcenter.com/index.php,Shirley Durfee,,"Andy Hartigan,Andy Hartigan,Andy Hartigan",
Allen Interiors,9849 Manchester Rd,St Louis,63119,MO,(314) 961-4111,www.dabbierifloorsalleninterior.com,Bill Allen,allenshowroom@hotmail.com,"Bill Allen,,Bill Allen",
The Carpet Dealer,425 Main St,Woodland,95695,CA,(530) 666-5825,http://www.monleyscarpetonewoodland.com/,Tom Monley,tmonley@gmail.com,"Tom Monley,Debbie Codd,Tom Monley",Debbie Codd
Bishop-Parker Furniture Co.,3035 E South Blvd,Montgomery,36116,AL,(334) 281-6400,www.bishopparker.net,Charles Parker III,cparker@thelink.net,"Charles Parker III,Charles Parker III,Charles Parker III",cparker@thelink.net
Gentile's Floor Center,1100 Central Ave,Albany,12205,NY,(518) 459-2440,http://www.gentilesfloorcenter.com/,rudy,,"rudy paulson,Rudy,rudy paulson",Rudy
Rainbow Carpet & Rug Inc.,515 E. Gude Drive,Rockville,20850,MD,(301) 762-0011,www.CarpetPalaceUSA.com,Mark Afkhami,Carpetpalace1@hotmail.com,"Mark Afkhami,,Mark Afkhami",
Kings Carpet One,735 Bighorn Ave.,Worland,82401,WY,(307) 347-4225,http://www.kingscarpetoneworland.com/,Mike King,michaelking@rtconnect.net,"Mike King,,Mike King",
Mary Ann`s Interiors,86 Atlantic Avenue,Ocean View,19970,DE,(302) 539-2400,http://maryannsinteriors.hdspd.com/Home/home/sb.cn,Mary Ann,,"Mary Ann,Mary Ann,Mary Ann",Mary Ann
Stokes Floor Covering,4064 Ross Clark Cir NW,Dothan,36304,AL,(334) 794-4148,www.stokesfloorcoveringco.com,Bob & Debbie Rainey,sportmdl@aol.com,"Bob Rainey,Bob Rainey,Bob Rainey",
DC Carpet One Floors & Home,4824 Macarthur Blvd N.W.,Washington,20007,DC,(202) 333-2363,http://www.carpetonedc.com/,,,",,",
Floor Stores Of America,401 Boyd Blvd,La Porte,46350,IN,(219) 326-7011,N/A,Jim Roy,thefloorstore@csi.net.net,",,",
Allen Carpet,40 Nardozzi Place,New Rochelle,10805,NY,(914) 633-9800,http://www.allencarpet.com/,Eddie Shahin & Kenny Banks,eddie@allencarpet.com,",,",
William Fowler,600 Huntington Pike Rear,Rockledge,19046,PA,(215) 379-5976,N/A,William Fowler,fowler@netreach.net,"Wm Fowler,William Fowler,Wm Fowler",
Baker Interiors Inc,229 W Littleton Blvd,Littleton,80120,CO,(303) 794-7900,www.bakerinteriors.com,Debbie Baker,debbie@bakerinteriors.com,",Debbie,",
YANCEYS HOUSE OF CARPET,13408 WICKER AVE,CEDAR LAKE,46303,IN,(219) 374-9427,http://yanceyshouseofcarpet.com/,Rich Yancey,,",Carol Yancey,",
Carpet Gallery - Carpet One,117 Water St (Route 206 N),Newton,7860,NJ,(973) 383-5435,http://www.carpetgallerycarpetonenewton.com/,,,",,",
Jack's Carpet,13885 SW Freeway,Sugarland,77478,TX,(281) 491-1114,http://www.jackscarpet.com/,David Fitzpatrick,David@jackscarpet.com,"Kurt Duitsman,David Fitzpatrick,Kurt Duitsman",David@jackscarpet.com
JB Factory Carpets of Tampa Inc,1251 E Fowler Ave,Tampa,33612,FL,(813) 549-1988,www.jbfactorycarpet.com & www.rugsrus.biz,Bill Boukalis,,",Steve Boukalis,",Steve Boukalis
Kelletts Floors & Interiors Inc,660 W Main St,Rock Hill,29730,SC,(803) 324-7696,www.kellettsfloors.com/,Howard Kellett,howkellett@rhtc.net,"HOWARD KELLETT,Howard Kellett,HOWARD KELLETT",howkellett@rhtc.net
Newport Carpet One Floor & Home,350 E. Olive,Newport,97365,OR,(541) 265-3530,www.carpetonenewport.com,Jeff Norman & Rick Keller,jnorman@112.com,"Jeff Norman,,Jeff Norman",
Workman Floorcovering,5221 S. Commerce Dr.,Murray,84107,UT,(801) 293-9130,http://workmanflooring.com/,Tony Workman,workmanfc@msn.com,"Tony Workman,,Tony Workman",
Broadway Carpet,1285 2ND AVE,NEW YORK,10021,NY,(212) 472-6900,http://www.broadwaycarpet.com/,Sara Koenig,"sara@broadwaycarpet,com",",Sara Koenig,",
Staggs Carpets and Interiors,903 Varsity Dr,Tupelo,38802,MS,(601) 842-1292,http://www.staggsinteriors.com/,,info@staggsinteriors.com,",,",
Beckmanns Furniture,151 West Second Street,Delphos,45833,OH,(419) 692-8756,N/A,Joan Beckmann Patthoff,beckmanns@embarqmail.com,"Joan Beckmann,Joan Beckmann Patthoff,Joan Beckmann",beckmanns@embarqmail.com
Carpetland,905 N. Main Street,Opelousas,70570,LA,(337) 948-8273,N/A,Paul Manuel,PMan905@yahoo.com,"Paul Manuel,,Paul Manuel",
Carolina Carpets,5421 Richmond Rd,Williamsburg,23188,VA,(757) 565-3006,http://www.carolina-furniture.com,Joe Steele,joe@carolina-furniture.com,"Geoffrey Reid,Geoffrey Reid,Geoffrey Reid",Geoffrey Reid
Edstrom's,3515 23rd Ave,Moline,61265,IL,(309) 764-7429,www.edstromscarpets.com,Le Ann Holden,edstroms@sbcglobal.net,"Le Ann Holden,Le Ann Holden,Le Ann Holden",edstroms@sbcglobal.net
Seminole Carpet,149 Zan Rd,Charlottesville,22901,VA,(804) 974-7449,http://www.seminolecarpetandfloors.com/,Ken Buynak,seminolecarpet@aol.com,"Ken Buynak,Same,Ken Buynak",Same
MAZZULLO & SONS CPT ONE & FURN,100 LENOX AVENUE,ONEIDA,13421,NY,(315) 363-2390,http://www.mazzulloandsonscarpetoneoneida.com/,john&mike mazzullo,carpetone23@yahoo.com,"john mazzullo,,john mazzullo",
Furniture Galleries Carpet One,465 Pittsburgh Rd,Butler,16002,PA,(724) 586-9350,www.furnitureandfloors.com,Jody Offstein,jboffstein@furnitureandfloors.com,"Carl Wilkinson,Carl Wilkinson,Carl Wilkinson",Carl Wilkinson
Bonomo`s Decorators,76-78 N Wyoming St,Hazelton,18201,PA,(717) 455-4401,http://bonomoscarpetandfloor.com/,Nick Bonomo,bonoz@ptd.net,"Nick Bonomo,,Nick Bonomo",
Flooring CA,125 Cross Ave UnitC5,Oakville,L6J2W7,ON,(905) 849-4472,www.flooringca.com,Paul Kircos,customercare@flooringca.com,",Louie Kircos,",louiek19@hotmail.com
"Capitol Carpet & Furniture, Inc.",1905 14th Street N.W.,Washington,20009,WA,(202) 234-8882,www.capitolcarpetinc.com,Kacey Kavoos-Rad,kavoosrad@aol.com,"Kacey Kavoos-Rad,Kevin Kaveh-Rad,Kacey Kavoos-Rad",Kevin Kaveh-Rad
Finstad's Carpet One,501 Fuller Ave.,Helena,59601,MT,(406) 442-5501,http://www.finstadscarpetonehelena.com/,Doug Hogan,finstads@in-tch.com,"Doug Hogan,Doug Hogan,Doug Hogan",finstads@in-tch.com
Unclaimed Freight/Carpet One,1355 N. Green River Road,Evansville,47715,IN,(812) 464-9393,http://www.carpetoneevansville.com,Chad Gilham,,",,",
Frank Patton Interiors Inc.,13133 Manchester Rd.,St. Louis,63131,MO,(314) 965-4240,www.frankpattoninteriors.com,,,"Andy LaPlante,Andy LaPlante,Andy LaPlante",designstaff@frankpatton.com
Colautti Bros.,2779 Howard Ave.,Windsor,N8X 3X7,ON,(519) 966-6111,http://www.colautti.com/,,,",,",
Classic Galleries,243 MAIN STREET,HUNTINGTON,11743,NY,(631) 427-1045,http://www.classicgalleriesfurniture.com,Alan Fromkin,,",Janet,",
Riteway Carpet and Tile,489 South Camino Del Rio,Durango,81303,CO,(970) 259-5360,www.ritewayflooringamerica.com,Alan Shupe,gshupe@hotmail.com,",Genie Shupe,",gshupe@hotmail.com
Custom Flooring & Acoustics Inc,315 S Neil St,Champaign,61820,IL,(217) 356-8742,www.custom-flooring.net,Terry & Janice Gharst,,"Leah Seten,Leah Seten,Leah Seten",customflrng@yahoo.com
American Custom Rug,3324 Griffen Road,Dania,33312,FL,(954) 961-0300,http://acrug.com/,Chris Yearwood,acrug@bellsouth.net,"Chris Yearwood,,Chris Yearwood",
Paint & Paper,270 Berry Hill Rd,Orange,22960,VA,(540) 672-4663,N/A,Bob Langerford,paintandpaper@verizon.net,"Bob Langford,bob langford,Bob Langford",paintandpaper@verizon.net
Thad's Carpet One,214 N Spence Ave,Goldsboro,27534,NC,(919) 759-0033,www.thadscarpetone.com,Greg Johnson,gjohnson@thadscarpetone.com,"Greg Johnson,,Greg Johnson",
Cleveland Floor Covering/Abbey 341,1336 E Dixon Blvd,Shelby,28152,NC,(704) 482-6351,http://www.clevelandfloorcovering.com/,Kenneth Whitaker,clevelandflrcvrg@aol.com,",Kenneth Whitaker,",clevelandflrcvrg@aol.com
McDonald Carpet One Floor & Home,6367 E. Arapahoe,Boulder,80301,CO,(303) 449-0011,www.mcdonaldcarpetoneboulder.com,Bob McDonald,bobm@carpetvan.net,"Bob McDonald,Bob McDonald,Bob McDonald",bobm@carpetvan.net
Design Gallery,3820 S Yellowstone,Idaho Falls,83402,ID,(208) 523-5688,http://www.designgalleryidaho.com/,,,"Merrill Huntsman,Merrill Huntsman,Merrill Huntsman",merrill_huntsman@hotmail.com
K & N CARPET,12108 US 27 SOUTH,FORT WAYNE,46816,IN,(260) 639-3591,http://www.kncarpet.com/,,,",,",
Olde Salem Furnishings,12 Union St,Salem,24153,VA,(540) 387-0946,http://snog.com/live?utm_campaign=invite&utm_source=domains&utm_medium=intl,Joel Spencer,oldesalem@comcast.net,",same,",same
Flooring by Cogdill,1700 Huger St.,Columbia,29201,SC,(800) 927-7461,http://cogdills.com/Ads/karastan.htm,Garry Cogdill,gcogdill@cogdills.com,"Garry Cogdill,Lloyd Cogdill,Garry Cogdill",lcogdill@cogdills.com
Glendale Carpet One,1203 S. Central Ave.,Glendale,91204,CA,(818) 243-4251,www.c1glendale.com,Bruce Bell,Bruce@c1glendale.com,"Bruce Bell,,Bruce Bell",
Floor Right Interiors,2915 - 32 Street South,Lethbridge,T1K 7B1,AB,(403) 329-1780,www.floorright.ca,,,",,",
Jay Carpet One,314 s Main St,Athens,18810,PA,(717) 888-6211,www.jaycarpetoneathens.com/,david rosenblum,,"david rosenblum,,david rosenblum",
Phillips Floor to Ceilings,1052 E Grand Avenue F,Arroyo Grande,93420,CA,(805) 489-5571,http://www.phillipsftc.com/,Bob Buhl,bbuhl@phillipsftc.com,"Bob Buhl,,Bob Buhl",
Rakes Carpet One,6559 N. Ridge Rd.,Madison,44057,WI,(440) 428-7675,http://www.rakescarpetonemadison.com/,Ron Rakes,rakestwo@yahoo.com,"Ron Rakes,,Ron Rakes",
Flooring America,13150 Midlothian Tpke,Midlothian,23113,VA,(804) 794-7449,www.flooringamericarichmond.com/,Steve Montross,steven@farichmond.com,"Steve Montross,same,Steve Montross",
Holloway Floor Covering,831 S Kings Highway,Cape Girardeau,63701,MO,(573) 334-0551,www.hollowaycarpetonecapegirardeau.com,Eugene Holloway,holloway-1@charter.net,"Eugene Holloway,Lance Holloway,Eugene Holloway",lholloway1@hotmail.com
Howard Lorton Galleries,12 East 12th Ave,Denver,80203,CO,(303) 831-1212,http://howardlorton.com/,William Cook,,"Terri Baldwin,Rob Osgard,",
Hometown Flooring,3002 Seymour Rd,Wichita Falls,76309,TX,(940) 766-2627,www.hometownflooringwf.com,Bruce McAffe,hometownflooring@xanadoo.com,"Bruce McAffe,,Bruce McAffe",
Cherry Carpet,2915 London Blvd,Portsmouth,23707,VA,(757) 397-5811,http://cherrycarpet.com/,Brad Cherry,brad@cherrycarpet.com,"Mo Zia,Mo Zia,Perry Harrell",Mo Zia
Carpet Express,2607 Madison St,Clarksville,37043,TN,(931) 358-6441,http://www.facebook.com/pages/Carpet-Express-Inc/170796959650702?sk=info,Barbarah Scruggs,cs.acct@bellsouth.net,"Barbarah Scruggs,Herb Scruggs,",
The King Of Carpets - Carpet One,353 Rt 46,Rockaway,7866,NY,(973) /62-3800,www.carpetonerockaway.com,Rich Pinto,rpinto@aol.com,"Richard Pinto,Rich Pinto,Greg Anderson",
Selden's Fine Home Furnishings,220 Legion Way S.E.,Olympia,98501,WA,(360) 357-5531,www.seldensofolympia.com,George Koehler,,"Tim Koehler,Tim Koehler,",Tim Koehler
Gerridy's LTD,2915 Redhill Ave Suite F105,Costa Mesa,92626,CA,(714) 540-7273,http://dabbierifloorsgerridyslimited.com/Showroom.aspx,Judy Gerritson,gerridysltd@aol.com,"Judy Gerritson,John Morton Thomas,Judy Gerritson",
FLOORWORKS,3001 RED HILL AVE STE 2-104,COSTA MESA,92626,CA,(714) 540-6383,http://www.floorworks.net/,Jim Anderson,floorworks@sbcglobal.net,"Jim Anderson,,Jim Anderson",
Neff`s Custom Designs,1285 1st St S,Hamilton,59840,MT,(406) 363-7093,,Jim Neff,Eneff@cybernet1.com,"Elizabeth Neff,Elizabeth Neff,Elizabeth Neff",Eneff@cybernet1.com
Larry Gordon Installations,2133 Royal Windsor Dr. Unit #20,Mississauga,l5j1k5,ON,(905) 822-7760,www.larrygordoncarpets.com,larry gordon,lgcarpet@gmail.com,",,",
Rogers City Home Furnishings,183 S Third St,Rogers City,49779,MI,(989) 734-4771,www.rchf.com,Larry Buski,sales@rehf.com,"Larry Buski,Larry Buski,Larry Buski",
Thad's Carpet One,416 Cedar Point Blvd,Swansboro,28584,NC,(252) 393-6171,www.thadscarpetone.com,,,"Thad Lewis,,Thad Lewis",
W Vartanian & Son,10920 Bayshore Dr Rte 42,Sister Bay,54234,WI,(920) 854-2519,http://rugpeddler.com/,Wally Vartanian,rugpeddler@aol.com,"Wally Vartanian,,Wally Vartanian",
Dickens Floor Covering,187 Moore Drive,Lexington,40503,KY,(859) 277-1956,N/A,,,",,",
PROFESSIONAL FLOORS INC,500 SAND DUNE DR,KITTY HAWK,27949,NC,(252) 255-2882,http://professionalfloorsobx.com,Toni Lanning,,"Toni Lanning,Same,Toni Lanning",
Aesthetics Inc,525 Hwy 123,Seneca,29678,SC,(864) 882-2090,http://www.aesthetics.net/,Donna Fields,donnafields@nctv.com,"Donna Wyatt,Donna Fields,Donna Wyatt",donnafields@nctv.com
Alpha Rug Expo,4820 Atlanta Hwy,Alpharetta,30004,GA,(770) 753-9878,http://www.alpharug.com/,Gary Shurley,alpharugexpo@gmail.com,"Debbie,,Debbie Shirley",
Honquest Furniture for Living,1455 S Barrington Rd,Barrington,60010,VT,(847) 382-1700,www.honquest.com,Richard Honquest,,"Janet Sweno,Janet Sweno,Janet Sweno",JSweno@Honquest.com
Pearlmans Carpet One,80 Charlotte St,Asheville,28801,NC,(828) 252-1594,www.pearlmanscarpet.com,Ed Isreal,edisreal@pearlmanscarpet.com,"Ed Isreal,Ed Isreal,Ed Isreal",edisreal@pearlmanscarpet.com
Korkmaz Rugs & Flooring,10 State Rt 17,Rutherford,7070,NJ,(201) 372-0090,www.korkmaz.com,Deniz & Frank Korkmaz,deniz@korkmaz.com,"Denis,Gayle Elliot,Denis",customerservice@korkmaz.com
Rocky Mountain Carpet One,1540 East Second Street,Casper,82601,WY,(307) 265-7296,http://www.rockymountaincarpetonecasper.com/,Jack Simms,rmcpt1@bresnet.net,"Tomie Simms,Tomie Simms,Tomie Simms",rmcpt1@bresnet.net
Georges Carpet & Supplies Inc.,216 West 2nd Street,Roswell,88201,NM,(505) 624-0901,http://www.georgescarpetandtile.com/,JoAnn Harva,harva@dfn.com,"Harva Joanne Joseph,,Harva Joanne Joseph",
Dodgson Interiors,14 Palmetto Business Park,Hilton Head Island,29928,SC,(843) 842-9854,www.dodgsonflooring.com,Dennis Dodgson,dodgsoninteriors@hargray.com,"Dennis Dodgson,Dennis Dodgson,Dennis Dodgson",dodgsoninteriors@hargray.com
Ozark Floors,928 N. College,Fayetteville,72701,AR,(479) 442-4451,http://www.ozarkfloors.com,Mike Mooney,mmooney@ozarkfloors.com,",Mike Mooney,",mmooney@ozarkfloors.com
Sherwood Furniture,120 Arnett Blvd,Danville,24540,VA,(434) 792-2414,www.sherwoodhousefurniture.com,George Perry,,",,",
Frederick Street Carpet,407 frederick St,Cumberland,21502,MD,(301) 777-7888,http://www.frederickstreetcarpet.com/,sherry buck,frederickst@verizon.net,"sherry,sherry buck,sherry",sherry buck
"Cenni & Ambrose Tile & Carpet, Inc.",2770 Sheridan Rd,Zion,60099,IL,(847) 872-5300,www.cenniambrose.com,Jim Ambrose,jambrose@wi.rr.com,"Jim Ambrose,Tina,Jim Ambrose",Tina
PAULSON & CO,100 PARK AVE,SWARTHMORE,19081,PA,(610) 543-6000,www.paulson-rugs.com,Wlliam Ryba,wmryba@comcast.com,"Willima Ryba,William Ryba,Willima Ryba",wmryba@comcast.com
The Flooring Center,3170 E Sunset Road Suite H,Las Vegas,89120,NV,(702) 456-7575,www.flooringcenternv.com,Glen Wolf,,"Glen Wolf,John Lefebvre,Glen Wolf",John Lefebvre
Columbia River Carpet One,105 B Street West,Rainier,97048,OR,(503) 556-0171,http://www.carpetone.com/,Scott Nelson,snelson@columbiarivercarpetone.com,",,",
Towles House of Carpets,247 Cox Creek Pkwy,Florence,35630,AL,(205) 766-1705,,Elaine Augustine,towleshouseofcar@bellsouth.net,"Elaine Augustine,,Elaine Augustine",
Young's Furniture,130 Western Avenue,South Portland,4104,ME,(207) 775-3747,youngsfurniture.com,Stephen and Jonathan Young,,"Bob Grant,Bob Grant,Bob Grant",bgrant@youngsfurniture.com
Benson & Babb Interiors Inc,145 Brookside Camp Rd,Hendersonville,28792,NC,(704) 693-4909,bnsnbabb@bellsouth.net,Ashley Smith,asmith@bellsouth.net,",Ashley Smith,",asmith@bellsouth.net
Choice Home Center Inc,8005 S Maryland Blvd,Owings,20736,MD,(301) 855-6626,www.choicefloorcenter.com,Glen Walker,gwalker@choicefloorcenter.com,"Dave Shepherd,Dave Shepherd,Dave Shepherd",Dave Shepherd
Charlotte`s Furniture & Flooring,5411 North Mesa,El Paso,79912,TX,(915) 581-1111,www.charlottesflooring.com,Melissa,,"Anthony Garcia,Anthony Garcia,Anthony Garcia",anthony@charlottesfurniture.com
Connell Carpet One,2005 Veterans Blvd,Dublin,31021,GA,(478) 272-9886,http://twitter.com/GranttyGo,David Connnell,ccarpet1@bellsouth.net,"David,,David",
Graffis Furniture,5517 US 31 South,South Bend,46614,IN,(574) 291-1660,www.graffisfurniture.com,tom Vanderheyden,,",John Vanderheyden,",johnvanderheyden@graffisfurniture.com
Wilson,14 South Street,Morristown,7960,NJ,(973) 539-2440,www.wilsonsinteriors.com,Steven Mone,sament@aol.com,"Steven Mone,Jane Mone,Steven Mone",sament@aol.com
Tahoe Specialty Carpets & Design Center,1325 N. Lake Blvd,TAHOE CITY,96145,CA,(530) 583-4913,tahoespecialtycarpets.com,Corrine Serano,tahoe888@aol.com,"Corrine Serrano,Corrine Serano,",
Factory Tile,211 Dixieway North,South Bend,46637,IN,(574) 272-7000,N/A,Dick Lindzy,,"Judy Lindzy,Rod Lindzy,Judy Lindzy",tileboyrod@aol.com
Regency Royale,331 S Rio Grande,Salt Lake City,84101,UT,(801) 575-6525,regencyroyale.com,Kathy Emery,,"Kathy Emery,Mark Emery,Kathy Emery",emerymw@regencyroyale.com
Tile Works & More,393 S Creek Dr,Manteno,60950,IL,(815) 468-8789,www.tileworks.com,Randy Blanchette,randyblanchette@hotmail.com,"Randy Blanchett,,Randy Blanchett",
Harrington's,1432 Harrison Ave,Butte,59701,MT,(406) 723-6066,N/A,Gary & Meg Harrington,harringtonsfloor@qwestoffice.net,"Meg Harrington,,Meg Harrington",
PJ's Decorative Fabrics,511 W Broad Ave,Albany,31701,NY,(912) 439-7265,pjsfabrics.com/,Mitch Mercer,mitchell_mercer@bellsouth.net,"Mitch Mercer,,Mitch Mercer",pjsfabrics@gmail.com
Poppell Brothers,9133 White Bluff Rd,Savannah,31406,Georgia,(912) 925-1886,www.poppellbrothers.com,David Poppell,davidpoppell@poppellbrothers.com,"David,David Poppell,David",davidpoppell@poppellbrothers.com
The Rug Merchant,1019 Lincoln Avenue,Evansville,47714,IN,(812) 423-2338,http://therugmerchant.com/,Terry Lewis,,"Terry Lewis,none,Terry Lewis",none
Churchs Carpet,310 1st Street AVE SE,Hickory,28602,NC,(828) 327-0404,http://churchscarpet.com/?7fed7228,Steve Church,pam.cci@embarqmail.com,"Steve Church,Steve Church,Steve Church",pam.cci@embarqmail.com
George Kashou Co Inc,2169 N Farwell Ave,Milwaukee,53202,WI,(414) 271-9020,http://www.kashoucarpets.com/,Bob Kashou,robert@kashoucarpets.com,"Bob Kashou,Bob Kashou,Bob Kashou",Bob Kashou
IMPERIAL CARPET & HOME,1177 CALEDONIA ROAD,TORONTO,M6A2X1,ON,(416) 783-8838,,,,",,",
Floor Dimensions,1081 Eastshore Hwy,Albany,94710,CA,(510) 525-5656,www.Floordimensions.com,Janka White,Marketing@Floordimensions.com,"Janka White,,Janka White",
LENAWEE CARPET ONE FLOOR & HOME,1301 S Main St,Adrian,49221,MI,(517) 424-5499,carpetone.com/lenawee,Lyn Marks,lyn8668@hotmail.com,"Lyn Marks,Lyn Marks,Lyn Marks",
Palmetto Flooring,610 Beltline Blvd.,Columbia,29205,SC,(803) 787-6780,N/A,Dean Hutto,palmettocarpet@bellsouth.net,"Dean Hutto,Dean Hutto,Dean Hutto",palmettocarpet@bellsouth.net
Carpet One of Fayetteville,4101 Raeford Road,Fayetteville,28304,NC,(910) 433-2901,http://www.carpetonefayetteville.com,Harold Brewington,,",Doug Jordan,",Doug Jordan
JACKS TILE CITY INC,209 WASHINGTON AVE,HUNTINGTON,25701,WV,(304) 523-0111,http://jackstilecity.net/,,,",,",
Fairchild Floors,1404 E. Front Street,Port Angeles,98362,WA,(360) 457-1411,http://www.fairchildfloors.com/,Dave Fairchild,ffloors@olypen.com,"Dave Fairchild,same as owner,Dave Fairchild",same as owner
Brent's Carpet One,24220 Lyons Ave,Newhall,91321,CA,(661) 255-3337,http://www.brentscarpetonenewhall.com/,Brent Griffiths,,",Ben Griffiths,",ben@brentscarpetone.com
Thomas Carpet One,15471 Wells Hwy.,Seneca,29678,SC,(864) 882-3583,http://www.thomascarpetoneseneca.com,Michael Thomas,carpet@trivergent.net,"Michael Thomas,Chris Lee,Michael Thomas",chrislee210@hotmail.com
McLean Floor Coverings,4391 W US Hwy 421,Wilkesboro,28697,NC,(336) 973-8888,N/A,Kathy McLean,mcleanfloorcoverings@yahoo.com,",Kathy McLean,",mcleanfloorcoverings@yahoo.com
Scotties Interiors,204 N Second Ave,Wausau,54401,WI,(715) 845-1325,www.scottiesinteriors.com,KathyMarks/Lecia Marks1,scottiesinteriors@frontier.com,"Kathy Marks,,Kathy Marks",
Central Alberta Flooring,#9 - 7667 50th Avenue,Red Deer,T4P 1M6,AB,(403) 342-5010,www.centralabflooring.com,,,",,",
Grindstaff's,1007 W Main St,Forest City,28043,OH,(704) 245-4263,www.grindstaffs.com,Boyce Grindstaff,grindstaffs@grindstaff.com,"Boyce Grindstaff,Boyce Grindstaff,Boyce Grindstaff",grindstaffs@grindstaff.com
Christophers Home Fashion,3321 Main Street Suite C-1,Manchester,21102,MD,(410) 374-2128,www.chrishomefashion.com,Chris Holnowski,chrishomefashion@aol.com,",,",
Workspace Design,682 S. 700 E.,Salt Lake City,84102,UT,(801) 466-9244,,Cynthia,,"John,John,John",John
DAVID LOUIS FLOOR COV CORP,867 ALBANY ST,SCHENECTADY,12307,NY,(518) 370-0243,http://davidlouisfloorcovering.com/,Lou Restifo,,",Lou Restifo,",
ALFORDS HOUSE OF CPTS,1020 LEXINGTON AVE,FORT SMITH,72901,AR,(479) 782-8616,,Liz Alford,liz@alfordscarpetone.com,"Liz Alford,Liz Alford,Liz Alford",liz@alfordscarpetone.com
A & A Carpet One,6800 Folsom Blvd. #100,Sacramento,95819,CA,(916) 451-6300,http://www.aandacarpetonesacramento.com/,Tony Gonzales,sales@aacarpetone.com,"Rick Bertelli,Rick Bertelli,Rick Bertelli",sales@aacarpetone.com
EASTMAN CARPETS INC,4044 ARENDELL STREET,MOREHEAD CITY,28557,NC,(252) 726-2737,http://www.eastmancarpet.com/,Frank Eastman,,"Frank Eastman,,Frank Eastman",
Lester's Carpet & Interiors,401 N E St,Lompoc,93436,CA,(805) 736-2345,,Murray Lester,Lesterscarpets@verizon.com,"Murray Lester,,Murray Lester",
M T DEARING CPT CO INC,7200 HIGHWAY 60,SELLERSBURG,47172,KY,(812) 246-5773,,Gerry Elkin,,",Gerry Elkin,",
Clark Dunbar Carpet & Rugs,3232 Empire Dr,Alexandria,71301,LA,(318) 445-0262,http://clarkdunbarsuperstore.com/,"MIKE JACKSON, TJ ANDERSON",,",,",
Coverings by Design,1301 W 5th st,Washington,27889,NC,(252) 946-9301,www.coveringsbydesign.com,,,"Molly Emanual,,Molly Emanual",
Hardwood Unlimited,6909 Burlington Road,Whitsett,27377,NC,(336) 449-4222,http://www.hardwoodsunlimitedinc.com/,Arthur Crismon,,"Arthur Crismon,,Arthur Crismon",
Highland Furniture Shop,1132 US Highway 258 North,Kinston,28503,NC,(252) 522-3541,www.highlandfurnitureshop.com,,,",,",
Marshall Rug Gallery,1451 SOM Center Rd.,Mayfield Heights,44124,OH,(440) 449-0033,http://www.marshallcarpet.com/,Steve Glassman,steve@rugs4less.com,"Steve Glassman,,Steve Glassman",
BiCity Decor,107 North 9th St,Opelika,36803,AL,(337) 493-3374,N/A,Randy Lambert,randy@bicitydecor.net,"Randy Lambert,,Randy Lambert",
Oriental Rug Gallery of Texas,12801 Hill Country Blvd,Bee Cave,78738,TX,(512) 343-9900,www.orgtx.com,Tom Munroe,tmunroe@orgtx.com,"Scott,Brian Reavis,Tom Munroe",
Flooring Systems,6640 Phelan,Beaumont,77706,TX,(409) 347-8516,Flooringsys.com,Camille Willson,CamilleW@flooringsys.com,"Camille Willson,Shala Teimann,",ShalaT@flooringsys.com
Rug and Home,"799 Brevard Road, Ste. B",Asheville,28806,NC,(828) 667-4585,www.rugandhome.com,Rakesh Agarwal,dara83@aol.com,"Dolly Agerwall,Dolly Agarwall,Dolly Agerwall",dollya83@aol.com
Rug Decor of Myrtle Beach,3319 Reed Street,Myrtle Beach,29577,SC,(843) 692-7784,www.rug-decor.com,Marty Elkes Jr.,,",Katherine Elkes,",
Rugs As Art Inc,6650 South Tamiami Trail,Sarasota,34231,FL,(941) 921-1900,www.rugsasart.com,John Murse,John@rugsaasart.com,"John Murse,John Murse,John Murse",John@rugsasart.com
North Georgia Floors & Interiors,470 Monroe Street,Clarkesville,30523,GA,(706) 754-4329,N/A,,teresangf@windstream.net,"Teresa,,Teresa",
Sprintz Furniture Showroom,325 White Bridge Rd,Nashville,37209,TN,(615) 352-5912,http://www.sprintz.com/sprintz_site/index.php,,mkurdi@sprintz.com,",,Majdi Al-Kurdi",
Ajami Floorings & Granite Inc.,7860 NW 58th Street,Miami,33166,FL,(305) 592-7272,www.ajamifg.com,Raffoul Ajami,raffoul@ajamifg.com,",Raz Ajami,",Raz@ajamifg.com
The Floor Broker,633 N. E. Stephens Street,Roseburg,97470,OR,(541) 673-8507,http://www.thefloorbrokers.com,Mark Luttrell,,",,",
Corvins Floorcovering,6727 N Dixie Hwy,Elizabethtown,42701,KY,(270) 737-5798,N/A,Joni McPeak,,",Joni McPeak,",
Affordable Floors,1 Dilfonso Rd,Newburgh,12550,NY,(845) 565-3666,http://www.affordable-floors.com/,Dennis Mehedy and Bill Kranec,dennis16k@juno.com,"Mark,Marc Horowitz,Mark",mhorowitz@affordable-floors.com
Atlas Flooring,1211 W Warm Springs Road,Henderson,89014,NV,(702) 888-4444,N/A,Kevin Moradi,,",KaVon,",KaVon
Exploring Flooring,2S.676 Rt. 59 Hwy,Warrenville,60555,IL,(630) 393-2020,www.exploringflooring.com,Tony & Rob,rob@exploringflooring.com,"Tony,John,Tony",john@exploringflooring.com
Benson's Floor Covering & Decorating,544 SW FOURTH ST,Corvallis,97330,OR,(541) 757-8553,www.bensonsinteriors.com,,,"Teri Wilkinson,Teri Wilkinson,Teri Wilkinson",teriw@bensonsinteriors.com
Carpet One of Riverhead,132 Kroener Ave.,Riverhead,11901,NY,(631) 369-3670,www.carpetone.com,Gary,,",Ralph,",
Floors & More,600 Bay St.,Eustis,32726,FL,(352) 483-0606,,Skip Smith,floorsandmail@yahoo.com,",Cindy Smith,",floorsandmail@yahoo.com
Century Flooring,7295 NW 41st Street,Miami,33166,FL,(305) 594-9922,www.centruyflooring.us,Raul Mardoza,,"Angel,Angel Llerna,Angel",angel@centuryflooring.us
Bells of Whitehall,116 E Colby St,Whitehall,49461,MI,(231) 893-8555,www.bellsofwhitehall.com,,,",Dennis Stira,",bellswhitehall@aol.com
Toms Price Home Furnishings,374 Old Orchard Road,Skokie,60077,IL,(847) 675-9400,www.tomsprice.com,,,"Barbara Parker,Debbie Smith,Barbara Parker",debbie@orgltp.com