name,address,city,state,postal,phone,websites
COLES,71685 HIGHWAY #111,RANCHO MIRAGE,CA,92270,(760) 346-0523,www.coles.com.au/
SUNSET FLOOR COVERING INC,3500 EAST COAST HWY,CORONA DEL MAR,CA,92625-2402,(949) 675-1636,not found
"STYLER'S FLOOR COVERING, INC.",130 WEST GRAND AVENUE,EL SEGUNDO,CA,90245,(310) 322-7254,NOT FOUND
EDDIE EGAN & ASSOCIATES,1011 W. TAFT AVE.,ORANGE,CA,92865,(714) 279-6799,http://www.eddieegan.com/
DESIGN SPEC INC,129 FIRST STREET,LOS ALTOS,CA,94022,(650) 917-8910,http://www.designspecialistsinc.com/
PLAZA CARPET COMPANY,9563 W PICO BLVD,LOS ANGELES,CA,90035,(310) 553-0971,NOT FOUND
DECORATIVE CARPETS INC,8256 MELROSE AVE.,LOS ANGELES,CA,90046,(323) 653-5555,http://decorativecarpets.com/
CYMRU TRADING INC,4617 CRENSHAW BLVD,LOS ANGELES,CA,90043,(323) 295-7731,www.crenshawcarpet.com
APRAMIAN CARPETS,101 KALMUS DRIVE,COSTA MESA,CA,92626,(714) 434-8440,http://www.hartsrugs.com
COLES OF LA JOLLA,1000 WEST GRAND AVENUE,OAKLAND,CA,94607,(510) 652-1032,not found
"STERLING INTERIORS, INC.",2532 E. COLORADO BLVD,PASADENA,CA,91107,(626) 793-4477,www.sterlinginteriors.net
CREATIVE TOUCH INTERIORS,1170 WEST MORENA BLVD,SAN DIEGO,CA,92110,(619) 276-5140,www.creativetouchinteriors.co.uk
B L & L CORPORATION,17472 VENTURA BLVD,ENCINO,CA,91316,(818) 995-6566,Not found
DRAPERY WORLD,874 VIA DE LAPAZ,PACIFIC PALISADES,CA,90272,(310) 454-0697,Not found
THE CARPET DEALER,1985 SAN RAMON VALLEY BLV,SAN RAMON,CA,94583,(925) 837-3716,www.carpetoneofsanramon.com
CARPET VAN INC,14736 OXNARD STREET,VAN NUYS,CA,91411,(818) 988-9366,http://www.vanscarpets.com/
E M W FURNITURE CO INC,423 MAIN ST,WOODLAND,CA,95695,(530) 666-5825,no website found
CARPET SHOPPE OF DARIEN INC,6367 E ARAPAHOE,BOULDER,CO,80303,(303) 449-0011,Not found
SULLIVAN & SON CARPET INC,2141 S BROADWAY,DENVER,CO,80210,(303) 744-2754,www.sullivanandsoncarpet.com/
DORELLO CARPETS & AREA RU,39 TOKENEKE RD,DARIEN,CT,6820,(203) 655-2521,Not found
CARPETLAND OF NEW ENGLAND,92 SANFORD STREET,HAMDEN,CT,6514,(203) 281-3022,http://www.carpetlandct.com/
FLOOR COVERING WAREHOUSE,594 MAIN AVENUE,NORWALK,CT,6851,(203) 847-0335,www.floorcoveringwarehouse.org
CARPET CITY INC,176 WEST MAIN,AVON,CT,6001,(860) 677-7072,NOT FOUND
COLONIAL BRANDYWINE RUG CO.,112 ORCHARD STREET,STAMFORD,CT,6902,(203) 323-3113,www.floorcoveringwarehouse.org
PALA TILE & CARPET CONTRACTORS,1555 BLACK ROCK TURNPIKE,FAIRFIELD,CT,6824,(203) 331-8771,http://www.ultratile.com
"SMITH CHARLES ASSOCIATES, INC.",2107 CONCORD PK.,WILMINGTON,DE,19803,(302) 656-5496,Not found
BARNARDS CARPET,600 S COLONIAL AVE,ELSMERE,DE,19805,(302) 652-4500,Not found
BAER'S FURNITURE CO INC,950 S W 17TH AVENUE,DELRAY BEACH,FL,33444,(561) 278-3600,http://baers.com/
HESSLERS INC,1589  N.W. 12TH AVE.,POMPANO BEACH,FL,33069,(954) 927-0237,not found
ALBERT HUGO ASSOCIATES IN,1788 FOWLER,FORT MYERS,FL,33901,(239) 334-1537,www.hesslerfloors.com
PAUL'S CPT CO INC,P.O. BOX 60479,FT MYERS,FL,33906,(239) 437-7997,www.stpaullinocpt.com
"CARPET SOURCE, INC.",3139 PHILLIPS HWY,JACKSONVILLE,FL,32207,(904) 396-2233,Not found
"CARPET CREATIONS/TEXTILE, INC.",31 N.W. 23RD ST,MIAMI,FL,33127,(305) 573-8337,not found
THE CARPET BOUTIQUE,151 NORTHEAST 40TH STREET,MIAMI,FL,33137,(305) 576-5900,www.thecarpetboutique.com/
RICK ANDREW DESIGN LLC,3663 N FEDERAL HWY,POMPANO BEACH,FL,33064,(954) 943-7487,www.design-a-rug.com
SPECTRA CONTRACT FLOORING #216,4475 S.E. COMMERCE AVE,STUART,FL,34997,(772) 286-0221,www.spectracf.com
FLOOR FASHIONS,799 N MILITARY TRAIL,WEST PALM BEACH,FL,33415,(561) 689-0662,Not found
TRANS ATLANTA INDUSTRIES,990 S. ROGERS CIRCLE,BOCA RATON,FL,33487,(561) 997-2101,Not found
CULVER RUG CO INC,P O BOX 1613,COLUMBUS,GA,31902,(706) 322-7343,http://www.culverrug.com/
CUSTOM FLRNG & ACCOUSTICS,P O BOX 1412,DALTON,GA,30720,(706) 277-3132,Not found
CARPETCRAFTERS INC,P O BOX 3707,SAVANNAH,GA,31404,(912) 236-7173,Not found
EXPOSITION CARPET CO,315 SOUTH NEIL STREET,CHAMPAIGN,IL,61820,(217) 356-8742,http://www.custom-flooring.net/
HOME CARPET & LINOLEUM CENTER,5160 W 127TH STREET,ALSIP,IL,60803,(708) 371-8900,Not found
DE SITTER CARPETS INC,5718 N BROADWAY,CHICAGO,IL,60660,(773) 784-5600,www.desitterflooring.com
WATSON SMITH CO,3071-75 N LINCOLN AVE,CHICAGO,IL,60657,(773) 528-3350,NOT FOUND
APELIAN CARPETS AND,1 TIMBER COURT STE 100,BOLINGBROOK,IL,60440,(630) 771-1420,NOT FOUND
FLOORCRAFTERS INC,2900 CENTRAL AVE,EVANSTON,IL,60201,(847) 328-9500,Not found
MANAS TORCOM INC,1305 5TH AVE,MOLINE,IL,61265,(309) 762-9423,www.griffinsfloorcrafters.com
FLOOR COVERING ASSOCIATES,1840 SKOKIE BLVD.,NORTHBROOK,IL,60062,(847) 835-2400,NOT FOUND
GEORGIA CARPET SALES INC,616 BUSSE HWY,PARK RIDGE,IL,60068,(847) 825-1116,NOT FOUND
"KBW FLOORING, LLC",1000 BROOKFOREST DRIVE,SHOREWOOD,IL,60404,(815) 436-7306,Not found
VILLAGE CARPETS INC.,229 W OGDEN AVENUE,WESTMONT,IL,60559,(630) 852-5821,Not found
EVALINE KARGES INTERIORS,1107 GREENLEAF AVE,WILMETTE,IL,60091,(847) 251-1200,Not found
UCC TOTAL HOME,1779 WINNETKA ROAD,NORTHFIELD,IL,60093,(847) 446-1600,not found
KERMAN RUG & CARPET CO IN,1025 E 54TH STREET,INDIANAPOLIS,IN,46220,(317) 251-0350,Not found
RANDY'S FINE HOME,4505 E. 82ND STREET,INDIANAPOLIS,IN,46250,(317) 842-5700,Not found
INTERIOR CONCEPTS INC,401 SECOND STREET,CORALVILLE,IA,52240,(319) 354-4344,www.interiorconceptsinc.com
CARPET WORKS INC,P.O. BOX 2808,LOUISVILLE,KY,40201,(502) 583-2713,www.hubbuch.com
PARK RUG CO INC,6402 FALLS ROAD,BALTIMORE,MD,21209,(410) 821-9468,Not found
KEN'S CARPET CORNER INC,9590 LYNN BUFF COURT #1,LAUREL,MD,20723,(301) 776-4000,Not found
THE VERTICAL CONNECTION I,11700 PARKLAWN DRIVE,ROCKVILLE,MD,20852,(301) 770-4110,http://www.thelegacyrockville.com/
CARPET BARN INC,PO BOX 489,ASHTON,MD,20861,(301) 949-0550,NOT FOUND
AMERICAN RUG CLEANING CO,8895 MCGAW ROAD,COLUMBIA,MD,21045,(410) 730-7423,Not found
ARROW FLOOR & WALLCOVER C,719 MAIN ST,FALMOUTH,MA,2540,(508) 548-1443,NOT FOUND
HARRY'S LINO TILE & CPT C,1594 DWIGHT STREET,HOLYOKE,MA,1040,(413) 533-3200,www.american-rug.com
FABER'S RUG CO INC,207 NO. MAIN STREET,ANDOVER,MA,1810,(978) 247-6060,http://www.maslandcarpets.com
COLONY RUG CO INC,P.O. BOX 192,WOLLASTON,MA,02170-0192,(617) 328-4002,http://www.colonyrug.com/
BAY DESIGN,9-11 CENTRAL STREET,WELLESLEY,MA,2481,(781) 235-5996,www.bay-design.co.uk
EVERETT CARPET CO INC,1865 TELEGRAPH ROAD,BLOOMFIELD HILLS,MI,48302,(248) 335-3500,NOT FOUND
MCLAUGHLINS EARLY AMERICA,318 ASHMAN ST,MIDLAND,MI,48640,(989) 835-7191,Not found
SHERWOOD STUDIOS INC,22924 MACK AVENUE,ST. CLAIR SHORES,MI,48080,(586) 773-1111,http://www.sherwoodstudiosinc.com/
CONTRACT FLRNG & FURNSHNG,14405 TOLEDO ROAD,SOUTHGATE,MI,48195,(734) 285-5454,http://www.mclaughlins.com/HomePage.aspx
FRANK PATTON INTERIORS IN,903 VARSITY DRIVE,TUPELO,MS,38801,(662) 842-1292,NOT FOUND
ANDRE'S CARPET SERVICE CO,2714 BRECKENRIDGE INDUSTR,ST. LOUIS,MO,63144,(314) 647-6060,NA
THE CHARLES SHOP,13133 MANCHESTER ROAD,ST LOUIS,MO,63131,(314) 965-4240,NOT FOUND
INTERIORS JOAN AND,7525 RAVENSRIDGE ROAD,ST. LOUIS,MO,63119,(314) 968-0222,www.interiorsbyjoan.com
CHAFEY RUG CO INC,P.O. BOX 3456,OMAHA,NE,68103,(402) 397-6100,NOT FOUND
M LAUFER INC,35 HAYWARD AVE,CARTERET,NJ,7008,(732) 969-9699,na
MAJOR MILLS INC,2418 HIGHWAY 35,MANASQUAN,NJ,8736,(732) 449-8575,NOT FOUND
JOSTEVE INC,1100 GOFFLE ROAD,HAWTHORNE,NJ,7506,(973) 423-5240,not found
EINSTEIN MOOMJY INC,729 BRICK BLVD,BRICK TOWN,NJ,8723,(732) 477-8400,http://einsteinmoomjy.com/Login.aspx
BRIELLE FURNITURE INC,86 RT 9,ENGLISHTOWN,NJ,7726,(732) 972-1300,www.briellefurniture.com/
EBERHARD FLOOR COVERING I,265 ROUTE 10,WHIPPANY,NJ,7981,(973) 887-3600,Not found
BORO RUG & CARPET WAREHOU,2169 STATE HWY 35,SEA GIRT,NJ,08750-1079,(732) 282-0030,http://www.briellefurniture.com/
D S TIFTICKJIAN IMPORTS I,947 HIGHWAY # 35,MIDDLETOWN,NJ,7748,(732) 671-3563,Not found
GLEN COVE FLOORS INC,1141 37TH ST,BROOKLYN,NY,11218,(718) 853-3700,not found
CARPET CONCEPTS INC,5225 SHERIDAN DR.,WILLIAMSVILLE,NY,14221,(716) 852-0556,http://www.tiftrugs.com/
"COUNTRY CPT DISTRIBUTORS,",30 GLEN STREET,GLEN COVE,NY,11542,(516) 671-3737,www.glenfloors.com
WELLMAN BROTHERS INC,207 ROBBINS LANE,SYOSSET,NY,11791,(516) 822-5855,www.countrycarpet.com
C MARKARIAN & SONS INC,10 WASHINGTON AVENUE,PLAINVIEW,NY,11803,(516) 942-0900,Not found
DATA CARPETS CORP,3807 DELAWARE AVENUE,KENMORE,NY,14217,(716) 873-8667,http://www.markarianrugs.com/index.html
COLOR AGE INTERIOR DES CENTER,450 JERICHO TURNPIKE,MINEOLA,NY,11501,(516) 746-1458,NOT FOUND
FENWAY FLOOR COVERING COR,50 NASSAU TERMINAL RD,NEW HYDE PARK,NY,11040,(516) 352-8700,www.datacarpet.com
NORTH EAST FLOOR COVERING,390 HILLSIDE AVENUE,NEW HYDE PARK,NY,11040,(516) 352-9200,http://northeastfloors.com/
A & D FLOOR & CARPET ENT,346 NORTH AVENUE,NEW ROCHELLE,NY,10801,(914) 235-0400,Not found
A B C CARPET CO INC,1492 FIRST AVENUE,NEW YORK,NY,10021,(212) 988-5326,NOT FOUND
STARK CARPET CORP,1460 3RD AVE-CORNER OF 83RD,NEW YORK,NY,10028,(212) 734-8929,http://starkcarpet.com
F. SCHUMACHER & CO. INC.,881 BROADWAY,NEW YORK,NY,10003,(646) 602-3219,Not found
B J MESSNER CO INC,243 W. 72ND STREET,NEW YORK,NY,10023,(212) 873-1421,not found
ANTHONYS WORLD OF FLOORS,125 WOLFS LANE,PELHAM,NY,10803,(914) 738-1700,Not found
RVC FLOOR DECOR LTD,49 MANORHAVEN BLVD,PORT WASHINGTON,NY,11050,(516) 883-2159,Not found
CARPET TRENDS INC,456 SUNRISE HIGHWAY,ROCKVILLE CENTRE,NY,11570,(516) 764-4466,"http://www.floordecordirect.com/test/index.php

I have a company called Floor Decor with the above information."
GILL CARPET OF SOUTHAMPTON,P.O. BOX 362,RYE,NY,10580,(914) 967-5188,Not found
MARTIN FELD OF SOVEREIGN LTD,785 WHITE PLAINS ROAD,SCARSDALE,NY,10583,(914) 723-2070,NOT FOUND
SCHOTTENFELD WHITE PLAINS,607 MAIN STREET,NEW ROCHELLE,NY,10801,(914) 654-8000,www.dabbierifloorsbeautiful.com/
KANTER'S CARPET SERVICE INC,800 OLD COUNTRY RD P O BO,WESTBURY,NY,11590,(516) 333-3900,"G. Fried & Sons 800 Old Country Road Westbury NY 11590 (516)333-3900 is the carpet store located at this address.  No website.
Kanter's is 99 Fulton st
http://www.kanterscarpet.com/"
MILL END ENTERPRISES,99 FULTON STREET,WHITE PLAINS,NY,10606,(914) 949-6517,http://www.kanterscarpet.com/
DIANNE DAVANT INTERIORS,1150 UNIVERSITY AVENUE,ROCHESTER,NY,14607,(585) 482-0600,NOT FOUND
HALLS INC,P O BOX 8575,ASHEVILLE,NC,28814,(828) 252-1594,Not found
HENRY'S CARPETS,3300 MONROE ROAD,CHARLOTTE,NC,28205,(704) 376-8501,www.goodbed.com
DESIGN LINES LTD,PO BOX 14789,GREENSBORO,NC,27415,(336) 282-8210,http://www.designlinesltd.com/
EATMAN'S INC,2010 NORTH CHURCH STREET,GREENSBORO,NC,27405,(336) 379-1018,www.eastmancarpet.com
GREIWE INTERIORS INC,P O BOX 896,SOUTHERN PINES,NC,28388,(910) 692-6411,Not found
FINDLEY KOHLER INTERIORS,661 W PORTAGE TRAIL EXT,AKRON,OH,44313,(330) 923-9988,www.findleykohler.com/
GARTH ANDREW'S ASSOCIATES INC,30655 DETROIT ROAD,WESTLAKE,OH,44145,(440) 899-5200,not found
WESTBAY DECORATING INC,1451 SOM CENTER ROAD,MAYFIELD HEIGHTS,OH,44124,(440) 449-4977,NOT FOUND
RUG & CARPET OUTLET INC,30733 DETROIT ROAD,WESTLAKE,OH,44145,(440) 835-2980,not found
CARPET SUPPLY COMPANY,4404 N. WESTERN,OKLAHOMA CITY,OK,73118,(405) 521-1343,www.carpetsupplyco.com
KOEBER CARPETS & DRAPES I,1319 S HARVARD AVENUE,TULSA,OK,74112,(918) 744-5511,Not found
MARO'S,6700 SW 111TH,BEAVERTON,OR,97008,(503) 641-1901,http://www.showmelocal.com
BUTLER FLOOR AND CARPET CO INC,27 EAST BUTLER AVE,AMBLER,PA,19002,(215) 646-8178,http://www.bobscarpet.com/
BOB WAGNER'S MILL CARPET,1572 WILMINGTON PIKE,WEST CHESTER,PA,19382,(610) 558-0900,http://www.bobwagner.com/
BARB,1763 N MAIN ST EXT,BUTLER,PA,16001-1685,(724) 287-2289,http://butlerfloor.com/
ROY LOMAS CPT CONTRACTORS,4531 W. LINCOLN HIGHWAY,DOWNINGTOWN,PA,19335,(610) 269-7808,www.bobwagnerflooringdowningtown.com
FLOOR ASSOCIATES INC.,640 N MAIN STREET,DOYLESTOWN,PA,18901,(215) 348-8116,Not found
BEE JAY CARPETS INC,2150 DETWEILER RD,KULPSVILLE,PA,19443,(215) 256-9575,"I have a Roy Lomas Carpets and Hardwood with this exact information.

http://roylomascarpets.com/"
NORMAN CARPETS CO INC,1010 PULINSKI RD,IVYLAND,PA,18974,(215) 355-2510,not found
JUDAH INC.,331 S BROAD STREET,LANSDALE,PA,19446,(215) 855-5757,na
NATIONAL FLOOR COV. COMP.,60 GREENFIELD AVENUE,ARDMORE,PA,19003,(610) 896-9700,www.normancarpet.net
TODAY'S HOME INC,7 FRIENDS LANE,NEWTOWN,PA,18940,(215) 968-3333,www.hollandfloor.flooringplus.com
ANGELO'S CARPET GALLERY,1840 GREENTREE ROAD,PITTSBURGH,PA,15220-1899,(412) 444-0021,Not found
ABRAM W BERGEY & SONS INC,513 W LANCASTER AVE,WAYNE,PA,19087,(610) 688-2323,www.abramwbergey.flooringplus.com
HODGE CARPET INC,946 S WOODBOURNE RD,LEVITTOWN,PA,19057,(215) 547-5576,NOT FOUND
KISER'S FLOOR FASHIONS IN,P. O. BOX 85,HARLEYSVILLE,PA,19438,(215) 256-8846,Not found
BRADFORD'S FURN CO INC,P.O. BOX 626,SPARTANBURG,SC,29304,(864) 573-9288,www.bradfordsfurniture.co.nz/
NASHVILLE CARPET CENTER,3050 WALNUT GROVE ROAD,MEMPHIS,TN,38111,(901) 754-6161,http://www.nashvillecarpet.com/
GRAPHIC LOOMS INC,PO BOX 150507,NASHVILLE,TN,37215,(615) 297-3541,NA
BLACKSTONE CARPETS INC,515 4TH AVENUE SOUTH,NASHVILLE,TN,37210,(615) 244-9591,NOT FOUND
COMMERCIAL CPT OF AMERICA,1208 S BROADWAY,CARROLLTON,TX,75006,(972) 242-2171,Not found
THOMAS HINES INC,823 S MAIN,SALT LAKE CITY,UT,84111,(801) 363-4563,http://www.supermedia.com/web-sites
CAREY BURKE CARPETS INC,P. O. BOX 9010,ALEXANDRIA,VA,22304,(703) 370-4557,www.careyburke.com
CARPET YARD,3027 W CARY STREET,RICHMOND,VA,23221,(804) 355-2921,Not found
ERICKSON INTERIORS,3115 WEST CARY STREET,RICHMOND,VA,23221,(804) 355-3512,http://ericksoninteriors.com/
ASSOCIATED WAREHOUSES INC,1315 CHAIN BRIDGE RD,MCLEAN,VA,22101,(703) 893-7555,Not found
"DE/MAR CO BROKERAGE, LTD",1605 N STATE ST,BELLINGHAM,WA,98225,(360) 671-5880,not found
CARPET TOWN USA INC,580 SOUTH LUCILLE STREET,SEATTLE,WA,98108,(206) 763-2536,Not found
GEORGE KASHOU CO,11721 W DIXION ST,WEST ALLIS,WI,53214,(414) 774-2771,not found
TOROSIAN BROTHERS CPT. CO,6 FAIRVIEW AVE.,LITTLE SILVER,NJ,7739,(732) 741-0091,NOT FOUND
JOHN WILLIAMS INTERIORS,1429 WEST PIONEER PARKWAY,PEORIA,IL,61615-1960,(309) 282-3334,not ofund
DARLINGTON SQUARE,492 MAIN STREET,FORT LEE,NJ,7024,(201) 944-5119,Not found
U.S. DEPARTMENT OF STATE,9230 RESEARCH BLVD.,AUSTIN,TX,78758,(512) 323-2957,www.state.gov/
"RICHARD NEEL INTERIORS, INC.",129 W ALDER,MISSOULA,MT,59801,(406) 721-4462,http://www.hoovers.com
DESIGNERS WEST,PO BOX 145,SOUTH WINDSOR,CT,6074,(860) 289-4305,www.daleneflooring.com
DAVISHIRE INTERIORS INC.,P.O. BOX 112,CEDARBURG,WI,53012,(262) 377-0930,Not found
PERKIN DESIGN INC.,532 STEVENS AVENUE,SOLANA BEACH,CA,92075,(858) 755-8880,Not found
PRO CARPET CARE,1811 A. YORK ROAD,TIMONIUM,MD,21093,(410) 252-6628,www.grandyorkinteriors.com
NORTHERN CARPET COMPANY,773 POTTS AVE.,GREEN BAY,WI,54304,(920) 494-7868,NA
"S.I.R. ENTERPRISES, INC.",5580 RIDGE ROAD WEST,SPENCERPORT,NY,14559,(585) 352-5905,Not found
REGENT FLOOR COVERING,261 E. HELLEN ROAD,PALATINE,IL,60067,(847) 934-4670,Not found
JACK WALSH CARPETS & RUGS,4750 GULF FRWY,HOUSTON,TX,77023,(713) 926-7200,http://www.robertscarpet.com/default.aspx
C.G. COE & SONS INC.,"#7 ROUTE 31 NORTH, STE G",PENNINGTON,NJ,8534,(609) 737-2466,NOT FOUND
R.J. MILLER,4905 DEL RAY,BETHESDA,MD,20814,(301) 986-5800,www.coeandson.com
J. KAY DESIGNS,205 S MAIN ST,CHELSEA,MI,48118,(734) 475-8621,www.merkelcarpetone.com
T.C. MCMECHEN INC.,6205 COCKRILL BEND CIRCLE,NASHVILLE,TN,37209,(615) 352-5912,www.sprintz.com
CABOT HOUSE,3301 GEARY BLVD.,SAN FRANCISCO,CA,94118,(415) 752-6620,http://www.cabothouse.com/
TURABIAN & SARIYAN,10 INDUSTRIAL WAY,AMESBURY,MA,1913,(978) 834-9280,www.cabothouse.com
JANETCO,21 NORTHFIELD STREET,GREENWICH,CT,6830,(203) 869-5950,Not found
SUBURBAN FLOOR COVERING,975 S. CONGRESS AVE. STE 109,DELRAY BEACH,FL,33445,(561) 265-1019,www.suburbanfloorcoverings.com/
ESSIS & SONS,PO BOX 358,DULUTH,GA,30096,(770) 476-8306,www.atlantaflooringdesign.com
LAWRENCE CONTRACT FURN.,13 COLUMBUS AVENUE,MT KISCO,NY,10549,(914) 666-6166,NOT FOUND
LANDRY & ARCARI INTERIORS,6220 CARLISLE PIKE,MECHANICSBURG,PA,17050,(717) 697-9423,http://www.carpetmechanicsburg.com/
INTERIOR DESIGN INC.,470 VANDELL WAY,CAMPBELL,CA,95008,(408) 374-7590,NOT FOUND
SOUTHEASTERN GALLERIES,6240 BISSONNET,HOUSTON,TX,77081,(713) 981-1900,http://www.dicknsons.com/
GREENBAUM HOME FURN.,5411 NO. MESA,EL PASO,TX,79912,(915) 581-1111,Not found
DASHING DESIGNS INC.,1885 ASHLEY RIVER ROAD,CHARLESTON,SC,29407,(843) 556-4663,Not found
JACK LAURIE COMMERCIAL FL,PO BOX 280,BELLEVUE,WA,98009,(425) 454-2474,www.jacklauriegroup.com
J. MORGAN DESIGN ASSO.,1828 SOUTH ANTHONY BOULEVARD,FORT WAYNE,IN,46803,(260) 745-3971,Not found
POTOMAC DESIGNS,1802 62ND AVENUE EAST,TACOMA,WA,98424,(253) 922-5700,www.thomasville.com
PIERCE FLOORING,515 LOWELL ST,PEABODY,MA,1960,(781) 596-0345,Not found
RUSMUR FLOORS INC.,161 LARCHMONT AVE.,LARCHMONT,NY,10538,(914) 834-7300,NOT FOUND
RUSSELL MARTIN CPT & RUGS,2858 HIGHWAY 31 SOUTH,PELHEM,AL,35124,(205) 663-2310,www.issisandsonsrugs.com
SPEEDWELL PAINT & DESIGN,500 STATION STREET,BRIDGEVILLE,PA,15017,(412) 221-6366,www.rusmurfloors.com
GRIGSBY'S CARPET SHOWROOM,633 N WASHINGTON STREET,NAPERVILLE,IL,60563,(630) 961-1312,NOT FOUND
CAROUSEL INC.,4417 S SHERIDAN ROAD,TULSA,OK,74145,(918) 627-6996,Not found
C & M INTERIORS INC,P O BOX 132,SPRINGDALE,PA,15144,(724) 274-9100,NOT FOUND
ECSI,3315 SUPERIOR LANE,BOWIE,MD,20715,(301) 262-2650,www.ecsi.net/
SWEENEY BROS. CARPETS,4501 NO. FEDERAL HIGHWAY,BOCA RATON,FL,33431,(561) 368-2703,http://www.sweeneybrothers.com/
TM DESIGNS,8519 MONROE AVENUE,UPPER DARBY,PA,19082,(610) 449-8500,www.ascotcarpet.com
LINDA C. HOWELL & ASSOC.,11 WESTPORT COURT,BLOOMINGTON,IL,61704,(309) 662-7800,Not found
CAPE COD CUSTOM FLOOR,3961 SOUTH SEPULVEDA BLVD,CULVER CITY,CA,90230,(310) 390-7639,http://capecod.brandsource.biz/
SCHROEDER DESIGN ASSOC.,762 A FALMOUTH ROAD,HYANNIS,MA,02601-2338,(508) 778-1965,Not found
GEORGE F. LANG COMPANY,704 S. LAMAR BLVD,AUSTIN,TX,78704,(512) 462-1551,na
CHEZ DEL INTERIORS,84 COMMERCE ROAD,STAMFORD,CT,6902,(203) 359-3622,Not found
CONTINENTAL CARPET INC.,8170 NIEMAN ROAD,LENEXA,KS,66214,(913) 894-9211,www.carpetbrokersfl.com
COLLINS & DU PONT INT. IN,4800 ALPHA ROAD,DALLAS,TX,75244,(972) 934-9191,NOT FOUND
ASTORIA CARPET INC.,DELIVERIES BETWEEN 11AM-5PM,BOCA RATON,FL,33432,(561) 393-0021,www.continentalboca.com
LOUIS SHANKS OF TEXAS  10,25-04 BROADWAY,ASTORIA,NY,11106,(718) 721-2334,Not found
WM. H. MOLYNEAUX TILE CONTRACT,P.O. BOX 10448,AUSTIN,TX,78766,(512) 451-6501,not found
"DESIGNERS BUYING GROUP, INC.",511 OLD LANCASTER AVENUE,BERWYN,PA,19312,(610) 640-4065,Not found
NATUS CORPORATION,4675 VERONA ROAD,VERONA,PA,15147,(412) 793-6100,Not found
TRI STATE CARPET CONNECTION,1381 NORTH RICE STREET,ST. PAUL,MN,55117,(651) 487-3211,www.hamernicksdecorating.com
"INTERIOR SPECIALISTS, INC",3312 N. LINCOLN AVE.,CHICAGO,IL,60657,(773) 281-8800,http://www.isidc.com/
SANDERS & STEIN,366 WESTERN HWY,TAPPAN,NY,10983,(845) 365-1366,Not found
PEERLESS IMPORTED RUGS IN,7550 GRABER ROAD,MIDDLETON,WI,53562,(608) 836-8833,Not found
CRAFTSMAN AND COLLECTOR,1095 MT KEMBLE AVE,MORRISTOWN,NJ,7960,(973) 425-9191,Not found
THE CARPET GROUP,1191 PONTIAC AVE,CRANSTON,RI,2920,(401) 463-9510,Not found
ALICE STILLABOWER INT DES,4153 VIRGINIA BEACH BLVD,VIRGINIA BEACH,VA,23452,(757) 486-6600,http://www.igotyourrug.com/home/index.php?option=com_content&task=view&id=36&Itemid=38
THE FURNITURE BARN INC.,2051 CLAVEY ROAD,HIGHLAND PARK,IL,60035,(312) 226-3755,www.thefurniturebarn.com
"BKM FLOORCOVERING, INC.",535 WEST MAIN STREET,CHESHIRE,CT,6410,(203) 272-7055,www.bkm.com/
NEW YORK CARPET DIST. INC,P.O. BOX 866,FRAZER,PA,19355,(610) 647-5566,not found
THE BLIND SIDE,1791 POST ROAD EAST,WESTPORT,CT,6880,(203) 255-0266,NOT FOUND
SYBELLE CARPET,PO BOX 1746,LANCASTER,PA,17603,(717) 393-3001,www.sybellecarpet.com
"AUSTIN FINE FLOORS, INC.",375 COUNTY ROAD 39,SOUTHAMPTON,NY,11968,(631) 283-6888,www.sybellecarpetofsouthampton.com
NAZAR CARPET CO,3690 ATLANTA HWY STE 108,ATHENS,GA,30606,(706) 353-0547,www.nazarruggalleries.com.au/
VINTAGE DESIGN,1 GRAND AVE,ENGLEWOOD,NJ,7631,(201) 569-7067,not found
KEEVAN SADOCK DESIGN,675 NORTH SEA ROAD,SOUTHAMPTON,NY,11968,(631) 287-1070,www.keevansadock.com/
CARPET CONTRACTORS INC.,1327 W. LINCOLN AVENUE,MILWAUKEE,WI,53215,(414) 384-0630,http://carpetcontractors.net/
CRAGHEAD DEVELOPMENT,11143 W. WASHINGTON BLVD.,CULVER CITY,CA,90232,(310) 390-8570,http://www.craghead.org.uk/
"SHRAWDER RESTORATIONS, INC.",3210 GARY BLVD,SAN FRANCISCO,CA,94118,(415) 933-9999,Not found
HERITAGE CARPET & TILE,3425 BEE CAVE ROAD,AUSTIN,TX,78746,(512) 327-8326,Not found
KATIE HIXON INTERIORS,1000 TOWNSHIP LINE ROAD STE 6,PHOENIXVILLE,PA,19460,(610) 933-5300,NOT FOUND
MAJESTIC FLOORS & INTERIORS,2156 NORTH EAST 64TH ST.,FORT LAUDERDALE,FL,33308,(954) 776-0831,NOT FOUND
J & S DESIGNER FLOORING,190 BENIGNO BLVD,BELLMAWR,NJ,8031,(856) 931-2288,NOT FOUND
DALTON DESIGNS INC.,440 NORTHLAKE BLVD,NORTH PALM BEACH,FL,33408,(561) 881-8660,http://daltondesignsinc.com
PATRICIA GOLD INTERIORS INC,23 PARKER AVENUE,STAMFORD,CT,6910,(203) 357-1928,Not found
LYNN BUCH INTERIORS,"1113 WEALTHY STREET, SE",GRAND RAPIDS,MI,49506,(616) 957-0430,not found
LASALLE BRISTOL LP,333 NORTHWEST AVE.,NORTHLAKE,IL,60164,(847) 583-3000,Not found
T. CANDACE HOLLADAY INT.,1200 MAIN STREET,HOPKINS,MN,55343,(952) 935-1211,not found
GRIBBLE INTERIOR GROUP,12642 BASS LAKE ROAD,MAPLE GROVE,MN,55369,(763) 553-1800,www.gribbleinteriors.com/
CONTRACT FURNITURE OPTIONS INC,707 M1 EAST MARKET STREET,LEESBURG,VA,20176,(703) 777-7047,not found
RUGBEATERS OF FLORIDA INC,730 E N.W. HIGHWAY,MOUNT PROSPECT,IL,60056,(847) 394-8200,http://www.ratefame.com
VON HEMERT INTERIORS,445 HWY 202 SOUTH,FLEMINGTON,NJ,8822,(908) 806-4461,http://www.interiormotives.net
"INDESIGN, INC.",4290 MILAM DAIRY ROAD,MIAMI,FL,33166,(305) 592-6220,www.indesigninc.com/
MYERS CARPET,1595 NEWPORT BLVD.,COSTA MESA,CA,92627,(949) 642-2050,www.myerscarpet.com/
73997HOMES LIMITED PARTNERSHIP,1500 NORTHSIDE DR NW,ATLANTA,GA,30318,(404) 352-8141,not found
"FLOOR IT 4 LESS, INC",2701 N.W. 17TH LANE,POMPANO BEACH,FL,33064,(954) 974-4700,http://www.floors4lessonline.net/
SAN JOAQUIN INTERIORS,225 GOFFLE ROAD,RIDGEWOOD,NJ,7450,(201) 445-0807,Not found
KATHY ADAMS INTERIORS,951 ALTERNATE A1A,JUPITER,FL,33477,(561) 744-2750,http://www.kathyadamsinteriors.com/
AHJ LLC,3491 CHAMBLEE DUNWOODY WA,CHAMBLEE,GA,30341,(770) 936-8774,not found
CHATEAU INTERIORS & DESIGN,"195 FEDERAL ROAD, SUITE 2",BROOKFIELD,CT,6804,(203) 775-3399,NOT FOUND
CLEAN CPT. OF NEW ENGLAND,15 PARK AVENUE,MADISON,NJ,7940,(973) 966-6102,Not found
SERGENIAN'S FLOORCOVERING,39 UNION AVE,SUDBURY,MA,1776,(978) 443-9552,http://www.sergenians.com/
KIMBERLY WEDER,775 8TH COURT  STE 1,VERO BEACH,FL,32962,(772) 778-4977,Not found
MOBILE CARPET CLUB,2001 FISHHATCHERY ROAD,MADISON,WI,53713,(608) 273-6300,http://www.sergenians.com/default.aspx I have a Sergenian's Floor Coverings with the above information
RUGGS BENEDICT,518 W. WASHINGTON AVENUE,ESCONDIDO,CA,92025,(760) 740-9545,Not found
FRANEY FLOOR COVERING,P. O. BOX 830,AVON,CO,81620,(970) 949-5390,not found
CONKLIN BROTHERS OF,2391 RICHMOND AVE.,STATEN ISLAND,NY,10314,(718) 494-4300,NOT FOUND
JOY FLOOR & ACOUSTICAL CO,121 N. ENCINA STREET,VISALIA,CA,93291,(559) 733-9990,www.franeysdesigncenter.com
RUG MASTERS INC.,2250 ALMADEN EXPRESSWAY,SAN JOSE,CA,95125,(408) 266-2250,Not found
"THE ART OF RUGS, INC.",1001 MORRISON DRIVE,CHARLESTON,SC,29403,(843) 723-2155,www.rugmastersinc.com
CARPETOWN INC,1937 COFFEE RD,MODESTO,CA,95355,(775) 359-9898,Not found
DOMINION RUG SALES LTD. (C1),5139 HWY 52 NORTH,ROCHESTER,MN,55901,(507) 282-3434,www.carpetone.com
I. LIPMAN ENTERPRISES LTD,1900 AVENUE ROAD,"TORONTO, ONTARIO   M5M3Z8",CN,M5M3Z8,(416) 781-3005,http://www.lippman-enterprises.com/
MADDEN MCFARLAND,7269 CURRAGH AVENUE,"BURNABY, BC       V5J 4W1",CN,V5J 4W1,(604) 438-7464,NOT FOUND
"HIRSHFIELD'S, INC.",201 W. MONTAUK HWY,HAMPTON BAYS,NY,11946,(631) 728-7359,http://www.hirshfields.com/
PROSOURCE OF OXNARD,6808 151ST ST. W STE 104,APPLE VALLEY,MN,55124,(952) 891-5100,not found
ELDREDGE LUMBER AND,3825 CARMEL FOREST DRIVE,CHARLOTTE,NC,28226,(704) 541-7877,www.eldredgelumber.com/
CAROUSEL CUSTOM FLOORS,P.O.BOX 69,CAPE NEDDICK,ME,3902,(207) 363-3004,http://www.carouselfloors.com/
CREATIVE FLOORING,5 RIVERSIDE LANE,RIVERSIDE,CT,6878,(203) 637-3777,www.riversidefloorcovering.com
"PAT BIBBEE DESIGNS, CO.",ATTN: TERRY/ ALLISON,PASADENA,CA,91101,(626) 795-8085,no website for this co in Pasadena
CURTIS CARPET INC,2410 BISSONNET,HOUSTON,TX,77005,(713) 522-1181,Not found
ISLAND INTERIORS AT OCEAN,614 OLIVE STREET,SANTA BARBARA,CA,93101,(805) 963-1921,"http://www.curtiscarpet.hdspd.com/Home/home/sb.cn

I have a Curtis Carpet with this info"
"CARPETS BY ROBERT, INC.",401 HIGHGROVE BLVD.,GLENDALE HEIGHTS,IL,60139,(630) 980-9900,Not found
K W CARPETS,553 BROADWAY,LONG BRANCH,NJ,7740,(732) 571-4644,http://www.kwcarpets.com/
"MILLER FLOORS, INC.",23430 ROCK HAVEN WAY,DULLES,VA,20166,(703) 661-3999,Not found
"DELANZ, INC.",RT 309 MEMORIAL HWY,DALLAS,PA,18612,(570) 675-8691,None
INTERIORS BY MARY SUSAN,1168 FREMONT BLVD.,SEASIDE,CA,93955,(831) 393-3200,Not found
M & M CARPET SHOWROOM,27 UTTER AVENUE,HAWTHORNE,NJ,7506,(201) 368-8836,http://www.mandmcarpet.com/
DESIGN TECHNIQUES INC,3415 FONDREN,HOUSTON,TX,77063,(713) 789-3666,www.designtechnique.com/
NIGOHSIAN CARPET & RUG CO. INC,6741 W. SUNRISE BLVD. #9,FORT LAUDERDALE,FL,33313,(954) 583-2444,not found
"PINE TREE BARN, INC.",1620 POST RD EAST,WESTPORT,CT,6880,(203) 256-0414,www.redi-cutcarpets.com
WAYNE WILES FLOORCOVERINGS INC,57 CRAWFORD STREET,NEEDHAM,MA,2494,(781) 444-7847,www.nigohsiancarpet.com
"P & H INTERIORS, INC.",4374 SHREVE ROAD,WOOSTER,OH,44691,(330) 264-1014,www.pinetreebarn.com
"CUSTOM CARPET SHOP, INC.",7851 SUPPLY DRIVE,FT. MYERS,FL,33912,(239) 267-7600,www.customcarpetshop.com/
BARBARA ALLEN TRAW,PO BOX 2105,ROCKVILLE,MD,20852,(301) 881-7878,NOT FOUND
WORLDWIDE WHOLESALE,8784 BEVERLY BLVD.,LOS ANGELES,CA,90048,(310) 659-5722,Not found
PRO SOURCE OF SACRAMENTO,1055 RTE. 1 SOUTH,EDISON,NJ,8837,(732) 906-1400,Not found
"FOUR M CO., INC.",145 EAST MAIN STREET,MT KISCO,NY,10549,(914) 241-1227,www.cornellcarpet.com
OFFICE OF SGT. OF ARMS,104 JOHNSON AVE,HACKENSACK,NJ,7601,(201) 525-0400,NOT FOUND
ROCKY MOUNTAIN FLOOR,4438 MITCHELL ST.,NORTH LAS VEGAS,NV,89081,(702) 644-0113,Not found
WILMETTE WHOLESALE,1455 SOUTH BARRINGTON RD.,BARRINGTON,IL,60010,(847) 382-1700,Not found
PRO SOURCE OF SAN DIEGO,533 EAST HOPKINS STE A,ASPEN,CO,81611,(970) 925-4440,www.ProSourceDenver.com
KAHN ENT. OF PALM BCH CO.,27751 A LA PAZ ROAD,LAGUNA NIGUEL,CA,92677,(949) 831-1332,Not found
"FLEMINGTON DEPT.STORE,INC",145 KISCO AVE.,MT. KISCO,NY,10549,(914) 666-6679,www.flemingtondepartmentstore.com
"CARPET RESOURCES, LTD",151 ROUTE 31,FLEMINGTON,NJ,8822,(908) 782-7662,not found
DAVID SUMRALL,838 N. WESTERN AVENUE,LAKE FOREST,IL,60045,(847) 295-3737,Not found
BEAUVAIS CARPETS INC.,2840 NORTH FEDERAL HIGHWAY,FT. LAUDERDALE,FL,33306,(954) 563-9010,not found
LARRY GORDON CARPETS LTD,102 COLVIN STREET,MOBILE,AL,36606,(251) 476-9974,www.larrygordoncarpets.com
CAPITAL DISTRICT PROSOURCE INC,2133 ROYAL WINDSOR DR,MISSISSAUG ONTARIO L5J1K5,CN,L5J1K5,(905) 822-7760,NOT FOUND
SPECTRUM DESIGN SERVICE,P.O. BOX 58,ZEELAND,MI,49464,(616) 396-2765,Not found
"WHOLESALE FLOOR COVERINGS, INC",13970 METROTECH DRIVE,CHANTILLY,VA,20151-3233,(703) 222-0808,www.sullycarpet.com/index.html
JOHN FARIS,10708 B FAIRFAX BLVD,FAIRFAX,VA,22030,(703) 273-2500,Not found
POLLOCK & ASSOCIATES,145 EAST 23RD STREET,NEW YORK,NY,10010,(212) 685-3626,http://www.pollockandassociates.com/
DESIGNER'S LIBRARY,1470 W. BROADWAY,VANCOUVER  BC      V6H1H4,CN,V6H1H4,(604) 733-1174,Not found
CACHET INTERIORS,579 WESTLAKE,ENCINITAS,CA,92024,(760) 436-0900,Not found
STRATHMORE CARPETS INC,220 SECOND AVENUE S.,SEATTLE,WA,98104,(206) 622-5606,http://www.masonfurniture.com/
"THE CARPET SHOPPE, INC.",11555 NORTHUP WAY,BELLEVUE,WA,98004,(425) 285-0570,http://thecarpetshoppe.com/
L. BUTZ & ASSOCIATES,PO BOX 43544,ATLANTA,GA,30336,(404) 872-0024,NOT FOUND
FELIKIAN'S CARPET ONE FLOOR,1827 E SEMINOLE,SPRINGFIELD,MO,65804,(417) 883-6455,not found
INTERIORS BY FRANCE OF,188 N ROSEMEAD BLVD,PASADENA,CA,91107,(626) 795-2821,http://www.felikiancarpet.com/index.html
"JOAN MARING NELSON, LTD",111 EAST 15TH AVE,CONSHOHOCKEN,PA,19428,(610) 828-3610,Not found
CONTRACT TILE & CARPET,322 N 26TH STREET,BISMARCK,ND,58501,(701) 223-8818,NOT FOUND
DESIGNERS CARPET LIBRARY,"1901 W. LOOP 289, STE 11",LUBBOCK,TX,79407,(806) 795-0070,not found
J. ALLEN INC.,9102 BARTON,OVERLAND PARK,KS,66214,(913) 227-0010,Not found
BURGESS SUPPLY CO INC,888 BROADWAY,NEW YORK,NY,10003,(561) 279-7777,NOT FOUND
COVE DISCOUNT CARPET,4303 POPLAR LEVEL RD,LOUISVILLE,KY,40213,(502) 451-2600,Not found
FARGO LINOLEUM CO INC,15435 HIGHWAY 73,HUNTERSVILLE,NC,28078,(704) 875-1338,not found
V.M. CARPET DISTRIBUTORS,335 SPRINGFIELD AVENUE,SUMMIT,NJ,7901,(908) 273-0220,Not found
DODGSON INTERIORS,1260 MCDONALD AVENUE,BROOKLYN,NY,11230,(718) 377-0531,Not found
PROSOURCE WHOLESALE,P.O. BOX 6431,HILTON HEAD ISLAND,SC,29938,(843) 842-9854,1429 WEST PIONEER PARKWAY
HADINGER ENTERPRISES INC,400 JEFFERSON HWY,JEFFERSON,LA,70121,(504) 833-1155,Not found
JANZ INC.,7508 RICHMOND HW,ALEXANDRIA,VA,22306,(703) 765-1900,Not found
"RENE & SON CARPET CENTER,",6401 N AIRPORT RD,NAPLES,FL,34109,(239) 566-7100,http://www.hadingerflooring.com/
"SAN MATEO CARPETS, INC.",1363 BEVERLY ROAD,MCLEAN,VA,22101,(703) 742-7930,not found
WATSON CARPET CO.,180 CONNELL HWY,NEWPORT,RI,2840,(401) 846-9720,Not found
JONES GROUP INTERIORS INC,101 N. AMPHLETT BLVD.,SAN MATEO,CA,94401,(650) 347-0800,jonesgroupinteriors.com/
ERRANDS UNLIMITED,UNIT 1K,WESTLAKE,OH,44145,(440) 835-2508,www.errandsunlimitedllc.com
EHLEN FLOOR COVERING,120 W. PLATO BLVD.,ST. PAUL,MN,55107,(651) 224-7728,not found
WHOLESALE CARPET DESIGNS,790 BALD EAGLE DRIVE,MARCO ISLAND,FL,34145,(239) 394-0500,http://www.wholesalecarpetdesign.com/
"CARPET FAIR, INC.",195 N MILWAUKEE AVE,VERNON HILLS,IL,60061,(847) 415-2000,not found
TED SMITH FLOOR PRODUCTS,320 LIBERTY STREET,PAWCATUCK,CT,6379,(860) 599-5656,www.lassellscarpet.com
MCABEE'S CUSTOM CARPET,7100 RUTHERFORD ROAD,BALTIMORE,MD,21244,(410) 298-5800,www.billscarpetfair.com
MANCHESTER CARPET INC.,117 MORGAN DRIVE,SINKING SPRING,PA,19608,(610) 796-2800,Not found
THE FLOOR SHOW,12 N. KINGS ROAD,GREENVILLE,SC,29605,(864) 277-0470,Not found
LYNN LEATH INTERIORS INC,1475 ASSOCIATE DRIVE,DUBUQUE,IA,52002,(563) 557-9952,http://www.floorshowcompanies.com/
"P. S. SOUTHWEST, INC.",2709 INGERSOLL AVE,DES MOINES,IA,50312,(515) 243-8608,Not found
J E K CARPET CORPORATION,1111 E. FRANCISCO BLVD,SAN RAFAEL,CA,94901,(415) 458-1717,NOT FOUND
BOISE FLOOR COVERING & DES INC,230 E 17TH STREET,COSTA MESA,CA,92627,(949) 722-7224,NA
"FURNITURELAND SOUTH, INC.",11522 W FAIRVIEW AVENUE,BOISE,ID,83713,(208) 322-2554,www.furniturelandsouth.com/
K & K INDUSTRIES,9 JEFFERSON AVENUE,WILMINGTON,DE,19805,(302) 636-9201,www.artfloorinc.com
"ASARO INVESTMENTS, INC.",PO BOX 1550,JAMESTOWN,NC,27282,(336) 841-4328,NOT FOUND
K D M RUG INC.,4649 BELDEN VILLAGE STREET,CANTON,OH,44718,(330) 492-1906,http://www.rameycarpetone.com/
FLORIDA HOME CARPET INC,1663 PLACENTIA,COSTA MESA,CA,92627,(949) 646-4838,http://www.aldenscarpets.com/
"THE DESIGN SOURCE, LTD",ONE EAST OCEAN BLVD.,STUART,FL,34994,(772) 221-1000,Not found
ANDERSON & SONS CARPETS LTD,120 E. PUTNAM AVE.,GREENWICH,CT,6830,(203) 622-1200,NOT FOUND
NIKKI GOODNOW INTERIORS,686 GUELPH LINE,BURLINGTON ONT  L7R 3M8,CN,L7R 3M8,(905) 639-0666,Not found
BUILDER'S CARPET,1345 HIGHWAY 315,WILKES-BARRE,PA,18702,(570) 825-3435,www.builderscarpet.com
"JERRY L. HALL, INC.",5358 QUAM CIR NE,ST MICHAEL,MN,55376,(763) 497-4407,not found
"CARPET SPECTRUM, INC.",832 SOUTH CENTRAL AVENUE,CHICAGO,IL,60644,(773) 921-1300,www.olsonrug.com
AMERICAN HOME GALLERY,P. O. BOX 1988,MANHATTAN BEACH,CA,90267-1988,(310) 539-8818,Not found
SOUTH DAKOTA FURNITURE MART,2534 MAIN STREET,GLASTONBURY,CT,6033,(860) 659-8476,www.furnituremartrapidcity.com
CMC CARPET OUTLET,2101 WEST 41ST ST #4A,SIOUX FALLS,SD,57105,(605) 335-6687,not found
"P. S. OF DALLAS COUNTY, INC.",38 TAYLOR AVENUE,MANASQUAN,NJ,8736,(732) 223-0390,Not found
PROSOURCE OF NASSAU INC,203 KENTLANDS BLVD.,GAITHERSBURG,MD,20878,(301) 921-6611,www.floorrioabbeycarpets.com
"FLOOR GALLERY, INC.",5557 FAR HILLS AVE.,DAYTON,OH,45429,(937) 438-0870,Not found
PROSOURCE OF KALAMAZOO,12108 WILKINS AVENUE,ROCKVILLE,MD,20852,(301) 770-3366,http://www.prosourcefloors.com
INNOVATIVE FLOORING & DESIGN,4280 OAK CIRCLE,BOCA RATON,FL,33431,(561) 416-5688,http://exclusivecarpet.net/default.aspx
"LEHMS, INC.",6375 PEACHTREE INDUSTRIAL BLVD,NORCROSS,GA,30092,(770) 449-9890,1429 WEST PIONEER PARKWAY
JOHN PHIFER MARRS INTERIORS,681 GRAND BLVD. SUITE #2,DEER PARK,NY,11729,(631) 242-3775,Not found
BENSON FLOOR COMPANY,4312 MONROE ROAD,CHARLOTTE,NC,28205,(704) 372-7486,Not found
M & C ENTERPRISES OF SEBRING,28 NIHAN DRIVE,ST. CATHERINES ONT L2N1L1,CN,L2N1L1,(905) 685-4884,http://www.hunterdouglas.ca/mcnamarareynolds/Home/Home/sb.cn
CREATIVE DESIGN INTERIORS,P. O. BOX 24191,OVERLAND PARK,KS,66283-4191,(913) 649-5357,Not found
HAMILTON CARPET & FLR COV INC,RR #2 BOX 1136,BENNINGTON,VT,5201,(802) 442-2494,Not found
CARPETLAND,73-40 GRAND AVENUE,MASPETH,NY,11378,(718) 899-3610,www.hamiltoncarpetonemaspeth.com
THE PARK COLLECTION,1084 NE JENSEN BEACH BLVD,JENSEN BEACH,FL,34957,(772) 334-5221,na
SHEHADI RUGS & CARPET,274 RICKENBACKER CIRCLE,LIVERMORE,CA,94550,(925) 455-7200,www.carpetlandflooring.com/
LANTERN BAY CARPETS & DRAPES,23 JUST ROAD,FAIRFIELD,NJ,7004,(973) 808-4443,http://www.lanternbaycarpets.com/
STATE COLLEGE DISTRIBUTORS,6840 W. PATRICK LANE,LAS VEGAS,NV,89118,(702) 362-3033,Not found
KEPPLE ENTERPRISES INC,34094 PACIFIC COAST HWY.,DANA POINT,CA,92629,(949) 240-1545,Not found
THE PLACE FURNITURE GALLERIES,1620 SOUTH STATE COLLEGE BLVD,ANAHEIM,CA,92806,(714) 935-0533,www.theplacefurnituregalleries.com/
FEDDERLY COMPANIES,110 CUSHMAN AVE,WEST BERLIN,NJ,8091,(856) 767-1999,Not found
"TED'S FLOOR COVERING, INC.",1640 BROADHOLLOW ROAD,FARMINGDALE,NY,11735,(631) 843-9393,www.www.tedsfloorcovering.com/
MCSWAIN CARPETS INC,118 EVERETT ROAD,ALBANY,NY,12205,(518) 489-4106,NOT FOUND
ABBEY CARPET OF NEW BRIGHTON,221 LIBBEY INDUSTRIAL PKWY,WEYMOUTH,MA,2189,(781) 335-8000,www.kennedycarpet.com
"ATLANTA WEST CARPETS, INC.",2222 COUNTY HIGHWAY 10,MOUNDS VIEW,MN,55112,(763) 398-3981,www.atlwest.com/
"DAVID'S CARPET SALES, INC.",5126 COMMERCIAL DR EAST,YORKVILLE,NY,13495,(315) 736-7723,NA
PROSOURCE WHSL FLRCOV SAN JOSE,601 MAIN STREET WEST,HAMILTON  ONTARIO  L8P1K9,CN,L8P1K9,(905) 527-2857,not found
"COOK & KOZLAK FLOORING CENTER,",P.O. BOX 23069,KNOXVILLE,TN,37933-1069,(865) 777-0661,www.cookkozlak.brandsource.biz
T J KELLEY INC,P.O. BOX 311,CANTON,CT,6019,(860) 693-2202,Not found
CARPET GIANT OF OSSINING INC.,252 BROADWAY,LONG BRANCH,NJ,7740,(732) 332-0900,Not found
ATLAS INTERIOR HOME FASHIONS,712 DELSEA DRIVE,PITMAN,NJ,8071,(856) 589-4000,http://interiordesignerchennai.om2home.com/
"CINDERELLA SHOWCASE, INC.",139 CROTON AVENUE,OSSINING,NY,10562,(914) 762-5068,www.cinderellacarpetone.com
"CDK CARPET, INC.",935 RT 73 SOUTH,MARLTON,NJ,8053,(856) 985-5550,NOT FOUND
C & K CORPORATION,42598 WOODWARD AVE.,BLOOMFIELD HILLS,MI,48304-5030,(248) 333-7086,www.ck-components.com/
INTERIORS BY PATRICE CURY INC,7 WEST AVENUE,WAYNE,PA,19087,(610) 989-9339,http://philadelphia.gopickle.com
"ELITE FLOOR DESIGN, INC.",PO BOX 948,ASHBURN,VA,20147,(703) 726-9538,http://www.hdwfg.com/valueblind/products/products/sb.cn?productId=66&required=0
PROSOURCE OF DENVER,1703 N.W. FEDERAL HWY,STUART,FL,34994,(772) 692-2561,Not found
DESIGNERS' RUG CENTER,711 E 134TH STREET,BRONX,NY,10454,(718) 292-5900,www.designersrugcenter.com/
DESIGN IDEAS,3184 NE 12TH AVE,FT. LAUDERDALE,FL,33334,(954) 463-0361,Not found
"CARPET DEN, INC.",13380 MID ATLANTIC BLVD,LAUREL,MD,20708,(301) 206-2200,http://www.carpetden.com/
PROSOURCE WHOLESALE,1611 RAILROAD STREET,HEIDELBERG,PA,15106,(412) 276-2076,www.prosourcefloors.com/
GWEN M CHRISTENSEN,9245 N. GOVERNMENT WAY,HAYDEN,ID,83835,(208) 772-5658,not found
CORNERSTONE INTERIORS,7951 MELROSE AVENUE,LOS ANGELES,CA,90046,(323) 653-4653,www.cornerstoneinteriors.com/
RHODES CARPET & DRAPERIES,3200 SOUTH 24TH STREET,KANSAS CITY,KS,66106,(913) 261-6800,NOT FOUND
LUMBER DEALER'S SUPPLY,12273A HWY 67,BILOXI,MS,39532,(228) 432-2501,NOT FOUND
"INTERSOURCE, INC.",17770 CHESTERFIELD AIRPORT RD.,CHESTERFIELD,MO,63005-1212,(636) 728-1600,www.intersource.com/
PATERSON FLOORCOVERING INC,4198 OLD COLLINSVILLE ROAD,BELLEVILLE,IL,62226,(618) 277-7233,http://www.customfloors.biz/
MALKIN'S CARPETS INC.,741 BARRON AVENUE,REDWOOD CITY,CA,94063,(650) 364-4141,http://www.malkinscarpets.com
TURLOCK FLOORCOVERING,1439 S. STATE COLLEGE BLVD,ANAHEIM,CA,92806,(714) 533-6500,Not found
LEE DESIGN AND INTERIORS,N95 W17055 RICHFIELD WAY,MENOMONEE FALLS,WI,53051,(262) 255-1400,www.leedesignandinteriors.com
DOROTHY EWALD INC.,228 N. FIRST ST,TURLOCK,CA,95380,(209) 632-4680,not found
INTERIORS BY JOANN,405 RT. 130 EAST WINDSOR,EAST WINDSOR,NJ,8520,(609) 443-6999,www.interiorsbyjoannoc.com/
F & G FLOOR FASHIONS,P.O. BOX 11387,GREEN BAY,WI,54307-1387,(920) 494-3461,Not found
WELDON INC.,508 ERASTE LANDRY DRIVE,LAFAYETTE,LA,70506,(337) 234-8098,not found
F & M FLOOR COVERING CORP,1957 W 14TH AVENUE,DENVER,CO,80204,(303) 825-1112,http://aztecrugbinding.com/
"WESTCHESTER CARPETS, INC.",7400-B LINDBERGH DR,GAITHERSBURG,MD,20879,(301) 258-8000,Not found
ANDREW J BOYAJIAN INC,600 AMSTERDAM AVE,NEW YORK,NY,10024,(212) 362-1702,not found
MACCO'S FLOOR COVERING CENTER,22133 S. VERMONT AVE.,TORRANCE,CA,90502,(310) 787-0704,NOT FOUND
"WALTER E. SMITHE FURNITURE, IN",9 BEDFORD STREET,BURLINGTON,MA,1803,(781) 272-7600,www.smithe.com
MESA'S FLOOR COVERING,2035 LARSEN ROAD,GREEN BAY,WI,54303,(920) 432-5501,www.mesafloor.com/
PRO SOURCE OF HAMPTON ROADS,1251 WEST THORNDALE,ITASCA,IL,60143,(630) 285-8000,http://www.cocooncarpets.com/
ARTEMIS INC.,16463 LOS GATOS BLVD.,LOS GATOS,CA,95032,(408) 356-3114,Not found
"FLOOR SYSTEMS, INC",641 DIVISION STREET,NASHVILLE,TN,37203,(615) 777-3344,www.myersflooringnashville.com
JOSEPH J. MCDONNELL ENT. INC.,PO BOX 845,DALTON,GA,30722,(706) 277-4053,www.customcarpetcenters.com
CARPET PALACE BETHESDA,S-2847 SOUTHWESTERN BLVD,ORCHARD PARK,NY,14127,(716) 674-0678,www.customcarpetcenters.com
"BUYING SERVICE GROUP, INC.",7351 WISCONSIN AVE,BETHESDA,MD,20814,(301) 718-0020,Not found
CARPETTE MULTI DESIGN C.M.D.,910 ENTERPRISE WAY,NAPA,CA,94558,(707) 224-6994,http://www.carpettemultidesign.com/
"REDI CARPET SALES, INC.",8136 DECARIE,MONTREAL QUEBEC    H4R1X1,CN,H4P2S8,(514) 344-8877,Not found
DESIGNERS STUDIO 402,1310 STUART ENGALS BLVD,MT PLEASANT,SC,29464,(843) 881-6868,http://www.palmettocarpetandflooring.com/
W C FOWLER CARPET/SERVICE INC,8400 S. TACOMA WAY,TACOMA,WA,98499,(253) 588-6677,Not found
CARPET GALLERIA,665 MILLWAY AVE #20,CONCORD ONT        L4K3T8,CN,L4K3T8,(905) 738-7295,http://www.carpetgalleria.com/
B&T INC,4820 ATLANTA HWY,ALPHARETTA,GA,30004,(770) 753-9878,Not found
"CARPET DESIGNERS, INC.",1660 SOUTH OXNARD BLVD,OXNARD,CA,93030,(805) 486-8887,www.carpetdesignersinc.com/
CARPET VALUE CENTER LTD,741 SOUTH HURON STREET,DENVER,CO,80223,(303) 777-6277,NOT FOUND
MIDA INC,1168 W 4TH STREET,WINSTON SALEM,NC,27101,(336) 725-8226,not found
"TAYLOR CARPET ONE, INC.",3041 GOLANSKY BLVD,WOODBRIDGE,VA,22192,(703) 670-8200,Not found
JORAN'S INC,21465 BRICE CASCADES PLAZA,STERLING,VA,20164,(703) 450-8181,NOT FOUND
DESIGNER RUGS,12960  METRO PARKWAY,FT. MYERS,FL,33912,(239) 561-1199,NOT FOUND
INTERIOR DESIGN STUDIO,7118 N. WESTERN AVE,OKLAHOMA CITY,OK,73116,(405) 842-9000,Not found
CARPET VILLA LIMITED,34300 SOLON RD.,SOLON,OH,44139,(440) 248-2424,www.sedlakinteriors.com
SAUDER FURNITURE,17670 MACK AVE,GROSSE POINTE,MI,48230,(313) 884-2991,www.sauder.com
DAVID'S CARPET & TILE INC,1170 SHEPPARD AVE.W UNIT 28-31,TORONTO ONTARIO M3K 2A3,CN,M3K 2A3,(416) 630-1533,www.carpetvilla.ca
KBM COMMERCIAL FLOOR COVERINGS,317 N. MAIN,ROANOKE,IL,61561,(309) 923-5221,not found
CHAPPIES CARPET & FLOORS,510 HIGHLAND PARKWAY,NORMAN,OK,73069,(405) 321-5665,Not found
GEORGE GOEDECKE & SON INC,3913 CLARK RD,SARASOTA,FL,34233,(941) 923-5499,Not found
INDIANAPOLIS CUSTOM CARPETING,1833 SOUTH MAY AVENUE,OKLAHOMA CITY,OK,73108,(405) 681-2121,NOT FOUND
VALUE PLUS FLOORING INC,284 ROUTE 101,BEDFORD,NH,3110,(603) 472-5221,http://www.goedeckepaintanddecorating.com/
RANDOLPH FLOORING & CABINETRY,7040 AVENIDA ENCINAS #103,CARLSBAD,CA,92009,(760) 431-1300,www.randolphflooringmd.com/
ARMSTRONG CARPET & LINOLEUM,5600 RANDOLPH ROAD,ROCKVILLE,MD,20852,(301) 770-5600,www.randolphflooringmd.com
"DEGRAAF INTERIORS, INC",WEST 126TH RTE 4,PARAMUS,NJ,7652,(201) 843-2111,www.degraafinteriors.com
"BAF, INC",369 WEST PORTAL AVENUE,SAN FRANCISCO,CA,94127,(415) 751-2827,www.baf.co.jp/
INTERMOUNTAIN FLOOR & DESIGN,"5282 PLAINFIELD, NE",GRAND RAPIDS,MI,49525,(616) 363-3513,Not found
CALIFORNIA FLOORING,2225 S EL CAMINO REAL,SAN MATEO,CA,94403,(650) 358-2580,www.bayareafloors.com
JMPDS INC.,142 N CEDROS AVE,SOLANA BEACH,CA,92075,(858) 259-8602,cafloorskitchen.blogspot.com
BEATTY FLOORS LTD,715 N. MOUNTAIN AVE,UPLAND,CA,91784,(909) 981-0045,NOT FOUND
DUNNING DESIGN CENTER,1840 PANDORA STREET,VANCOUVER V5L1M7,CN,V5L1M7,(604) 254-9571,na
PENDINO FLOORING COMPANY,406 JERICHO TPKE,FLORAL PARK,NY,11001,(516) 352-3898,not found
ATLANTIC FLOORS INC.,152 LAKEVIEW AVE,WEST HARRISON,NY,10604,(914) 683-8573,http://www.atlanticfloors.com/
MEUTH CARPET & SUPPLY INC.,2037 WASHINGTON AVE,PHILADELPHIA,PA,19146,(215) 389-7363,not found
NAMPA FLOORS & INTERIORS,3809 PICKETT ROAD,FAIRFAX,VA,22031,(703) 359-4900,Not found
CALIFORNIA FLOORING & FURN,8088 ROBIN HILL ROAD,NEWBURGH,IN,47630,(812) 853-7361,not found
"FRAZIER'S FLOORING, INC",285 CENTRAL AVENUE,WHITE PLAINS,NY,10606,(914) 948-7267,Not found
INTERIORS,42212 10TH STREET W 2A,LANCASTER,CA,93535,(661) 951-2200,http://www.carpeteria.com/lancaster/
MOORE'S FLOORS INC.,4501 WESTERN AVENUE,KNOXVILLE,TN,37921,(865) 246-0153,Not found
WALTER FRANCO,615 JERSEY STREET,QUINCY,IL,62301,(217) 223-9921,NOT FOUND
"B & B MILL SALES, LLC",26 W GOLF ROAD,SCHAUMBURG,IL,60195,(847) 884-8949,not found
VALLEY GREEN CARPET COMPANY,4535 ARTESIA BLVD.,LAWNDALE,CA,90260,(310) 214-0818,Not found
MORRISSEY & THOMPSON RYAN INT.,1700 N. MAIN STREET,ORANGE,CA,92865,(714) 685-0060,www.mtrinteriors.com/
CALIFORNIA CUSHION & CARPET,807 BETHLEHEM PIKE,ERDENHEIM,PA,19038,(215) 836-2254,Not found
LEAVER & COMPANY,1248 GALLATIN PIKE S.,MADISON,TN,37115,(615) 612-7847,not found
FLOORING & MORE CARPET ONE,6655 ELVAS AVENUE,SACRAMENTO,CA,95819,(916) 456-0868,http://www.robertallendesign.com/
"RABY COMPANIES, INC",668 BETHLEHEM PIKE  STE C,MONTGOMERYVILLE,PA,18936,(215) 361-9100,NOT FOUND
ABBEY CARPET OF NAPLES(CORP),4848 RIVER ROAD,COLUMBUS,GA,31904,(706) 324-4451,www.columbusflooringandmore.com
"BUY DIRECT, INC","6812 ACADEMY PARKWAY EAST,NE",ALBUQUERQUE,NM,87109,(505) 244-3165,www.directbuy.com/
"CARROLL LOWE, INC.",25321 BERNWOOD DRIVE,BONITA SPRINGS,FL,34135,(239) 948-0900,NOT FOUND
CARPET CREATIONS,1605 W HILL FIELD RD STE 100,LAYTON,UT,84041,(801) 444-7350,http://www.carpetcreations.com/
LYNN DONALDSON & ASSOC,724 DANBURY ROAD,RIDGEFIELD,CT,6877,(203) 438-9292,not found
KLOKA DESIGN GROUP LLC,3305 NORTH S STREET,PENSACOLA,FL,32505,(850) 432-7000,www.creationcarpets.com
"GREAT FALLS FLOORS, INC.",6503 ELBOW DRIVE SW,CALGARY ALBERTA T2V 1J7,CN,T2V 1J7,(403) 263-6296,NA
"RPM CARPETS, INC.",1025-K SENECA ROAD,GREAT FALLS,VA,22066,(703) 759-9200,http://www.rpmcarpets.com/
ACE FLOORING,1088 CENTRAL PARK,SCARSDALE,NY,10583,(914) 725-2424,NOT FOUND
"CSCOBA, INC",192 ROUTE 137,EAST HARWICH,MA,2645,(508) 432-4151,Not found
LILLIAN AUGUST DESIGN,12962 SW 89 AVE,MIAMI,FL,33126,(305) 238-2593,www.lillianaugust.com/
"HIGH TECH CARPETS, INC",277 MARGINAL WAY,PORTLAND,ME,4101,(207) 775-2434,Not found
"DUGAN PAINTS, INC",32 KNIGHT STREET,NORWALK,CT,6851,(203) 847-1596,NOT FOUND
COMPLEMENTS DECORATING INC,2020 D RUTLAND DRIVE,AUSTIN,TX,78758,(512) 834-0110,Not found
DANCO INC.,P O. BOX 1385,SEDALIA,MO,65302,(573) 348-9017,Not found
GEARING HADINGER CARPET INC,3856 DULLES SOUTHCOURT STE F,CHANTILLY,VA,20151,(703) 255-6000,not found
"THE MARKS ORGANIZATION, INC",8 B HERMAN DRIVE,SIMSBURY,CT,6070,(860) 651-8406,www.action-carpet.com/
"LOOM, INC",16133 S. TAMIAMI,FT. MYERS,FL,33908,(239) 415-3377,www.floorstogo.com
V F INC,206 W. ROUTE 59,NANUET,NY,10954,(845) 623-3432,http://www.vfc.com
AMERICA'S FLOOR SOURCE LLC,28191 MARGUERITE PARWAY,MISSION VIEJO,CA,92692,(949) 347-1501,http://www.americasfloorsource.com/
INTERNATIONAL RUGS & INTERIORS,210 COURT PLACE,PLAINFIELD,NJ,7060,(908) 756-8000,http://www.hamrahrug.com/
GRAY FOX FLOORING,3442 MILLENNIUM COURT,COLUMBUS,OH,43219,(614) 237-3181,na
CARPETS OF HIGHWOOD,701 YUNKER STREET,MEKEES ROCKS,PA,15136,(412) 771-2345,http://www.lindersfinerugs.com/
THE CARPET LINE LTD.,16TH FLOOR,NEW YORK,NY,10018-3636,(212) 268-9140,Not found
"CAROLL RUG, INC.",440 SHERIDAN ROAD,HIGHWOOD,IL,60040,(847) 266-1400,http://www.carpetsofhighwood.com/
"FRONT RANGE INTERIORS, LLC",P.O. BOX 17457,BOULDER,CO,80308-0457,(303) 440-4429,www.frontrangeinteriors.com/
HERNANDEZ CARPETS,3291 WALDEN AVENUE,DEPEW,NY,14043,(716) 685-5041,www.hernandezwholesaleflooring.com/
"FLOOR COVERING RESOURCES, INC.",6601 TELEGRAPH ROAD,COMMERCE,CA,90040,(323) 838-5450,Not found
NAPLES FLOORING GALLERY INC,317 CHAPALA STREET,SANTA BARBARA,CA,93101,(805) 966-1606,NOT FOUND
"HOMESITE SERVICES, INC.",4212 HOWARD AVENUE,KENSINGTON,MD,20895,(301) 897-9226,http://www.homesiteservices.com/
JUNE DELUGAS INTERIORS,771 N AIRPORT RD SUITE 2,NAPLES,FL,34104,(239) 436-3640,www.junedelugasinteriors.com
VILLANO INTERIORS INC,101 PULLMAN STREET,LIVERMORE,CA,94551,(925) 237-3050,http://villanointeriors.com/
"CARLTON'S INTERIORS, INC.",2220 ELMHURST RD,ELK GROVE VILLAGE,IL,60007,(847) 437-3600,www.carltonsinteriors.com
CUSTOM SERVICES & FLOORING INC,555 E FRANCISCO BLVD.,SAN RAFAEL,CA,94901,(415) 454-4200,www.city-carpets.com
PS METRO INDIANAPOLIS LLC DBA,28350 ROADSIDE DRIVE,AGOURA HILLS,CA,91301,(818) 735-7825,Not found
EXCEL DESIGN,979 S. GENE AUTRY TRAIL,PALM SPRINGS,CA,92264,(760) 770-5778,Not found
SARMAZIAN BROTHERS LTD,6006 GRIGGS RD,HOUSTON,TX,77023,(713) 640-1115,Not found
COLLECTIVE FLOORING MILLS LTD,575 WOODLAWN ROAD WEST,"GUELPH, ONTARIO N1K 1E9",CN,N1K 1E9,(519) 837-2120,Not found
CALIFORNIA CARPET CENTER,6750 COLUMBUS RD,MISSISSAUGA      L5T 2G1,CN,L5T 2G1,(905) 795-9319,Official Website Not found
PROSOURCE GTA WEST,5842 LONETREE BLVD,ROCKLIN,CA,95765,(916) 626-6800,NOT FOUND
VENETIAN BLIND & FLOOR,1815 WEST RIVER ROAD,MINNEAPOLIS,MN,55411,(612) 588-7600,NOT FOUND
KAO'S PACIFIC INC,2504 BISSONNET,HOUSTON,TX,77005,(713) 528-2404,no website found
"MANCHESTER CARPETS CARE, INC",12623 METCALF AVENUE,OVERLAND PARK,KS,66213,(913) 327-8784,www.manchestercarpetcare.com/
BUFFALO ASSOCIATES LLC,19425 E WALNUT DRIVE SOUTH,CITY OF INDUSTRY,CA,91748,(800) 951-6888,not found
GALLATIN VALLEY FURNITURE,P.O. BOX 2077,MANCHESTER CENTER,VT,5255,(802) 362-2091,www.gvfc1.com/
"PETER PARACCA & SONS, INC.",923 N 7TH AVENUE,BOZEMAN,MT,59715,(406) 587-5423,www.paraccaflooring.com
"INTERIORS BY JONI BADER, INC",20254 RT. 19,CRANBERRY TOWNSHIP,PA,16066,(724) 776-2709,www.interiorsbyjonibader.net/
HAIGHT CARPET LLC,P.O. BOX 867,BINGHAMTON,NY,13902,(607) 722-6401,http://www.haightcarpet.com/
526874 ONTARIO LTD.,549 WORCESTER ST,NATICK,MA,1760,(508) 651-3500,None
TYSON CARPETS LIMITED,P O BOX 2076,WOODINVILLE,WA,98072,(425) 861-9070,not found
CLASSIC CARPETS & INT. INC.,238 CROSS AVENUE,OAKVILLE ONT   L6J 2W6,CN,L6J 2W6,(905) 842-0042,not found
LOUGHEED FLOORING,12660 BRIDGEPORT  ROAD,"RICHMOND, BC      V6V 1J5",CN,V6V 1J5,(604) 273-9674,Not found
HOME COVERINGS,802 S. 8TH STREET,FERNANDINA BEACH,FL,32034,(904) 261-0242,http://www.coveringsetc.com/
BRENT D MCCLURG,1100 LANSDOWN ROAD,COQUITLAM  BC     V3B5E2,CN,V3B5E2,(604) 942-4109,Not found
LIREMA INTERIORS,330 IDAHO MARYLAND RD,GRASS VALLEY,CA,95945,(530) 273-5568,Not found
THE BOULEVARD,PO BOX 278,SANTA YNEZ,CA,93460,(805) 688-8289,www.boulevardmall.com/
TODD RICHESIN INTERIORS LLC,25 POLLARD STREET,"RICHMOND HILL, ONT L4B1A8",CN,L4B1A8,(905) 731-7977,not found
MINNESOTA FLOOR CLUB,390 NORTH MALL DRIVE,ST GEORGE,UT,84791-0250,(435) 986-3100,not found
BRENTWOOD CARPETS,10005 CASA REAL COVE,KNOXVILLE,TN,37922,(865) 249-8170,www.brentwoodcarpets.com/
EDGAR & MINER CPT &  DRAPERIES,9201 BLOOMINGTON FREEWAY STEJJ,BLOOMINGTON,MN,55420,(952) 884-3114,Not found
VOGELS CARPETS,4600 PARAGON PARK RD,RALEIGH,NC,27616,(919) 872-2775,www.brentwoodcarpets.com
IMPERIAL CARPETS & RUGS LTD,481 JOHN STREET,VICTORIA  BC       V8T5H1,CN,V8T5H1,(250) 388-6208,not found
"CUSTER DESIGN GROUP, INC",8217 AURORA AVE N,SEATTLE,WA,98103,(206) 782-0909,www.custerdesigngroup.com
"FLEMING CARPET DISTRIBUTORS,",250 SW MARINE DRIVE,VANCOUVER  BC      V5X2R5,CN,V5X2R5,(604) 430-1030,www.imperialcarpets.com
"FLOOR 360, LLC",251 S LAKE DESTINY DRIVE,ORLANDO,FL,32810,(407) 660-8400,http://www.floor360.com/
LEVI ACQUISITION,39 4 STREET NORTHEAST,CALGARY ALBERTA  T2E 3R6,CN,T2E 3R6,(403) 283-3300,Not found
"MANASOTA FLOORING, INC",6329 BUSCH BLVD,COLUMBUS,OH,43229,(614) 846-4441,www.levis4floors.com
DESIGN GUILD,4551 N WASHINGTON BLVD.,SARASOTA,FL,34234,(941) 845-1900,not found
SSC CORPORATION,81 RONALD AVENUE,"TORONTO, ONTARIO M6E 4M9",CN,M6E 4M9,(416) 787-7676,NOT FOUND
ARONSONS INC,11335 MEREDITH DR,URBANDALE,IA,50322,(515) 270-0087,http://www.aronsonsfloors.com/
"HARMS CARPET CENTER, INC",340 CULVER RD,ROCHESTER,NY,14607,(585) 218-2080,www.harmsflooring.com
BRIDGEPORT CARPETS INC.,135 WEST 17TH STREET,NEW YORK,NY,10011,(212) 243-4993,www.aronsonsfloors.com
INTEGRITY FLOORS,1007 KEY STREET,MAUMEE,OH,43537,(419) 891-0900,http://www.integrityfloors.com/
PS FLOORCOVERINGS TORONTO LTD.,209 ARBOR GREEN RUN,ALPHARETTA,GA,30004,(770) 740-2306,NOT FOUND
MAGUIRE'S 5TH AVE FLOORS (FA),13205 TRIADELPHIA ROAD,ELLICOTT CITY,MD,21042,(301) 621-5002,not found
DESIGN IDEAS FENTON,2521-5TH AVE N.W,"CALGARY, ALBERTA  T2N 0T4",CN,T2N 0T4,(403) 270-2205,Not found
J HERBRO CORP,469 SUNRISE HIGHWAY,LYNBROOK,NY,11563,(516) 256-2800,NA
GREAT FLOORS INC,495 ROUTE 17,PARAMUS,NJ,7652,(201) 967-1250,NOT FOUND
STANDARD PACIFIC,6601 LYONS ROAD SUITE B-5,COCONUT CREEK,FL,33073,(561) 741-1833,http://www.flooringplus.com/bsfg.nsf/welcome/florsourcefl
SEVEN ACRES JEWISH SR CARE SER,15360 BARRANCA PKWY,IRVINE,CA,92618-2338,(949) 753-4500,http://www.sevenacres.org/
UNIQUE CPT INC,710 JEFFERSON STREET,ALEXANDRIA,VA,22314,(703) 548-8884,Not found
DONLEN INC,72 FRANKLIN AVE,BROOKLYN,NY,11205,(718) 643-1300,Not found
TERESA'S TILE & CARPET,100 S. NORTHWEST HWY,PALATINE,IL,60074,(847) 991-9494,not found
SOUTHOLD FLOOR COVERING,13520 TESSON FERRY RD,ST LOUIS,MO,63128,(314) 849-4420,not found
CLAY'S FLOORING & INTERIORS,PO BOX 1186,LAKE OZARK,MO,65049,(573) 365-7107,www.teresasfloortoceiling.com
"ALL COUNTY OFFICE INT., INC.",46025 ROUTE 48,SOUTHOLD,NY,11971,(631) 765-3663,Not found
"FURNISH YOUR HOME, INC.",1430 E. 9TH STREET,ROCHESTER,IN,46975,(574) 224-2529,NOT FOUND
BAKER BROTHERS FLOORCOVERING,505 HIGH STREET,EUGENE,OR,97401,(541) 431-0089,http://www.bakerbros.com/
PORTLAND CARPET CENTER,18814 S. CRENSHAW,TORRANCE,CA,90504,(604) 438-7464,Not found
CAP CARPET/CARPET ONE,10709 GILROY ROAD SUITE 150,HUNT VALLEY,MD,21031,(410) 329-9680,Not found
PATTY DOWNING INTERIORS INC,4374 MALAAI STREET,HONOLULU,HI,96818,(808) 423-0514,Not found
DAWSONS FLOOR FASHIONS,535 S. EMERSON,WICHITA,KS,67209,(316) 262-3491,www.dawsonsfloorfashions.com
THE DESIGN EXPO FLOORING CTR,2958 COLD SPRINGS RD.,PLACERVILLE,CA,95667,(530) 622-3798,www.dawsonsfloorfashions.com
CARPET WORLD OF WESTCHESTER,15443 EXCELSIOR DRIVE,BOWIE,MD,20716,(301) 262-8022,Not found
CARPET CENTRAL,140 MIDLAND AVENUE,PORT CHESTER,NY,10573,(914) 690-0424,Not found
"DESIGN PARTNERS, LLC",7463 MASON KING COURT,MANASSAS,VA,20109,(703) 331-1230,not found
BRANDON DAVIDSON INTERIORS LLC,1855 DEERFIELD ROAD,HIGHLAND PARK,IL,60035,(847) 579-5044,www.brandondavidsoninteriors.com
ADDISON/DICUS COMPANY INC.,11-B COMMERCE ROAD,ROCKLAND,MA,2370,(781) 331-5505,NOT FOUND
"ACKER FLOORING, INC",6815 NORTHAMPTON WAY,HOUSTON,TX,77055,(713) 334-0077,not found
PROSOURCE OF SOUTH JERSEY,1177 CALEDONIA ROAD,TORONTO ONTARIO   M6A2X6,CN,M6A2X6,(416) 783-8838,http://www.carpetandhome.com/
DESIGNERS CPT. & RUG SOURCE,2919 MARKET PLACE DRIVE,FITCHBURG,WI,53719,(608) 273-1967,http://www.ackerfloortoceiling.net/index.html
CHRISJON INC,903 MACY DR,ROSWELL,GA,30076,(770) 640-7075,NOT FOUND
DIRECT LINE CARPETS II INC,1730 CONNECTICUT AVENUE,WASHINGTON,DC,20009,(202) 483-8800,http://www.carpetandfloordesigns.com
PRYDE'S PAINT & PAPER,900 MINNESOTA AVE,KANSAS CITY,KS,66101,(913) 342-4123,Not found
GREAT FLOORS LLC,355 CEDAR BRIDGE AVE,LAKE WOOD,NJ,8701,(732) 370-3669,http://www.greatfloors.com/
A.C. RAMIREZ FLOOR COVERING,2804 MARCONI AVE,SACRAMENTO,CA,95821,(916) 487-8775,NOT FOUND
BRIAN BARNARDS FLOORING AMERIC,1275 BOSTON POST ROAD,WESTBROOK,CT,6498,(860) 399-6161,Not found
BRYAN'S CARPET,503 W. LANCASTER AVENUE,WAYNE,PA,19087,(610) 688-8520,Not found
MICHAEL DONNELLY & CO,2731 CAPITOL CIRCLE NE,TALLAHASSE,FL,32308,(850) 386-8689,http://michaeldonnellyco.com/
SHEA HOMES,601 W I-240 SERVICE ROAD,OKLAHOMA CITY,OK,73139,(405) 634-4136,NOT FOUND
"K & L CARPETS, INC.",4100 JACOB STREET,WHEELING,WV,26003,(304) 232-6640,www.kandlcarpetcleaners.com
TAMERA EMBREE DESIGNS,344 BOSTON POST ROAD EAST,MARLBORO,MA,1752,(508) 480-8552,Not found
GREENSPRING CARPET INC.,2920 S W 30TH AVE,PEMBROKE PARK,FL,33009,(954) 454-6993,www.notjustcarpetwarehouse.com
LISA GIELINCKI INT DESIGN INC,2147 GREENSPRING DRIVE,TIMONIUM,MD,21093,(410) 561-9200,NOT FOUND
DOUG'S CARPET HOUSE,10 4623 BOW TRAIL SW,CALGARY AB       T3C 2G6,CN,T3C 2G6,(403) 246-1477,Not found
HEMLOCK INTERIORS,4901 JEFFERSON DAVIS HWY,FREDERICKSBURG,VA,22408,(540) 898-0003,www.carpethouseva.com
WHOLESALE FLOORING OF JACKSONV,1002 N CENTRAL STE 601,RICHARDSON,TX,75080,(918) 794-6343,NOT FOUND
DESIGNERS CHOICE,318 S MAIN STREET,RICE LAKE,WI,54868,(715) 736-1414,NOT FOUND
COURTESY CARPET INC.,9102 NIEMAN,OVERLAND PARK,KS,66214,(913) 492-3800,NOT FOUND
CHOICE FLOORING COMPANY,921 WHITE PLAINS ROAD,TRUMBULL,CT,6611,(203) 261-2597,www.choiceflooring.co.uk
"THE FLOOR STORE OF VA., INC.",9541 BRADDOCK ROAD,FAIRFAX,VA,22032,(703) 978-2603,1429 WEST PIONEER PARKWAY
CARPETS,1334-A SHEPARD DRIVE,STERLING,VA,20164,(703) 430-6400,http://floorstoreva.brandsource.biz/
LUNA CARPET AND BLINDS,4304 EAST LA PALMA AVENUE,ANAHEIM,CA,92807,(714) 961-1334,www.myerscarpet.com/ -
JOHNSON & HODSON INTERIOR DES,445 WEST MAIN STREET,HYANNIS,MA,2601,(508) 775-6100,not found
"WOVEN FLOORS, INC",10 N. DAVIS DRIVE,BELLWOOD,IL,60104,(773) 202-5862,Not found
"CARPET SPECIALISTS, INC",2 HILLTOP ROAD,MENDHAM,NJ,7945,(973) 543-8110,not found
MARTY'S CONTRACT CARPET,2101 STANLEY GAULT PARKWAY,LOUISVILLE,KY,40223,(502) 245-0221,http://carpetspecialistsonline.com/
LARRY J LINT,99264 U.S. 1,KEY LARGO,FL,33037,(305) 451-4460,Not found
BROADWAY CARPET INC.,191 NORTH EL CAMINO REAL #112,ENCINITAS,CA,92024,(760) 436-9030,www.broadwaycarpet.com
"CAPITOL CARPET, INC.",P.O. BOX 216,WENDEL,PA,15691,(724) 446-0480,Not found
EMPIRE CARPET & BLIND INC.,930 N. BROADWAY,KNOXVILLE,TN,37917,(865) 525-5511,www.broadwaycarpets.com
BREWER CARPET & DESIGN,500 INDUSTRIAL WAY,BOYNTON BEACH,FL,33426,(561) 533-9800,www.capitolcarpetandtile.com
"BOND ENTERPRISES, INC",10500 MCMULLEN CREEK PKWY,CHARLOTTE,NC,28226,(704) 541-3988,http://www.bondenterprisesiowa.com/
MERCER CARPET ONE INC,300 S. PORTLAND,OKLAHOMA CITY,OK,73108,(405) 946-2341,www.carpetone.com
CARPET KING,26 WEST MAIN STREET,WESTMINSTER,MD,21157,(410) 876-2026,http://www.carpet-king.com/
"RUGS TO RICHES, INC",PO BOX 31179,LITTLE ROCK,AR,72260,(501) 954-8866,www.inside-effects.com
RENEE GUTHRIE DESIGN,72 CONNECTICUT AVENUE,NORWALK,CT,6854,(203) 838-0808,NOT FOUND
UNIQUE DESIGNS,1 RTE 31 S,FLEMINGTON,NJ,8822,(908) 782-8010,Not found
"CASUAL ELEGANCE BY KRISTY,INC.",P.O. BOX 31546,CHARLESTON,SC,29407,(843) 571-0013,Not found
FASHION FLOORS OF ROANOKE INC,830 SR 436,CASSELBERRY,FL,32707,(407) 265-9566,http://creativefloorsonline.com/
STEIN FINDS,4393 ELECTRIC ROAD,ROANOKE,VA,24014,(540) 774-2990,Not found
"PULTE HOMES, INC",8111 HWY 107,SHERWOOD,AR,72120,(501) 835-0492,Not found
LMC DESIGN GROUP,767 CENTER BLVD.,FAIRFAX,CA,94930,(415) 455-8882,http://lmcdesigngroup.com/
GCW CARPET WHOLESALERS,4524 BRAZIL ST. UNIT 8,LOS ANGELES,CA,90039,(818) 247-2990,na
BIXBY PLAZA CARPETS INC,555 S. HENDERSON RD,KING OF PRUSSIA,PA,19406,(610) 757-2000,NOT FOUND
GOLD RIVER FLOORS,714-847-2828,HUNTINGTON BEACH,CA,92648,(714) 847-2828,www.goldriverflooring.com
NORTHWEST INTERIORS INC.,1914 ROUTE 57,HACKETTSTOWN,NJ,7840,(908) 852-3336,Not found
SHELTON LEE FLRG SPECIALTIES,11367 PYRITES WAY #A,RANCHO CORDOVA,CA,95670,(916) 638-5563,http://www.sheltonleeflooring.com/
"BAY FLOORING & DESIGN, INC",3999 I-45 NORTH,CONROE,TX,77304,(936) 442-2050,not found
BEATRICE & MARTIN INC.,399 N. SECTION STREET,FAIRHOPE,AL,36532,(251) 928-5625,not found
RUBENSTEINS'S,18167 VILLAGE MART DRIVE,OLNEY,MD,20832,(301) 924-7331,Not found
VIVID INTERIORS,2320 SOUTH KELLY AVE,EDMOND,OK,73013,(405) 340-8226,www.vividinteriors.com
CAROL SNYDER & ASSOCIATES,173 NORTH MAIN STREET,PORT CHESTER,NY,10573,(914) 937-5885,Not found
THE DECORATIVE TOUCH,1050 SKILLMAN DRIVE,CINCINNATI,OH,45215,(513) 771-2345,Not found
FORAN INTERIOR DESIGN LLC,168 GROVE STREET,FRANKLIN,MA,2038,(508) 528-2713,Not found
SAMALCO LLC,"501 AVENUE U",BROOKLYN,NY,11223,(718) 376-6065,Not found
AGSH LLC,4140 WATERLAND DR N,METAMORAR,MI,48455,(810) 797-5121,agsengineering.com
COPELAND'S CHEESECAKE BISTRO,5951 S 180TH STREET,TUKWILA,WA,98188,(425) 637-0888,http://tukwila.bassettfurniture.com/
CONSUMER OFFICE FURNITURE,P.O. BOX 16055,HATTIESBURG,MS,39404,(601) 545-7198,Not found
SHADES OF DESIGN,201 MARKET STREET W.,GAITHERSBURG,MD,20878,(240) 683-1022,http://www.shadesofdesigninc.com/
"PIEDMONT FLOORING & DESIGN,INC",13422 GRANT ROAD,CYPRESS,TX,77429,(281) 370-8022,Not found
THE FLOOR SHOW INC.,2915 RED HILL AVENUE,COSTA MESA,CA,92626,(714) 557-5150,Not found
LANGSTON INTERIORS,12 MINNEAKONING ROAD,FLEMINGTON,NJ,8822,(908) 237-1009,Not found
FRED'S CARPET,23760 MILES ROAD,BEDFORD HEIGHTS,OH,44128,(216) 662-5550,www.calvettabrothers.com
PROSOURCE OF DAYTON,318 LARKFIELD ROAD,EAST NORTHPORT,NY,11731,(631) 368-1850,Not found
CLAGHORN CUSTOM FLOORING INC.,739 HOFF ROAD,O'FALLON,MO,63366,(636) 978-8440,www.carpetartofamerica.com
RPR CONSTRUCTION CO,100 NORTH FIRST STREET,ZIONSVILLE,IN,46077,(317) 873-6202,NOT FOUND
WJF ENTERPRISES LTD,301 SSE LOOP 323,TYLER,TX,75702,(903) 596-0346,www.none.com
ATLANTIC CARPET & TILE INC,443 ATLANTIC AVENUE,BROOKLYN,NY,11217,(718) 855-2794,www.atlanticcarpet.com
MODERN CARPET INC.,284 OLD DEAL RD,EATONTOWN,NJ,7724,(732) 345-1500,NA
CHIMERE,1530 ELLSWORTH IND. BLVD NW,ATLANTA,GA,30318,(404) 352-0072,Not found
NORTHPARK FLOORING,4319 ST. BARNABAS ROAD,TEMPLE HILLS,MD,20748,(301) 702-1111,http://www.northparkflooring.com/
"FLOORSMART, INC.",8501-1-B TYCO ROAD,VIENNA,VA,22182,(703) 883-8010,www.homedesigncenterandflooring.com
C&F CARPET AND FLOORING,50 SPRING ST.,RAMSEY,NJ,7446,(973) 597-9000,not found
CARPET ROYALE & RUG INC.,3113 HILLSBOROUGH ROAD,DURHAM,NC,27705,(919) 286-5570,"http://www.frazeecarpet.com/index.html

Same info"
CARILLON FLOOR CENTER,117 RIDGEWAY DRIVE,LITTLE ROCK,AR,72205,(501) 399-9909,www.carillonrugs.com/
CARPETERIA,1700 BRACKNELL DRIVE,RESTON,VA,20194,(703) 471-4442,http://www.carpeteria.com/
UNIVERSAL INTERIORS,29450 US HWY 19 NORTH,CLEARWATER,FL,33761,(727) 442-9538,Not found
WILLIAM ALLISON DESIGN,1933 DAVIS ST #102,SAN LEANDRO,CA,94577,(510) 615-4780,http://www.williamallisondesign.com/
ANGELA MORTON INTERIOR DESIGN,1337 VILLAGE GREEN DRIVE,DECATUR,IN,46733,(260) 724-2180,Not found
PIONEER HOME SUPPLY,895 CENTURY STREET,WINNIPEG  R3H 0M3,CN,R3H 0M3,(204) 783-9600,Not found
"CARPET CONSULTANTS, INC.",P O BOX 841,BELMONT,CA,94002,(415) 543-1234,not found
FASHION CARPETS INC.,2323 S. BUTTE AVENUE,TEMPE,AZ,85282,(602) 369-7031,Not found
"DESIGNERS EXPO, LLP",80 BROADWAY,NORWOOD,MA,2062,(781) 769-3262,None
LAIGLE FLOORCOVERING & DESIGN,2425 SOUTH 16TH STREET,LA CROSSE,WI,54601,(608) 788-4034,NOT FOUND
JPF INC.,P.O. BOX 987,CANAAN,CT,6018,(860) 824-7325,www.laiglefloorcoveringanddesign.com
"CARPETS BY JOHN RAPER, INC.",2040 LAFAYETTE ROAD,PORTSMOUTH,NH,3801,(603) 436-3422,http://portsmouthflooring.com/
THE ELITE COMPANIES OF SOUTH,PO BOX 9 (I-75 AT COMMECTORS3),DALTON,GA,30722,(706) 277-1151,http://www.elitecompanies.net
"V/A FLOORING,INC.",8917 GLENWOOD AVENUE,RALEIGH,NC,27617,(919) 881-7887,NOT FOUND
"PRISTINE STONE, INC.",2151 ALTERNATE A1A S STE 1100,JUPITER,FL,33477,(561) 748-7044,http://www.pristinestone.com/
THE RUG MART INC.,633 S. SAN FERNANDO BLVD.,BURBANK,CA,91502,(818) 843-4773,Not found
"AUDREY DROUGHT DESIGN, INC.",8100 ULMERTON RD,LARGO,FL,33773,(727) 724-4201,www.audreydroughtdesign.com
CHAPTER I DESINGERS WAREHOUSE,P.O. BOX 456,FLEMINGTON,NJ,8822,(908) 782-3831,Not found
YOUR FLOORS INC,121 TALCOTT ROAD,WEST HARTFORD,CT,6110,(860) 523-8131,not found
PROSOURCE OF SAN DIEGO,1327 ALUM SPRINGS RD,FREDERICKBURG,VA,22401,(540) 368-1922,www.yourfloors.flooringplus.com
CREATIVE TOUCH INTERIORS,#1-2301 MILLAR AVE.,SASKATOON S7M 5A8,CN,S7M 5A8,(306) 244-1973,http://www.ctihome.com/
TERRI CORATOLA,8400 MIRAMAR RD. STE 140,SAN DIEGO,CA,92126,(858) 547-3400,www.terricoratolainteriordesign.com/
"ARNQUIST HOME CENTER, INC.",7100 WESTWIND  STE.145,EL PASO,TX,79912,(915) 585-2600,NOT FOUND
"GATEWAY TEXTILES, INCORPORATED",410 30TH AVENUE EAST  #106,ALEXANDRIA,MN,56308,(320) 763-8050,Not found
IDEAL FLOOR COVERING,3251 RICHMOND AVENUE,STATEN ISLAND,NY,10312,(718) 605-0909,NOT FOUND
THE WRIGHT TOUCH,6805 MANCHACA RD,AUSTIN,TX,78745,(512) 280-6210,http://carpetsbyconrad.com/
"SMITH WHOLESALE FLOORING,LLC",332 IYANNOUGH RD,HYANNIS,MA,2601,(508) 790-2577,http://www.idealfloor.com/home
VERONA CARPET SHOP LLC,2378 CHAMBLEE TUCKER ROAD,ATLANTA,GA,30341,(770) 986-2100,www.veronacarpetshop.com/
FLOOR EXPO INC,770 BLOOMFIELD AVE,VERONA,NJ,7044,(973) 239-6666,NOT FOUND
HOWELL SERVICES,1133 S PLATTE RIVER DR,DENVER,CO,80223,(303) 744-3300,NOT FOUND
"MCCURLEY'S FLOOR CENTER, INC.",461 ROUTE 46 WEST,FAIRFIELD,NJ,7004,(973) 276-0039,Not found
SLAUGHTERBECK FLOORS,1417 CHATTAHOOCHEE AVE,ATLANTA,GA,30318,(770) 916-0989,Not found
LEGACY FLOOR COVERING,3191 M CROW CANYON PLACE,SAN RAMON,CA,94583,(925) 866-2200,www.macfloor.com
SOUTHERN FURNITURE & INTERIORS,730 CAMDEN AVE,CAMPBELL,CA,95008,(408) 379-5813,Not found
HARBOUR GLEN INC.,2471 I 40 WEST,AMARILLO,TX,79109,(806) 331-0094,NOT FOUND
ALLAN RUG COMPANY LIMITED,11656 LILBURN PARK RD,ST. LOUIS,MO,63146,(314) 739-2555,http://www.championfloor.com/
DOOR COUNTY NATURE WORKS,14250 VENTURA BLVD.,SHERMAN OAKS,CA,91423,(818) 783-6733,NOT FOUND
DOUGLAS FLOOR COVERING INC,103 MIRANDA AVE,TORONTO          M6B3W8,CN,M6B3W8,(416) 787-1707,NOT FOUND
KIRKLAND CARPET & FLOORING,PO BOX 80,EGG HARBOR,WI,54209,(920) 868-2651,www.kirklandfloortoceiling.com/
"PARACCA INTERIORS, INC",PO BOX 221,NORTH AURORA,IL,60542,(630) 892-8600,NOT FOUND
"M & Z CARPETS, INC",PO BOX 41756,NASHVILLE,TN,37204,(615) 732-0345,Not found
LOUDOUN CARPET CARE,1000 PITTSBURGH RD,VALENCIA,PA,16059-3230,(724) 586-7777,Not found
"SOUTHWEST FLOOR DESIGN, INC.",4747 JONESTOWN ROAD,HARRISBURG,PA,17109,(717) 545-5531,Not found
"CUSTOM TOUCH FLOORING, LLC",129-C NORTH BAILEY LANE,PURCELLVILLE,VA,20132,(703) 777-8056,www.customtouchinteriors.net/
FLOORS TO GO OF N PLAINFIELD,7935 AIRPORT PULLING RD N,NAPLES,FL,34109,(239) 659-6431,Not found
"SCHRADER HOME INTERIOR, INC.",392 SOMERSET STREET,NO. PLAINFIELD,NJ,7060,(908) 753-0044,not found
CARPET DIRECT CORPORATION,195 HEALY BLVD.,HUDSON,NY,12534,(518) 828-2595,Not found
CUSTOM OPULENT INTERIORS,695 INDUSTRIAL ROAD,SAN CARLOS,CA,94070,(650) 591-3355,not found
"ALL PRO RESTORATION, INC.",P. O. BOX 488,CALHOUN,GA,30703,(864) 627-0000,Not found
CENTURY FLOORING DISTRIBUTORS,1362 HAMEL RD.,MEDINA,MN,55340,(763) 478-3946,www.centuryflooring.com
VILLAGE CARPET SHOPPE,P. O. BOX 160,KINGSVILLE,MD,21087,(410) 879-7499,NOT FOUND
CARPET SUPERMART,7295 N. W. 41ST STREET,MIAMI,FL,33166,(305) 594-9922,Not found
ARNOLD SCHULMAN DESIGN GROUP,504 MAIN STREET,READING,MA,1867,(781) 944-3010,Not found
CABINET CONCEPTS & INTERIORS,4114 SPRING GARDEN STREET,GREENSBORO,NC,27407,(336) 292-0724,www.carpetsupermart.com
"WHALEN'S FLOORING, INC.",470 BAYSHORE BLVD,SAN FRANCISCO,CA,94124,(415) 824-4056,NOT FOUND
SIGNATURE FLOORS & DESIGN,"246 FIFTH AVENUE, SUITE 304",NEW YORK,NY,10001,(212) 843-9464,Not found
CARPET SOUTH DESIGN INC,3361 NE 6TH TERRACE UNIT 4,POMPANO BEACH,FL,33064,(954) 943-9394,Not found
STRAUS MAINTENANCE COMPANY,6835 SHILOH ROAD  STE. C-8,ALPHARETTA,GA,30005,(770) 205-2899,na
EXCEPTIONAL FLOORING CONCEPTS,PO BOX 19112,CHARLOTTE,NC,28219-9112,(704) 523-2221,Not found
BRYSON FLOORING,241 CEDAR KNOLLS RD,CEDAR KNOLLS,NJ,7927,(973) 585-7635,NOT FOUND
CARPET DIRECT LIMITED,56 CHASIERS CENTER,CASHIERS,NC,28717,(828) 743-9919,NOT FOUND
"PLOUTOS ENTERPRISES, LTD.",131 RT 46 W,FAIRFIELD,NJ,7004,(973) 575-8317,NOT FOUND
DAMATO GROUP,10210-1 SAN JOSE BLVD.,JACKSONVILLE,FL,32257,(904) 262-2882,http://www.sanjosecabinetsjacksonville.com/
LUNA FLOORING GALLERY,120 WEST 3RD. AVENUE,VANCOUVER B.COL V5Y1E9,CN,V5Y1E9,(604) 875-6484,Not found
BRENNAN'S CARPET & DESIGN,261 ALBANY TURNPIKE,CANTON,CT,6019,(860) 693-1328,not found
"THE FLOOR COLLECTION, LLC",734 S VERMONT STREET,PALATINE,IL,60067,(847) 241-1761,Not found
MIDWEST GROUT RENOVATION,2716 SOUTH LINCOLN STE G,JEROME,ID,83338,(208) 324-8131,Not found
"SHEA HOMES, INC.",1950 E CONNER ST STE A,NOBLESVILLE,IN,46060,(317) 774-8028,NOT FOUND
CARPET CETERA INC.,113 DANBURY RD,RIDGEFIELD,CT,6877,(203) 438-4670,Not found
"FLOOR STYLES, INC.",14336 DELLWOOD DRIVE,BAXTER,MN,56425,(218) 829-4738,NOT FOUND
"CARPETIME INC,",8 EAST FREDERICK PLACE STE101A,CEDAR KNOLLS,NJ,7927,(973) 605-8181,www.carpetetcetera.com
"FLOORQUEST, LLC",503 AMERICAN BLVD WEST,BLOOMINGTON,MN,55420,(952) 881-6970,Not found
TED DESIGN LLC,297 FORREST AVENUE,PORTLAND,ME,4101,(207) 772-3843,Johnsonci.com
MICHAEL DONNELLY INT DESIGN,62 N ROLLING MEADOWS DR,FOND DU LAC,WI,54937,(920) 922-2006,http://www.floorquest.net/index.php
EAST END TILE & CARPET INC,4034 CHICAGO DRIVE,GRANDVILLE,MI,49418,(616) 531-3100,http://www.johnsoncarpet.com/Johnson_Carpet_Site/WELCOME.html
COVENTRY CARPETS,1390 HERTEL AVE,BUFFALO,NY,14216,(716) 308-6520,NOT FOUND
BLOSSOM VALLEY INTERIORS,1241 OLD COUNTRY ROAD,RIVERHEAD,NY,11901,(631) 208-8488,NA
DESIGN STUDIO OF SOMMERVILLE,6380 S COVENTRY LANE,LITTLETON,CO,80123,(303) 825-0744,http://www.design-sos.com/
J & J BRANFORD INCORPORATED,1191 MERIDIAN AVE,SAN JOSE,CA,95125,(408) 269-2966,NOT FOUND
COLOUR POINTE DESIGN,145 NORTH MAIN STREET,BRANFORD,CT,6405,(203) 488-5637,www.joesfloorstore.com
AMY MANOR LLC,17830 CHESTERFIELD AIRPORT RD,CHESTERFIELD,MO,63005,(636) 532-0055,Not found
BLOOMINGTON LINOLEUM & CARPET,3209 FIECHTNER DR S W,FARGO,ND,58103,(701) 478-1200,not found
DOMINION FLOORS INC,38 NAVESINK J AVE,RUMSON,NJ,7760,(732) 991-1588,http://www.dominionfloors.com/
FOGLIO'S CARPET & DSGN CTR INC,9939 LYNDALE AVE S,BLOOMINGTON,MN,55420,(952) 881-5825,www.buyabbey.com
K P M LLC,2433 N HARRISON ST,ARLINGTON,VA,22207,(703) 536-4116,not found
QUALITY CARPET ONE FLR & HOME,344 SHORE ROAD,MARMORA,NJ,8223,(609) 390-3876,www.fogliosabbey.com
DESCO FLOORS INCORPORATED,35 MAIN STREET,HILTON HEAD,SC,29926,(843) 342-4955,NOT FOUND
BODALA LLC,10232 HARRY J. PARRISH BLVD,MANASSAS,VA,20110,(703) 499-9777,Not found
CARPET EMPORIUM INC,1917 FIRST STREET,LIVERMORE,CA,94550,(925) 455-9210,http://www.carpetcellar.com/
KELLI INTERIOR DSGN STUDIO INC,3006 CENTRAL ST,EVANSTON,IL,60201,(847) 475-1190,Not found
DISTINCTIVE DESIGN LLC,494 EASTCHESTER AVE E,ST CATHARINE  ONT  L2M6S3,CN,L2M6S3,(905) 682-0107,http://www.carpetemporium.ca/
SUPER SCHMOEKEL,132 W 8TH STREET,NATIONAL CITY,CA,91950,(619) 477-7000,not found
ANDREA COSTANZO GRAY,285 E CARMEL STREET,SAN MARCOS,CA,92078,(760) 761-1100,www.sidscarpet.com
C B FLOORING LLC,117 N MAIN STREET,SPANISHFORK,UT,84660,(801) 798-1325,not found
HOLZHEIMER INTERIORS,9515 GERWIG LANE     SUITE 130,COLUMBIA,MD,21046,(410) 381-5400,Not found
RC WILLEY HOME FURNISHINGS,5600 DUNOL BLVD STE D,PLEASANTON,CA,94566,(925) 426-7847,www.diabloflooring.com
RC WILLEY HOME FURNISHINGS,PO BOX 364,BRADFORD,VT,5033,(802) 222-9611,http://www.rcwilley.com/
RC WILLEY HOME FURNISHINGS,PO BOX 65320,SALT LAKE CITY,UT,84165-0320,(801) 461-3800,http://www.rcwilley.com/
RC WILLEY HOME FURNISHINGS,PO BOX 65320,SALT LAKE CITY,UT,84165,(801) 461-3800,www.rcwilley.com
EDDIE ARAKELIAN JR,P O BOX 65320,SALT LAKE CITY,UT,84165-0320,(801) 461-3800,Not found
AURORA TILE INCORPORATED,P O BOX 65320,SALT LAKE CITY,UT,84165-0320,(801) 461-3800,www.rcwilley.com
SWEET PEAS DESIGN INC,324 N MINNEWAWA AVENUE,CLOVIS,CA,93612,(559) 297-5325,Not found
RAINBOW CARPET,680 E 120TH AVE #C,NORTHGLENN,CO,80233,(303) 457-8668,www.thornton.abbeycarpet.com
SUBURBAN FLOOR COVERING,515 E GUDE DRIVE,ROCKVIILLE,MD,20850,(301) 762-0011,www.suburbanfloorcoverings.com
ROCK KAUFFMAN DESIGN,18 VILLAGE PLAZA,SHELBYVILLE,KY,40065,(502) 639-8661,http://rockkauffmandesign.com/
G & N FLOORING & WALLCVRNG LLC,3598 LINDEN AVENUE,WHITE BEAR LAKE,MN,55110,(651) 779-0365,Not found
LEE SCULL SALES AGENCY,1 PORTSMOUTH AVENUE,STRATHAM,NH,3885,(603) 772-0396,http://www.gnfloorbydesign.com/
FLOORS TO GO BY HIGH TIDE LLC,275 MARKET STREET STE 331,MINNEAPOLIS,MN,55405,(612) 339-6030,not found
ATTRACTIVE FLOORINGS LLC,10447 W 83RD AVENUE #B,ARVADA,CO,80005,(303) 456-4139,NOT FOUND
SOUTHERN STAR FINISHES LLC.,132 ISLAND DRIVE,HILTON HEAD,SC,29926,(843) 681-4925,www.hiltonheadisland.floorstogo.com
ERSKINE FLOORS INC,33806 CENTER RIDGE RD,NORTH RIDGEVILLE,OH,44039,(440) 327-2380,NOT FOUND
S K DESIGNS LLC,3522-A E. TC JESTER,HOUSTON,TX,77018,(713) 682-1590,NOT FOUND
PROSOURCE OF ALLEN,1719 COULEE ROAD,HUDSON,WI,54016,(715) 386-5544,Not found
BASSETT FLOORING,10759 HAMPSHIRE AVENUE,BLOOMINGTON,MN,55438,(763) 767-3600,www.bassettflooring.net
D & D DESIGN GROUP INC,"10800 PIONEER TRAIL, UNTIL 3",TRUCKEE,CA,96161,(530) 582-7428,www.dddesigngroup.com
HAMILTON FLOOR COVERING,12708 REEDS STREET,OVERLAND PARK,KS,66210,(913) 897-7323,NA
CARPET SOUTH,825 RT 33,MERCERVILLE,NJ,8619,(609) 890-6111,Not found
PS OF SOUTHERN CALIFORNIA,1429 PARK ST #100,HARTFORD,CT,6106,(860) 951-3145,Not found
PS OF SOUTHERN CALIFORNIA,3664 OAKCLIFF RD,DORAVILLE,GA,30340,(770) 448-7174,NOT FOUND
HUDSON DESIGN,6513 KINGSTON PIKE  SUITE C,KNOXVILLE,TN,37919,(865) 584-7555,Not found
CERAMCO SERVICES INC,129 WALTON PIRRO,SYRACUSE,NY,13202,(315) 472-8937,www.ceramcoservices.com/
FACTORY CARPET OUTLET CO,4335 SETTINGDOWN CIRCLE,CUMMING,GA,30028,(770) 886-0710,www.factorycarpetoutlet.com/
STACY & ASSOCIATES,15810 BEAR CREEK PARKWAY,REDMOND,WA,98052,(425) 885-4161,NA
P S J M INCORPORATED,25 ESTEN AVENUE,PAWTUCKET,RI,2860,(401) 723-6996,NOT FOUND
MAP FLOORING DIST,2030 32ND AVENUE SOUTH,GRAND FORKS,ND,58201,(701) 746-8444,www.sterlingcarpet1.com
CARPET STUDIO CORPORATION,2333A NORTH PLEASANTBURG DR,GREENVILLE,SC,29609,(864) 241-3636,Not found
CABANA HOME LLC,24470 INDOPLEX CIRCLE,FARMINGTON HILLS,MI,48335,(800) 666-2778,Not found
P FOUR,1601 S ROBERTSON BLVD,LOS ANGELES,CA,90035,(310) 785-0270,Not found
KAY RILEY & SONS,1482 E VALLEY RD STE 292,SANTA BARBARA,CA,93108,(805) 962-0200,www.kayriley.com/
CARPETS BY DUANE INCORPORATED,96 NORTH 500 WEST,BOUNTIFUL,UT,84010,(801) 295-0434,www.kayriley.com
PALACE ORIENTAL RUG OF WILTON,12046 GREATBRIDGE RD,WOODBRIDGE,VA,22192,(703) 898-5912,not found
L & M FLOORING LLC,2095 CHICAGO AVENUE,RIVERSIDE,CA,92507,(951) 784-2630,http://carpetsbyduane.com/ This is as close to this information. The phone number is a digit off but this is the place.
BASSETT FURNITURE DIRECT NE,19 DANBURY ROAD,WILTON,CT,6897,(203) 762-7060,http://omaha.bassettfurniture.com/
G S F INCORPORATED,1068 NORTH FARMS ROAD,WALLINGFORD,CT,6492,(203) 294-1900,www.bassettfurniture.com
BRETAG'S FLOOR SOURCE LLC,P O BOX 80691,SEATTLE,WA,98108,(206) 763-7004,www.gsfloors.com
PURE DESIGN ENVIRONMENTS,401 EAST MAIN STREET,THOMASVILLE,NC,27360,(914) 684-0001,www.puredesignenvironments.com/
FLEETWOOD RV INC,510 RIDGE ROAD UNIT A,WILMETTE,IL,60091,(847) 255-7273,NOT FOUND
K V S INTERIOR DESIGN,14112 53RD AVE NO,PLYMOUTH,MN,55446,(612) 991-1771,Not found
CARPET CREATIONS & FLOORING,710 MYRTLE AVENUE,BOONTON,NJ,7005,(973) 257-7277,www.carpetcreationsandflooring.com
THE CARPET SHOP INC,16790 JOHNSON DRIVE,CITY OF INDUSTRY,CA,91745,(626) 330-0080,carpetshop.com
SPALDING / AAI,11777 PARKLAWN DR #150,ROCKVILLE,MD,20852,(301) 881-3399,Not found
PS CLEVELAND INC,PO BOX 14519,AUGUSTA,GA,30919,(706) 863-5839,Not found
G E J E L MANAGEMENT INC,3885 S PERKINS RD STE 11,MEMPHIS,TN,38118,(901) 794-9266,Not found
TOTAL FLOORS INCORPORATED,2425 FAIR OAKS BLVD. SUITE #1,SACRAMENTO,CA,95825,(916) 779-1115,http://www.totalfloorsinc.com/
SEQUOIA GOLF LLC,640 WEST TENNESSEE AVENUE,DENVER,CO,80223,(303) 722-4935,NOT FOUND
OSCAR ISBERIAN,801 SOUTH 900 EAST,SALT LAKE CITY,UT,84102,(801) 706-5724,NOT FOUND
PROSOURCE OF CHARLOTTE,19355 W BLUEMOUND ROAD,BROOKFIELD,WI,53045,(262) 786-2250,not found
PS OF YORK COUNTY INC,4245 RICHMOND AVENUE,HOUSTON,TX,77027,(713) 355-7500,www.designerfloorsofhouston.com
MODULAR DESIGNS OF CHARLOTTE,4444 N WASHINGTON,SARASOTA,FL,34234,(813) 628-9630,www.modulardesigns.com
PDC INTERIOR DESIGN LLC,157 OKENUCK WAY,SHELTON,CT,6484,(203) 331-5578,www.pacificdesigncenter.com
ENID TILE & MARBLE INC,1525 DALLES DRIVE,SHAKOPEE,MN,55379,(952) 445-0520,www.enidtileandmarble.com
K D M P LLC,1709 WEST CHESTNUT,ENID,OK,73703,(580) 234-8320,www.dmpllc.biz
MARGARET BERGER INTERIORS,6001 W 10TH STREET,GREELEY,CO,80634,(970) 353-7847,http://www.westpointc1.com/
BLUESEEDS LLC,2722 NORTH PARK DRIVE,HUNTSVILLE,AL,35811,(256) 859-9830,NOT FOUND
TIGR HOLDINGS INC,30 E RIDGE PIKE,CONSHOHOCKEN,PA,19428,(610) 828-8519,Not found
WHOLESALE FLOORS INC,4108 E INDIAN SCHOOL RD,PHOENIX,AZ,85020,(602) 952-1342,www.blueseeds.net
RAFAEL FLOOR COVERING INC,9744 IDLEWILD ROAD,CHARLOTTE,NC,28227,(704) 573-7614,www.carefreecarpet.com
DECORATOR'S DOOR,5905 LAKE RD SOUTH,BROCKPORT,NY,14420,(585) 637-2828,http://www.statecarpet.com/
IRVINE PACIFIC L P,822 FRANCISCO BLVD,WEST SAN RAFAEL,CA,94901,(415) 456-3656,http://www.rafaelfloors.com/
EXTREME LOGO RUGS,4496 LAFAYETTE,MARIANNA,FL,32446,(850) 482-3400,http://www.yellowpagesgoesgreen.org/Marianna-FL/The+Decorator%27s+Door/330979
HOPKIN TILE & CARPET,301 EAST BAY STREET,JACKSONVILLE,FL,32202,(904) 384-3100,www.extremelogorugs.com
PROSOURCE OF MONROEVILLE,11501 EXCELSIOR BLVD,HOPKIN,MN,55343,(952) 933-5593,Not found
PROSURCE OF CRANBERRY,207 N WEICHERT ST,GIRARD,KS,66746,(620) 395-2151,www.prosourcefloors.com
S B N VENTURES LLP,585 HWY 5,PINEHURST,NC,28374,(910) 295-2293,http://www.flooringamerica.com/
PITKIN COMMERCIAL CARPET,401 S 32ND STREET,LOUISVILLE,KY,40212,(502) 772-3039,Not found
PROSOURCE OF LAS VEGAS,2825 S BDWY,MINOT,ND,58701,(701) 839-5575,Not found
HAYDEN FLOORING LLC,374 EAST GUNHILL ROAD,BRONX,NY,10467,(212) 643-3182,Not found
ADDISON DICUS CO OF ORLANDO,3821 SANTA CLAUS LANE,CARPINTERIA,CA,93013,(805) 684-7583,http://www.addisondicus.com/
BILL BAILEY'S ENTERPRISE INC,18 BURPEE ROAD,BRISTOL,VT,5443,(802) 453-7160,Not found
"MY FLOORING TEXAS,LLC",4976 OLD VERSAILLES ROAD,LEXINGTON,KY,40510,(859) 254-4852,www.carpetone.com
CINIUM HOLDINGS LLC,503 SPRING HILL DRIVE,SPRING,TX,77386,(281) 292-8450,not found
L & M OF CONNECTICUT LLC,6563 CITY WEST PKWY,EDEN PRAIRIE,MN,55344,(952) 914-9565,www.cabinetconceptsandinteriors.com
FLOOR COVERING INCORPORATED,3209 VAN BUREN AVENUE,NAPLES,FL,34112,(239) 263-0572,www.carpetone.com
LEHIGH VALLEY FLOOR COVERING,912 NORTH MAIN STREET,SHELBYVILLE,TN,37160,(931) 684-6611,NOT FOUND
OLSON RUG COMPANY DIP,9271 CENTRAL PARK DR D205,FORT MYERS,FL,33919,(239) 275-8453,www.olsonrug.com
THEODORE ALEXANDER USA,865 N FENWICK STREET,ALLENTOWN,PA,18109,(610) 437-3566,http://www.lehighvalleyfloorcovering.com/