name,city,state,postal,phone,website,owner
CARPET LIQUIDATORS,LINTHICUM HEIGHTS,MD,21090,(410) 789-1155,http://www.baltimorecarpets.com,"STEVE, RANDY"
CARPET CONSULTANTS INC,TOWSON,MD,21204,(410) 321-9771,http://www.carpetconsultantsmd.com,STEVE WEIDNER
WAYNE WILES,FORT MYERS,FL,33901,(999) 999-9999,http://www.waynewiles.com,
BIG BOB'S USED CARPET,CINCINNATI,OH,45215,(513) 771-2345,N/A,
CARPET CITY INC,FARGO,ND,58103,(701) 235-7525,http://www.carpetworldfargo.com/,
COUNTRY CARPET & MORE,CHILLICOTHE,MO,64601,(316) 395-2141,N/A,"RICHARD & MILES,MIKE S"
CARPET DEN INC,FRANKLIN,TN,37067,(615) 771-0128,www.carpetden.com,RICKY MCCORMICK
KEVCO CARPETS & VINYL INC,HERMITAGE,TN,37076,(615) 871-0001,http://www.kevcocarpet.com/default.aspx,"KEVIN EARLY, PRESIDENT"
SUMMIT FLOORS/RETAIL,HOUSTON,TX,77032,(713) 224-2544,http://www.summitfloors.com/,
HAYNES FURNITURE CO INC,VIRGINIA BEACH,VA,23462,(757) 497-9681,http://www.haynesfurniture.com/,KAPPY
TAYLOR FLOORING LTD,BRIDGEWATER,CN,B4V 3T2,(902) 543-7673,www.taylorflooring.com/,
THORNTON CARPET INC,SIOUX FALLS,SD,57108,(605) 368-2568,http://www.thorntoncarpets.com,
H & T CARPET INC,MADISON,TN,37116-0533,(615) 865-8595,www.htcarpetinc.com,"HARRY A.TARPLEY,JR. PRES"
INTEGRITY CARPET INC,KENNER,LA,70062,(504) 712-5485,http://www.integritycarpetsales.com/,RICARDO F/PRES
S C I FLOOR COVERING INC,SOUTHFIELD,MI,48075,(248) 359-3500,http://www.scifloorcovering.com/,"DAVE ELBERSON, MARKETING"
ROYAL FLOORINGS & PAINTS,ALTOONA,IA,50009-2589,(515) 957-9738,http://www.royalflooringandpaints.com/,MIKE PEARSON/PRES
LEHMS INC,LINCOLN,NE,68504,(402) 467-6363,http://www.carpetlandonline.com/,SAME
ASK CONTRACT FLOORING INC,VALRICO,FL,33596,(813) 628-9630,http://Flooringamericafl.com/,RUFUS N ASHBY-PRES
SPEIDEL FLOORING LLC,SPENCER,IA,51301-5597,(712) 580-4400,http://nwiowaflooring.com/,
WATKINS FLOOR COVERING,JACKSONVILLE,NC,28540,(910) 347-7704,www.watkinsnewfloor.com,
STINSON CARPETS INC,LAKELAND,FL,33801,(863) 665-4434,http://www.stinsoncarpets.com/,"BILL& RANDY STINSON,DAN,"
WHOLESALE CARPET DESIGNS INC,VERNON HILLS,IL,60061,(847) 415-2000,http://wholesalecarpetdesign.com/,
MC DONNELL JOSEPH ENT,ORCHARD PARK,NY,14127,(716) 674-0678,N/A,MIKE MARTIN
WESTBORO FLOORING & DECOR INC,NEPEAN,CN,K2E 7K3,(613) 226-3830,http://www.westboroflooring.com/,STEVEN KIMMEL
BUDGET CARPET DESIGN L L C,DEARBORN,MI,48126,(313) 581-6800,N/A,GEORGE LAKKIS  PART OWNER
CREATIVE FLOORS INC,CASSELBERRY,FL,32707,(407) 265-9566,http://www.creativefloorsinc.com/,ROBERT J CAMPBELL    PRES
NADINE FLOOR CO INC.,PLANO,TX,75074,(972) 424-2525,http://www.nadinefloors.com/,ISMAIL 214 587 3942 CELL
FLOORQUEST LLC,DELAFIELD,WI,53018,(262) 646-2975,http://www.floorquest.net/,
PALM BEACH CARPET INC,FORT LAUDERDALE,FL,33306,(954) 921-5133,http://www.miamicarpet.com/,PHIL LAUX
ASTORIA CARPET,WEST ALLIS,WI,53214,(414) 774-9344,N/A,ALSO SEE ACCT.101286
PRO CARPET INC,SPENCERPORT,NY,14559,(585) 352-5905,http://www.procarpetinc.com/,
LEWIS CARPETS INC,NORTHBROOK,IL,60062,(847) 835-2400,http://www.lewisfloorandhome.com/,DICK & STEVE LEWIS
WOOD BROS FLOOR COVERING,SACRAMENTO,CA,95811-0626,(916) 443-2031,http://woodbrothersfloors.com,GARY WOOD
KREGGER KRAFT LLC,EDMOND,OK,73013-4031,(405) 348-6777,http://kreggers.com/,PAUL KREGGER-OWNER
CARPET WORLD INC,BISMARCK,ND,58504,(701) 258-1968,http://www.carpetworldbismarck.com/,BOB DAUENHAUER
FLOOR SHOW INC,BEDFORD HEIGHTS,OH,44128,(216) 662-5550,www.calvettabrothers.com,"AUSTIN CALVETTA, PRES"
JAMES CPTS OF HUNTSVILLE INC,HUNTSVILLE,AL,35811,(256) 859-9830,N/A,SAME
METRO FLOORS INC,LANCASTER,CA,93534,(661) 942-1185,http://www.metrofloorsinc.com/,D C HALL
REARDONS CARPET CO INC,INDIANAPOLIS,IN,46217-9750,(317) 781-8280,www.reardonscarpets.com,PATRICIA MARTIN PRESIDENT
VARIETY FLOORS OF CARROLL INC,CARROLL,OH,43112,(740) 756-1500,http://www.varietyfloors.com/,
GEORGIA DIRECT CARPETS INC,RICHMOND,IN,47375,(765) 966-2548,http://georgiadirectcarpetinc.com/index.htm,AL BLEDSOE
HALLS INC,CHARLOTTE,NC,28299,(704) 376-8501,http://www.hallsflooring.com/,"KEITH DUNN,TOMMY HALL"
CARPET SPECTRUM INC,MEMPHIS,TN,38108,(901) 386-5207,http://carpetspectrum.net/,BILL BROWNING
CARPETS BY MR JASON INC,MARGATE,FL,33063,(954) 973-4990,http://carpetsbymrjason.com/,HOWARD
CENTURY SUPPLY COMPANY,CHICAGO,IL,60652,(773) 735-6600,http://www.century-tile.com/,ELAINE CARLSON
BRIDGEPORT CARPETS,ALPHARETTA,GA,30004,(770) 740-2306,http://bridgeportcarpets.com/,
EDWARDS CARPET EAST INC,SAINT LOUIS,MO,63132,(314) 993-0808,http://edwardscarpet.com/,SAME
TROTTS QUALITY CARPET,SOUTH DAYTONA,FL,32119-1780,(386) 788-0118,http://www.trottscarpet.com/,THOMAS O TROTT
ALL AMERICAN FLOORING INC,FARMERS BRANCH,TX,75244,(972) 661-3290,www.allamericanflooring.net,
PERFECT FLOORS INC,ROCHESTER HILLS,MI,48307,(248) 650-5199,http://perfectfloorsinc.com/,"JOHN WILLIAMS, PRES/OWNR"
FRANKS FLOOR COVERING,BORGER,TX,79007,(806) 274-3929,http://www.franksfloorcovering.com/,
JP FLOORING SYSTEMS INC,WEST CHESTER,OH,45069,(513) 346-4300,http://www.jpflooring.com/,PHIL SCHRIMPIR
ATLAS SERVICE CENTER,GAITHERSBURG,MD,20877,(301) 924-7331,N/A,STEVE SHAFFER
ONE ON ONE FLOOR COVERING LLC,HAZEL GREEN,AL,35750,(256) 828-7990,http://oneononeflooring.com,JIMMY JONES
JUST CARPETS,HOWELL,NJ,7731,(732) 905-2002,http://www.justcarpetsnj.com/,
KISS CARPET,TRAVERSE CITY,MI,49684,(231) 941-0723,http://www.kisscarpet.com/,
"MCNULTY'S BUILDING SUPPLY,INC.",POTTSVILLE,PA,17901,(570) 544-9414,http://mcnulty.flooringplus.com/,"JIM,JIM JR."
FATHER & SON CARPET INC,MOUNT HOLLY,NJ,8060,(609) 702-8040,http://www.fatherandsonbuilders.com/,HARRY JOLLY
PETERSENS HOUSE OF CARPETS,FREDERICK,MD,21702,(301) 662-6717,http://www.petersenscarpetandflooring.com/,
MILLINGTON FLOOR COVERING INC,MILLINGTON,TN,38053,(901) 872-8940,http://www.millingtonfloorcovering.com/html/home.html,"JOHN C. PETTY, OWNER"
HENNEN FLOOR COVERING,FREEPORT,MN,56331-0278,(320) 836-2177,www.hennenfloor.com,ED HENNEN  STEVE
EXTRA YARD INC THE,AURORA,CO,80014,(719) 636-3200,N/A,BOB BURNS/GEN MGR
CARPET TILE & FLRNG OF TX LP,SAN ANTONIO,TX,78213,(210) 349-1170,N/A,WILLIAM E BLACKMON
WRIGHT L F INC,PONTIAC,IL,61764,(815) 844-7177,http://www.wrights-furniture.com/,GARY WRIGHT
PRINTS & PAINTS INC,GALION,OH,44833,(419) 462-5663,http://www.myfloorsohio.com/,SAME
QUALITY CARPETS,GLASSBORO,NJ,8028,(856) 881-6911,http://www.qualitycarpetsinc.com/,
MIDWEST RUG,SPRINGFIELD,MO,65807,(417) 869-3030,http://www.midwestrugcompany.com.,RON EDWARDS
ATLANTA PRESTIGE FLOORING INC,WOODSTOCK,GA,30188,(770) 592-4099,N/A,CHRIS WILSON
CARPET KING INC,NORWALK,CT,6850,(203) 838-0808,http://www.mycarpetking.com/,STEPHEN CUPOLE
ARIZONA TILE COMPANY,SPRINGFIELD,IL,62711,(217) 793-6922,http://www.ariztile.com,
WALL TO WALL,POCATELLO,ID,83201,(208) 232-4226,http://www.wall2wallflooring.com/residential/locations_pocatello.php,SAME
RIVERCHASE FLRING CTR INC,PELHAM,AL,35124,(205) 985-9555,http://www.riverchasecarpet.com/,JIM
BEST BUY CARPETS,AURORA,IL,60504,(999) 999-9999,http://www.bestbuycarpets.com,
CAL COAST CARPET WAREHOUSE,OCEANO,CA,93445,(805) 481-5559,http://calcoastcarpetoceano.com/,
DALTON CARPET CENTER INC.,STOCKBRIDGE,GA,30281,(770) 389-0432,http://www.daltoncarpetcenter.com/,PHIL OR REBECCA
DEGRAAF INTERIORS INC,GRAND RAPIDS,MI,49525,(616) 662-0140,http://www.degraafinteriors.com,"DARYLL DEGRAAF, PRESIDENT"
ISLAND CARPET SALES LTD,RICHMOND,CN,V6X 2Z6,(604) 278-6256,www.islandcarpet.com,BRAD DOTCHUK
SUTTON CARPET CO,PEORIA,IL,61604,(309) 682-7711,http://www.suttoncarpetcenter.com/,EMERT
HOUSE OF FLOORS,ALBUQUERQUE,NM,87112,(505) 559-9190,http://www.houseoffloorsabq.com/,DENNIS FAIRCHILD/OWNER
KELLY'S CARPETS,COUNCIL BLUFFS,IA,51501,(712) 328-2424,http://www.kellyscarpet.com/,
CARPET STORE THE,ALBERTVILLE,AL,35950,(256) 891-2777,http://www.mosleyflooring.com/,
WALL-TO-WALL FLOOR COVERING,RONKS,PA,17572,(717) 687-6485,http://flooringinstrasburg.com/,
CARPET GALLERY & FLOORS,WARREN,MI,48089,(586) 772-1100,http://www.carpetgalleryc1williamsburg.com/,AHMAD EL SAYED-ALI(PRES)
COSTEN FLOORS INC,RICHMOND,VA,23233,(804) 527-2929,http://costen.flooring-professionals.com,RALPH COSTEN VP
W A M B INC,FLEMINGTON,NJ,8822,(908) 788-1095,N/A,JOE GHERARDI
PACK RON CARPET CTR INC,LITTLE ROCK,AR,72209,(501) 565-4447,http://ronpackcarpet.com/,JIM OWENS
SAVEMORE CARPETS,QUINCY,IL,62301,(217) 224-7283,http://www.savemorecarpets.com/,HAROLD YOUNG
NEW WAYE HOMES & IMPROVEMENTS,LA CENTER,KY,42056,(270) 462-4011,N/A,
RICHWELL CARPET &CABINET CTR,OTTUMWA,IA,52501,(641) 683-4084,http://www.richwellcarpet.com/,*** E-MAIL STAT ***
HOUSE OF FLOORS INC,KILLEEN,TX,76542,(254) 554-3430,http://www.house-of-floors.com/,
CARPET OUTLETS OF TEXAS INC,MESQUITE,TX,75150,(972) 279-4800,http://www.carpetoutlets.net/,
ALTIMATE FLOORING,RAPID CITY,SD,57701,(605) 390-7900,http://www.altimateflooring.com/,BARAK ALT/OWNER
WRIGHT FURNITURE INC,DIETERICH,IL,62424,(217) 925-5228,http://www.wrightsfurniture.com/,CEDERIC WRIGHT
TEXAS FLOORS,CYPRESS,TX,77429,(281) 370-8200,http://texasfloorsonline.com/,
ENHANCE HOME SERVICES INC,MARIETTA,GA,30062,(770) 565-3808,http://enhancefloors.com/,ELIZABETH
CUSTOM FLOORING PARTNERS INC,AVON,IN,46123,(317) 223-7616,http://brewercustomfloorsandmore.com/,KEVIN BREWER
REINHOLD FLOORING,SAINT LOUIS,MO,63129,(314) 894-1319,http://www.reinholdflooring.com/,
RODE COMPANY INC.,GREENWOOD,IN,46142,(317) 888-3501,http://www.carpetcountry.net,
LIMA BARGAIN CENTER INC,LIMA,OH,45806,(419) 991-3701,N/A,"HAROLD WARONKER, OWNER"
NASSAU DESIGN CENTER INC,YULEE,FL,32097,(904) 548-9906,N/A,JEFF WILEY JONES/PRES
LEONARD - TROTT INC.,WILLINGBORO,NJ,8046,(609) 871-6687,N/A,MICHAEL-ROBERT
VENTURI CAPITAL,WACO,TX,76712,(254) 772-8453,N/A,KEITH RICHBOURG-PRES
LINT LARRY FLR & WLL CV INC,WENDEL,PA,15691-0216,(724) 446-0480,http://www.lintcarpets.com/,LARRY J. LINT
CARPET CONCEPTS INC,FOREST HILL,MD,21050,(410) 893-6549,http://carpetconceptsonline.com/,DONALD GRAHAM
COOLEY ENTERPRISES INC,JASPER,IN,47546,(812) 482-5692,N/A,
WINDY CITY CARPET TIME INC,MOKENA,IL,60448,(815) 469-9092,http://www.carpettimeinc.com,
LONSDALE CARPETS LTD,NORTH VANCOUVER,CN,V7J 1C5,(604) 987-6612,http://www.lonsdalecarpets.com (not working),DIETER KUPFERSCHMID
"NIEHAUS LUMBER COMPANY, INC.",VINCENNES,IN,47591,(812) 882-2710,http://www.niehausinc.com/,OWNER: BERNARD NIEHAUS
MARKS FLOORING CTR INC,MINNEOLA,FL,34715,(352) 394-0303,http://marksfloorsonline.com/,MARK COMPSTON
TOTALLY FLOORED,GREENSBORO,NC,27409,(336) 665-9229,http://www.totallyflooredgreensboro.com/,ALAN MORRIS/OWNER
GEORGES CARPET & SUPPLIES INC,ROSWELL,NM,88201,(575) 624-0901,http://www.georgescarpetandtile.com/,JOANN JOSEPH
DELTA CARPETS LTD.,DELTA,CN,V4K 1V9,(604) 946-6291,http://www.deltacarpets.bc.ca/,
OWEN VALLEY FLOORING INC,SPENCER,IN,47460,(812) 879-4204,http://www.owenvalleyflooring.com/,ANN & DAVID HENK
ULTRA FLOORS INC,CLINTON TOWNSHIP,MI,48038,(586) 228-1609,http://www.ultrafloors.com/,THERESA JONES
BAS INC,NORFOLK,NE,68701,(402) 371-4440,http://www.noresdesigncenter.com/,DALE PHIPPS/PRES
"LASALLE BRISTOL, LP",ELKHART,IN,46516,(574) 295-0199,http://www.lasallebristol.com/,KEN BOHN/OFFICE MGR
RODGERS FLOOR COVERING INC,VERSAILLES,KY,40383,(859) 873-3311,http://rodgers.flooringplus.com/,CHRIS RODGERS
TRAYNORS FLOORS AND CARPETS,WESTMINSTER,MD,21157,(410) 876-1999,http://www.traynorsfloors.com/,ED TRAYNOR
"TUKASA CREATIONS, INC",CORPUS CHRISTI,TX,78413,(361) 851-9440,http://www.tukasaflooring.com/,VIENNA J FLORES
EAST COAST FLOORING,WRENTHAM,MA,2093,(508) 384-3177,http://www.east-coast-flooring.com/,SUNIL P LULLA
BRIANS CUSTOM FLOORCOVERING,EAST GRAND FORKS,MN,56721,(218) 773-3130,http://www.mystore411.com/store/view/11018102/Armstrong-Floors-East-Grand-Forks,BRIAN DEZIEL/PRES
EDMONDSON INC,AUGUSTA,GA,30907,(706) 650-0400,http://littlerock.citysearch.com/profile/1541324/jacksonville_ar/edmondson_inc.html,
TRI STATE CPT CONNECTIONS INC,TAPPAN,NY,10983,(845) 365-1366,http://www.mystore411.com/store/view/11010445/Armstrong-Floors-Tappan,SAME
D-W INTERIORS,VAN NUYS,CA,91401,(818) 786-0681,http://www.dwinteriorsinc.com/,DAN WARSHAUER
JAYCHAR INC,BALTIMORE,MD,21222,(410) 284-1111,N/A,JOHN SEARFOSS SR
CARPET & DECORATING CENTER,PHENIX CITY,AL,36867,(334) 298-0026,http://www.carpetanddecorating.com,JACK BENEDICT
MACCOS FLOOR COVERING CENTER,GREEN BAY,WI,54303,(920) 432-4586,http://www.maccosflooring.com/,"JAMES MACCO, JIM WALTERS"
EXCLUSIVE FLOR SALES LTD,SURREY,CN,V3S 1B7,(604) 596-3636,http://www.flooringbc.com/,
SOUTH ALABAMA CARPETS II INC,MOBILE,AL,36609,(251) 666-1900,http://expresswaycarpet.com/,
LEFEBVRE CARPET,SAINT MICHAEL,MN,55376,(763) 441-4181,http://www.lefebvrescarpet.com/,DAVE AND HOLLY
EXCELL FLOORS INC,FALLS CHURCH,VA,22046,(703) 237-9411,http://www.excelfloorsinc.com/Excel_Floors/Welcome.html,ALIAKBAR AKHOUNDI
SOUTHPARK CARPET & FLRING OTLT,COLONIAL HEIGHTS,VA,23834,(804) 748-4990,http://find.hamptonroads.com/southpark-carpet-flooring-outlet-colonial-heights-va-2.html,LEE ROBERTSON
MARKS R B OF HAYWARD INC,HAYWARD,WI,54843,(715) 634-2204,N/A,RICHARD MARKS/PRESIDENT
J.R. INTERIORS,MAPLE RIDGE,CN,V2X 6J2,(604) 463-7221,N/A,RON
PETERBOROUGH CPTLAND INC,PETERBOROUGH,CN,K9J 6X2,(705) 743-0500,http://www.peterboroughcarpetland.com,MARK WHELAN
HANSON FURNITURE & CARPET INC,MILBANK,SD,57252,(605) 432-9504,http://www.hansonfurniture.com/,
"G & D ENGEL, INC",SIOUX CITY,IA,51105,(712) 277-2565,http://magiccarpetanddrapery.com/,GREG ENGEL
CARPET SHOP THE,CLOVIS,NM,88102-5098,(575) 762-7403,N/A,DEAN THATCHER/OWNER
MICHIGAN FLOORS INC,CLINTON TOWNSHIP,MI,48036-1307,(586) 465-6980,http://www.governmentcontractswon.com/department/defense/michigan_floors_inc_139462287.asp?yr=05,CHARLES PROMESSO
CARPET STORE INC THE,OKLAHOMA CITY,OK,73108,(405) 681-2121,N/A,
PASADENA FLOORS INC.,PASADENA,MD,21122,(410) 768-2640,http://www.pasadenafloors.com,"STEVE, MARTY"
BLAIGE CORPORATION,EVERETT,WA,98201,(425) 252-2775,www.blaige.com,BILL MESSLER/OWNER
MOELLER CARPET & FLOOR COV,REMSEN,IA,51050,(712) 786-3374,www.merchantcircle.com,TOM MATGEN
NORTHWEST INTERIORS INC,CONROE,TX,77304,(936) 442-2050,http://www.colorinteriors.com/,DAVID CARR
GENOA CUSTOM INTERIORS,GENOA,OH,43430,(419) 855-7221,http://www.genoacustominteriors.com,
JA-SAN DISTRIBUTING CO,REFORM,AL,35481,(205) 375-6321,N/A,
CARPETING BY MIKE,SOMERSET,WI,54025,(715) 247-3244,http://www.carpetingbymike.com,MICHAEL FAUST
VANDERBERG FURNITURE,SIOUX CENTER,IA,51250,(712) 722-3286,http://www.vanderbergfurniture.com/,
JAIME'S FLOORING CENTER,FRESNO,CA,93703,(559) 498-0677,http://www.jaimesdesignsandfloors.com,
FRIENDLY FLOORS,PORT CHARLOTTE,FL,33952,(941) 624-0077,http://www.friendlyfloors.com,
PAD II INC,DALLAS,TX,75247,(214) 631-7576,N/A,MILTON SYMANK
CARPET & FLOOR MASTERS,BURKE,VA,22015,(703) 764-1000,http://www.manta.com/c/mm8pslg/carpet-floor-masters-inc,ASSAD ZADEH
HADINGER-MOOREN LTD INC,FORT ATKINSON,WI,53538,(920) 563-0820,http://www.jmcarpets.net/,SAME-SALES-STEVE-GAIL-DEN
SNYDER FLOOR COVERING,BOSSIER CITY,LA,71111,(318) 747-5950,http://start.cortera.com/company/research/k8p8ozk5q/snyder-floor-covering/,
TERPSTRAS FLOOR CENTER INC,OTTAWA,IL,61350,(815) 434-9800,http://www.terpstrasfloorcenter.com,
JORDAN CORPORATION,TUPELO,MS,38801,(662) 844-0800,http://www.jordanflooring.com/,JORDAN LITKE
PORTLAND CARPET CENTRE,PORTLAND,OR,97239,(503) 246-9800,http://macadamflooranddesign.com/,
LAVY CARPET SALES & SERV LLC,ZANESVILLE,OH,43701,(740) 455-6201,HTTP://www.lavycarpet.com,ROBERT E LAVY/PRES
PRATTVILLE CARPET INC,PRATTVILLE,AL,36066,(334) 285-8117,N/A,RONALD
"VIC'S CARPET STORES, INC",CORONA,CA,92879,(951) 278-1511,http://www.carpetemporium4u.com/,
BEST BUY CARPETS & FLOORING,BATON ROUGE,LA,70816,(225) 216-3254,http://www.bestbuy.com.,
CARPET STORE THE,TUCSON,AZ,85716,(520) 326-1111,www.carpetstoredayton.com,LARRY HOCHWERT
WORLD CLASS CARPETS LTD,LONDON,CN,N5Z 3K7,(519) 963-0845,http://www.worldclasscarpets.com,RAYMOND WHALING
CARPETS GALORE INC,GRAFTON,WI,53024,(262) 376-7500,http://www.carpetsgaloreandflooring.com,STEVE RUBNITZ
CARPET HEADQUARTERS,TAYLORS,SC,29687,(864) 292-8207,http://www.carpetheadquarters.net,DONNA CELL 864 230 2799
TONDO CARPETS INC,GIRARD,OH,44420,(330) 539-6014,N/A,SAME
LENCO ENTERPRISES INC,COLLINSVILLE,IL,62234,(618) 344-7060,http://www.lennyscarpet.com/,GORDON L MCCANLESS SR
LIMA CARPET CORP,AVON,NY,14414,(585) 226-2180,http://www.limacarpet.com/,WENNER TODD
FACTORY DIRECT CPT FLRCOVERING,CENTERVILLE,IA,52544,(641) 856-3000,http://www.manta.com/c/mmd8659/factory-direct-carpet,
CITY TILE & FLOOR COVERING,MURFREESBORO,TN,37130,(615) 893-7721,http://www.citytile.net,DOUG YOUNG
CARPETS PLUS OUTLET,KENOSHA,WI,53140,(262) 883-9494,http://carpetsplusoutlet.com/,NEIL FUHR         OWNER
DCO INC.,EUGENE,OR,97402,(541) 686-3130,http://dalton-carpet.com/,ROCKY STEVENS
COUNTRY CARPETS INC,KASSON,MN,55944,(507) 634-4680,http://www.countrycarpetsmn.com/,CHUCK
INNOVATIVE FLOORS & DESIGN INC,BELLBROOK,OH,45305,(937) 848-7200,www.innovativefloors.brandsource.biz,CANDICE HONAKER
FALCON FLOOR COVERING,LEBANON,MO,65536,(417) 532-3118,http://falconfloorcovering.com/,
COMLEY'S CARPET WORKS INC,FRANKFORT,KY,40601,(502) 695-7650,http://comleys.brandsource.biz/,PAUL COMLEY PRES
HOLT TED CPT CO,ADA,OK,74820,(580) 436-1083,N/A,EVELYN HOLT
AUS FLOORS & MORE,GRANITE FALLS,MN,56241,(320) 564-3832,www.ausflooring.com,GAIL AUS
OWATONNA FLR CVR & MIRROR INC,OWATONNA,MN,55060,(507) 451-1169,www.dexknows.com,GARY ETHERTON/VP
A J CARPET & FLOORING,GAINESVILLE,VA,20155,(703) 753-0425,http://www.ajcarpetflooring.com,ABRAHAM CHEHREH
SMITHS HOME DECORATING CENTER,ONEIDA,NY,13421,(315) 363-0440,http://www.smithsflooringoneidany.com/sb.cn,
SOLANO CARPET,FAIRFIELD,CA,94533,(707) 429-3350,http://solano-carpet.com/,
A-1 FLOORING SERVICES INC,LAS VEGAS,NV,89103-3846,(702) 364-2499,http://www.lasvegasflooring.com/,KEITH PICKFORD/PRES
JR & JR INC,SWANSBORO,NC,28584,(252) 393-3165,N/A,JAMIE WALLACE
CARPET WAREHOUSE,OAKVILLE,CN,L6J 2W6,(905) 842-0042,http://www.carpetwarehouseoakville.com/contactus/,DOMINIC TONELLI
FAULK FLOOR COVERING,EL PASO,IL,61738,(309) 527-2815,http://www.faulksinelpaso.com/,KEN FAULK
ARTISTIC CARPET WAREHOUSE INC,PARMA,OH,44129,(216) 661-6969,http://www.carpetwarehousecleveland.com/index.htm,"MARK MITCHELL, OWNER"
ANSELONE FLOORING INC,MANSFIELD,MA,2048,(508) 339-4448,http://www.anseloneflooring.com/,CHARLES ANSELONE/PRES
JOHNSON CARPET CENTER,COLUMBUS,MS,39701,(662) 328-1522,www.johnsoncarpetcenter.com,CINDY MORGAN
ELYON INC.,HARLINGEN,TX,78552,(956) 365-4048,http://intercarpets.com/,EDUARDO GALVAN/OWNER
VILLAGE CPT SHOP,MOUNTAIN HOME,AR,72653,(870) 425-6919,http://www.villagecarpet-shop.com/,RON HALL
RED BARRON FLOORING LLC,HAGERSTOWN,MD,21740,(301) 582-2258,http://www.redbarronflooring.com,FRANKIE CORSI
PREMIER FLOOR CENTER,DYERSBURG,TN,38024,(731) 285-4040,http://www.premierfloorcenter.com/,ROGER CARROLL
FLOOR COVERING WAREHOUSE INC,STAMFORD,CT,06902-7216,(203) 323-3113,http://www.floorcoveringwarehouse.org/,GREGG KARAS
C M C CARPET OUTLET INC,MANASQUAN,NJ,8736,(732) 223-0390,N/A,
CARPET SUPERMARKET SALES LTD,CALGARY,CN,T2E 6T4,(403) 250-6675,http://www.carpetsupermarketsalesltd.ca/,E HORNER
CARPETS GALORE INC,LAS VEGAS,NV,89104,(702) 385-5252,http://www.carpetsgalore.com/,
ROMAN FURNITURE & CARPET,CLIFTON HEIGHTS,PA,19018,(610) 284-2200,N/A,JIM
ABBOTT PAINT & CARPET,SAINT PAUL,MN,55105,(651) 698-5518,http://www.abbottpaint.com/,KEVIN H. ABBOTT
CARPETLAND & MORE INC,SPRINGFIELD,MA,1119,(413) 782-7000,http://www.carpetlandandmore.com/,GEORGE K PETITT
BALLANCE RICHIE FLOORING,WILSON,NC,27893,(252) 291-0122,http://www.flooringwilsonnc.com/,
WASATCH FRONT MOBILE CARPETS,LAYTON,UT,84041,(801) 544-4203,http://americarpets.com/,
BREWERS FLOORING & SALES INC,VALLEY PARK,MO,63088,(636) 225-8350,http://www.brewersflooring.com,
DOUGLAS CARPET CENTER,DOUGLAS,GA,31535,(912) 383-6119,N/A,ANTHONY ELLIOT
TOUCH OF BEAUTY CARPETING,PARK RIDGE,IL,60068,(847) 825-1116,http://www.touchofbeautycarpeting.com/,JEFF
CARPET QUEEN AND FLOORS,TEMPLE HILLS,MD,20748,(301) 899-3999,http://www.carpetqueenandfloors.com,MACK - GLEN
"DIXIE UPHOLESTRY, INC.-D/B/A-",COLUMBIA,SC,29210,(803) 798-6999,N/A,MELISSA OR NEVIN
SNOOKS CARPET & FURNITURE,SIOUX RAPIDS,IA,50585,(712) 283-2584,http://snooks1.com/,SNOOKIE
SHARP CARPET FACTORY OUTLET,HOMEWOOD,AL,35209,(205) 942-1110,http://www.sharpcarpet.com/,RICHARD WANN
WIDMEIER FLOORING COMPANY,DUBUQUE,IA,52002,(563) 599-7857,http://www.widmeierflooring.com/,JOE WIDMEIER/OWNER
LEPAGE CARPET & TILE,LECANTO,FL,34461,(352) 527-1811,http://lepagecarpet.brandsource.biz/,ALFRED LEPAGE
TWELVE STONES INC,WAYNESVILLE,NC,28786,(828) 456-7422,http://www.12stonesinc.com/,JOE SCHNEIDER
MCCARTNEY CARPET,WESTFIELD,WI,53964,(608) 296-4444,http://mccartneycarpet.com,
WHOLESALE CARPETS INC,SUMTER,SC,29150,(803) 436-5904,www.wholesalecarpetsinc.com,EARNEST BAGLEY
CROWN FLOORS,CHANTILLY,VA,20151,(703) 817-9600,http://crownfloors.brandsource.biz/,
RUDI'S FURNITURE & CARPET,CONCORDIA,MO,64020,(660) 463-2889,http://www.rudysfurniturenc.com/,JAMES HARMS       OWNER
JIMS CPT & SUPPLIES INC,BEATRICE,NE,68310,(402) 228-3684,http://www.jimssupply.com/,JIM OLTMAN
WRIGHT FLOOR COVERING INC,HOUMA,LA,70364,(985) 851-1604,N/A,DOC WRIGHT
KUHN N J ASSOCIATES D/B/A,BOSTON,NY,14025-9610,(716) 941-6564,http://www.valleyfloorcompany.com/,SUSAN ELAINE RICHTER
VALLOW FLOOR COVERING  *MLD,EDWARDSVILLE,IL,62025,(618) 656-7788,http://www.vallowfloor.com/,
A BETTER CARPET & FLOORING LLC,SOUTHBURY,CT,6488,(203) 267-7227,http://southbury.patch.com/listings/a-better-carpet-flooring-llc,
MORFORDS DECOR CENTER,CHADRON,NE,69337,(308) 432-3149,http://www.morfordsdecoratingcenter.com,MERLE MORFORD
WILLIAMS CARPET SERVICE INC,NORTH MYRTLE BEACH,SC,29597,(843) 249-2224,http://www.williamscarpetcarenc.com/,TRAVIS WILLIAMS
CREATIVE CARPET & SUPPLY,GREENVILLE,OH,45331,(937) 548-7841,http://www.creativecarpet.net/,
EASTWOOD CARPET CO INC,SAINT CLAIR SHORES,MI,48080,(586) 773-1110,N/A,AL TOZZI / GARY TOZZI
VILLA CARPETS INC,WARREN,MI,48092,(586) 573-0050,http://www.villacarpet.com,HENRY COLO - DAN COLO
CARPET SALVAGE II,MACON,GA,31211,(478) 745-4435,http://www.carpetsalvageii.com,
PRO-CLEAN ENT.INC.,BOGART,GA,30622,(706) 353-6086,www.carpetsunlimitedusa.com/,
JEFFS CARPETS & LINOLEUM INC.,ROCKLAND,MA,2370,(781) 871-0029,http://jeffscarpets.com/,
DONALDSONS CARPET INC,VANDALIA,IL,62471,(618) 283-3478,www.manta.com/c/mm784xx/donaldson-carpet,NORRIS DONALDSON
LMR INVESTMENT PROPERTIES LLC,WARNER ROBINS,GA,31088,(478) 988-8500,http://acousticalfloorsga.com/,"HARVIE A ""RETT"" WALKER"
INLAND EMPIRE CARPET INC,MURRIETA,CA,92562,(909) 696-5880,N/A,
WOOD'S CUSTOM FLOORS,JACKSON,TN,38305,(731) 660-8660,http://woodscustomfloors.com/,JULIE WOOD
REMNANT CARPET COMPANY,OKLAHOMA CITY,OK,73119,(405) 631-3522,http://www.remnantcarpet.com/,
SAM'S CARPET & FURNITURE INC,SAN JOSE,CA,95122,(408) 238-2298,http://www.samscarpetfurniture.com/,SAM CHANG
J & J CARPET INC.,VIDALIA,LA,71373,(318) 336-8318,http://jandjcarpetla.com/,HAROLD ARCHER
EASY LIVING FLOORING LLC,LUDINGTON,MI,49431,(231) 843-1826,http://www.easylivingflooring.com/,"JEROME KNIZACKY, OWNER"
WISCONSIN WOODWORKS INC,DICKEYVILLE,WI,53808,(608) 568-7700,http://www.wisconsinwoodworksinc.com,DANIEL L JANSEN      PRES
LUMBER ONE HOME CENTER,MAYFLOWER,AR,72106,(501) 470-1122,http://www.lumberonehomecenter.com,JOHN MORTON
QUALITY FLOOR COVERINGS,MELBOURNE,AR,72556,(870) 368-5622,http://localdirectory.azcentral.com/quality+floor+coverings.9.79903051p.home.html,DALE PARISH
JO-MARK INSTALLATIONS INC,CENTEREACH,NY,11720,(631) 737-0638,http://www.jomarkinstallations.com,
"BUILDER CONTRACT SALES, INC.",MURRELLS INLET,SC,29576,(843) 651-3303,http://buildercontract.brandsource.biz/,TIM HELMS
CARPET OUTLET PLUS,BAKERSFIELD,CA,93308,(661) 323-3133,http://www.carpetoutletplus.com,MARK CARROLL
FLOORING FASHIONS INC,O'FALLON,IL,62269,(618) 632-4077,N/A - business closed,
HERITAGE CARPET,POUGHKEEPSIE,NY,12601,(845) 297-3492,http://www.heritage-carpet.com/,
SURFACES INC,ROCK SPRINGS,WY,82901,(307) 382-6907,http://www.surfaces.net/,BILL LITTLE
GOOD'S FLOOR STORE INC.,DECATUR,IL,62526,(217) 875-1551,http://www.goodsfloorstore.com,JAMES EDWARD GOOD
MALLARY CARPET & FLOORING,GLEN BURNIE,MD,21061,(443) 749-0244,http://www.mallarycarpet.com/,JIM MALLARY
"MURPHY, REDMOND PATRICK INC.",CRYSTAL LAKE,IL,60014-6251,(815) 455-4070,N/A,PAT
CERAMIC SURFACES INC,SUGAR HILL,GA,30518,(770) 271-0902,http://www.hillmanflooringanddesign.com/,JAMES
SUN VALLEY CARPET,CONCORD,CA,94520,(925) 827-8788,http://www.sunvalleycarpets.com/,JOSEPH COUTERMARSH/OWNER
ENYART FLOORING,COLDWATER,OH,45828,(419) 678-8777,www.enyartflooring.com,MARK ENYART/OWNER
SOUTHERN INTERIORS & DESIGN,PEMBROKE,NC,28372,(910) 521-8331,N/A,CHARLES
FLOOR CENTER OF TEXAS INC,AUSTIN,TX,78728,(512) 989-7737,http://floorcenterstx.com/,JOELLA BROUSSARD/CEO
WESTERN PACIFIC FLRG CO LTD,SECHELT,CN,V0N 3A0,(604) 885-3582,N/A,PAUL SAUNDERS
STOLLER'S INC.,ORRVILLE,OH,44667,(330) 683-4763,http://www.stollerfloors.com/,DALE STOLLER
J & R CARPET & PAINT CENTER,HEMET,CA,92543,(951) 765-2781,N/A,JERRY WOMACK
"J.L. EDWARDS CO., INC.",GREENFIELD,WI,53228,(414) 543-6543,N/A,JANICE EDWARDS
DUPUY J E FLRING &ACOUSTICAL,MONROE,LA,71211,(318) 343-1737,http://www.jedupuy.com/,
ALLSTAR FLOORING,MOUNT VERNON,IL,62864,(618) 241-9478,N/A,
SUN PRAIRIE BIZ INC,SUN PRAIRIE,WI,53590,(608) 837-6466,N/A,SCOTT OLSON
BOBS AFFORDABLE CARPETS INC,NEW CASTLE,DE,19720,(302) 836-0466,http://www.bobsaffordablecarpets.com/,
MCGRAWS CARPETS,INDEPENDENCE,IA,50644,(319) 334-9355,N/A,
WESTCHESTER CARPETS,TORRANCE,CA,90502,(310) 787-0704,N/A,BILL KATZ
DAVIDS FLOOR COV & SUPPLIES,SILOAM SPRINGS,AR,72761,(479) 524-0043,http://www.davidsfloorcovering.com/default.asp,DAVID GUTHRIE     PRES
DISS INC II,TAYLORVILLE,IL,62568,(217) 824-2555,N/A,JAMES E. DISS OWNER
BLIER FLOORING,DOVER,NH,3820,(603) 516-8453,http://www.blierflooring.com/,JACQUELINE BLIER/PRES
BUFFALOE FLOOR COVERING INC,HOUSTON,TX,77018,(713) 686-3589,http://www.buffaloefloorcovering.com/,LARRY KRISTYNIK
SHOWCASE CARPETS,ALAMOGORDO,NM,88310,(575) 434-1338,N/A,
STARKVILLE FLOORING LLC,STARKVILLE,MS,39759,(662) 615-1404,http://starkvilleflooring.net/,BART WILLIAMS
"MARCHIO TILE AND CARPET, INC.",LOCKPORT,IL,60441,(815) 838-6050,http://marchiotile.com/   not working,MOLLY MARCHIO
GABRIELS CPTS WEST INC,EL PASO,TX,79913,(915) 581-4214,http://www.carpetswest.com/,ANDY
631029 ALBERTA LTD.,SPRUCE GROVE,CN,T7X 2K6,(780) 962-9604,N/A,KENT MIDDLETON
FACTORY TILE INC,SOUTH BEND,IN,46637,(574) 272-7000,http://www.retailflooringstores.com/in/factorytile/,RICHARD LINDZY/PRESIDENT
PERCHA PAINT & WALLPAPER,MOUNT PLEASANT,MI,48858,(989) 773-7046,N/A,"BUD PERCHA, PERCHA"
FRAZEE CARPET & INTERIORS INC,DURHAM,NC,27705,(919) 286-5570,http://www.frazeecarpet.com/,
IMPRESSIVE FLOORS,BEDFORD,PA,15522,(814) 623-0626,http://www.impressivefloors.net,CRAIG PRESS/OWNER
WARDCRAFT HOMES INC,CLAY CENTER,KS,67432,(785) 632-5970,http://www.wardcraft.com/,CAM MCVEAN
J & J ENTERPRISES,MONETT,MO,65708-0037,(417) 235-0016,N/A,
EVANS PAUL CARPETS INC,ODESSA,TX,79761,(432) 334-0418,http://www.goseepaul.com,
EXCLUSIVE CARPETS LTD,WINNIPEG,CN,R2M 3K7,(204) 233-8158,http://www.exclusivecarpets2008.ca/,AL OZE / TAMMY
OSBORNS GEORGIA CARPET,TERRE HAUTE,IN,47802,(812) 234-4423,http://www.osbornsgeorgiacarpet.com/,
CARPET CENTER INC,KISSIMMEE,FL,34741,(407) 846-3726,http://www.carpetandtilecenterinc.com/,RICHARD COUTURE  (DICK)
COMPLETE COMMERCIAL FLOORING,AIEA,HI,96701,(808) 487-8223,http://www.ccfhawaii.com/,RAYMOND OLINGER/VP
FASHION FLOORS OF AUSTIN,AUSTIN,TX,78751,(512) 451-5791,http://www.fashionfloors.com/,
KINGSTON HARDWOOD FLOORING & T,ABBOTSFORD,CN,V2T 4C6,(604) 852-0951,http://www.kingstonfloors.com,CALVIN DALE BOLOTT
J & R INDUSTRIES INC,FARMINGTON,MI,48336,(248) 888-1200,N/A,JERRY DILLARD
OGDENS CARPET OUTLET,DRAPER,UT,84020,(801) 557-7361,http://ogdensflooring.com/draper.html,
DECORATORS CHOICE,HORNELL,NY,14843,(607) 324-6001,N/A,
JOHNSON & SONS CONTRACTORS,KNOXVILLE,TN,37922,(865) 281-0002,http://www.johnsonandsonscarpet.com,RICHARD T JOHNSON/PARTNER
WINKELS CARPET,PERHAM,MN,56573,(218) 346-2924,http://www.winkelscarpet.com/,RICH
THEISS FURNITURE & CARPET,LA GRANGE,KY,40031,(502) 222-9449,http://www.theisshomefurnishings.com/,ROBERT WAYNE THEISS
PRANCING PONY INC,SUTTON,NE,68979,(402) 773-4215,N/A,JOHN CAMPBELL/PRES
R & J CARPET CONNECTION,WHITEHALL,PA,18052,(610) 264-0556,http://randj.flooringplus.com/,PATTY  - ACCTS PAYABLE
FAYETTE FLOOR & WALLCOVERING,FAYETTEVILLE,GA,30214,(770) 461-3549,http://www.fayettefloor.com/,DENISE EXT 207 ONLY SPK
JUBILEE FLOORING & DECORATING,DAPHNE,AL,36526,(251) 625-1700,http://www.jubileeflooringanddecorating.com/,
FLOORING DIRECT,CLAYTON,NC,27520,(919) 359-0420,http://www.claytonflooringdesign.com/flooring.asp,DAVID WOODING JR
SELANDS INC,COON VALLEY,WI,54623-0255,(608) 452-3129,http://www.selandsflooring.com,
CARPET OUTLET INC,PALATINE,IL,60074,(847) 358-3838,N/A,SAME
CARPETILE MORRIS INC,MORRIS,IL,60450,(815) 942-5600,N/A,
ARTISONS FLOOR FASHIONS,EDMONTON,CN,T6E 5C5,(780) 413-4847,http://www.artisonsfloorfashions.com/en/index.php,MICHAEL EXERT
KARPET KORNER PNT& SUP,BATESVILLE,AR,72503,(870) 793-6579,N/A,
HENRY JAMES CARPETING,JAMESTOWN,NY,14701,(716) 484-7682,N/A,
ENCORE FLOORING & BLDG PRODUCT,SPRINGDALE,AR,72764,(479) 361-8900,http://www.encoregroupusa.com,
WESTSIDE ROLLING CARPETS,MADISON,WI,53716,(608) 221-7847,N/A,ROBERT WALGENBACH
3-B CARPET & FLOOR COVERING,PARKERSBURG,WV,26101,(304) 485-7847,N/A,WILLIAM C PARRISH
INTERIOR HOME FURNISHINGS,BAD AXE,MI,48413-9016,(989) 269-9509,http://interiorhomefurnishings.com/,JAMES JUSTIN/PRES
FLOOR STORES OF AMERICA INC,LA PORTE,IN,46350,(219) 326-7011,N/A,JAMES ROY
FIRST CHOICE FLOORCOVERING,CANTON,MI,48187,(734) 981-3000,N/A,CARL SCHMIDT (PRESIDENT)
LOCATION CARPET COMPANY INC,WICKLIFFE,OH,44092,(440) 392-2000,http://www.locationcarpet.com,TERRY SCHNEIDER
CLEMMONS CARPETS,CLEMMONS,NC,27012,(336) 766-8110,http://clemmonscarpets.com/,DOUG JOHNSEN
SAV-ON FLOORING INC,ANCHORAGE,AK,99503,(907) 561-5900,http://www.savonak.com/,MATTHEW HICKEY
WINDOWS WALLS 'N' FLOORS,RIDGECREST,CA,93555,(760) 446-2204,http://www.windowswallsnfloors.com/,SUZANNE FORD/OWNER
FLOORING SOURCE LLC,FRIENDSWOOD,TX,77546,(281) 992-7373,http://www.myflooringsource.net,RICHARD MATHEWS/PRES
CARPET WAREHOUSE SAVER INC,OAKTON,VA,22124,(703) 352-0042,N/A,ARMANI MAHOOZI
VERHEY CARPETS EAST INC,GRAND RAPIDS,MI,49506,(616) 459-7344,http://www.verheycarpets.com,DAVID VERHEY
"CORNERSTONE INTERIORS, INC",SANTA CLARITA,CA,91350,(661) 259-8635,http://www.carpetclearancecustomflooringcenter.com/,SAME
QUALITY FLOORS,WEST PLAINS,MO,65775,(417) 255-1727,http://www.qualityfloorswestplains.net/,CHUCK & CHERIE HOLMES
US SEWING CENTER,SANTA MARIA,CA,93454-2240,(805) 922-5738,N/A,MORRIS SHULMAN
MIDSTATES FLOORING & FURN CO,BROOKINGS,SD,57006,(605) 697-6333,http://www.midstatesflooringcenter.com/,
WHITE RIVER FLOORING INC,SEARCY,AR,72143,(501) 268-5370,http://www.whiteriverflooring.com,WAYLON REEVES/PRES
TOTAL FLOORING INC,HOMER GLEN,IL,60491,(708) 301-4142,http://www.totalflooringinc.com/,DAVID ALO
QUALITY CARPET & FLOORING,LANSING,IL,60438,(708) 474-9565,http://qualitycarpetsandfloors.com/,
BADGERLAND FLOORING OF,RICHLAND CENTER,WI,53581,(608) 649-3567,http://www.badgerlandflooring.com/,
ASHTON'S FLRCOVERING CTR LTD,SALMON ARM,CN,V1E 4N7,(250) 832-0500,N/A,
CARPET GALLERY INC THE,GOSHEN,IN,46526,(574) 534-1177,N/A,
FASHION STORE INC,GIBSON CITY,IL,60936,(217) 784-4830,http://www.thefashionshopinc.com/,
"TREND CARPETS, INC.",GLENDALE HEIGHTS,IL,60139,(630) 893-4470,http://www.trendcarpettile.com/,
ARMSTRONG FLOOR & WALL,DEMING,NM,88030,(575) 546-2643,N/A,
SLOANS FLOORCOVERING INC,LONGVIEW,WA,98632,(360) 575-8055,http://sloansfloorcovering.brandsource.biz/,JOE SLOAN/PRES
MONTGOMERYS FURNITURE OUTLET,MADISON,SD,57042,(605) 256-4000,http://montgomerysfurniture.com/,HARLEY
SANFORD CARPET INC,SANFORD,FL,32773,(407) 322-3241,http://sanfordcarpet.com/,
SOUTHERN CPTS OF TEXAS,NASH,TX,75569,(903) 832-3555,N/A,"NANCY,ANNETTE."
FRANKLIN RICH ENT INC,LAFAYETTE,IN,47905,(765) 447-5520,N/A,RICHARD FRANKLIN
INTERIOR DREAMS,PAGOSA SPRINGS,CO,81147,(970) 731-4101,N/A,LEON CUNNINGHAM/OWNER
GEORGIA QUALITY CPT OTLT,HOLLY,MI,48442,(248) 634-0400,http://www.georgiaqualitycarpetoutlet.com/,SAME
CARPET SOURCE PLUS INC,NORTHWOOD,OH,43619,(419) 697-4439,http://carpetsourceplus.com/,JACK LYNCH PRES
J B CARPET BARN,LOUISVILLE,KY,40272,(502) 933-8900,http://www.jbscarpetbarn.com/,
FATHER & SON'S CARPET LLC,VERO BEACH,FL,32967-1559,(772) 569-5457,http://www.carpetverobeach.com/,TIM JOBE/PRES
HIXSON CARPET & TILE,HIXSON,TN,37343,(423) 843-3324,N/A,BILL MYRICK
ADAM J FLOORING CO INC,COLLEGEVILLE,PA,19426,(610) 831-5942,N/A,ADAM J KASOPSKY
ADVANCED CARPET & FLOORING,GREENBRIER,AR,72058,(501) 679-0641,N/A,STEVE JONES/PRES
PRINCETON CARPET INC,PRINCETON,IL,61356,(815) 879-0005,http://www.wyanetcarpet.com/,HARRY T BURROWS - PRES
BROWNS FURNITURE,LIBERAL,KS,67905,(620) 624-3482,http://brownsfurnitureliberal.com/Home/tabid/14865/Default.aspx,ALAN BROWN
SMULEKOFF FURNITURE CO INC,CEDAR RAPIDS,IA,52407-4090,(319) 362-2181,http://www.smulekoffs.com/,
TOWN & COUNTRY CPT AND FLRCOV,MAPLE GROVE,MN,55369,(763) 533-2486,http://www.townandcountrycarpet.net/,LUCAS FARRAND/OWNER
CARPET CENTRAL FLRNG CTR INC,SALINA,KS,67401-7412,(785) 827-8755,http://www.salinafyi.com/marketplace/businesses/carpet-central/,STEVEN FITZGERALD/PRES
WESTCO SERVICES INC,BELLEVUE,WA,98005,(425) 747-2205,http://www.westcofloors.com/,"BILL,LINDA,MARK & BILL JR"
SHANNON ENTERPRISES INC,FAIR OAKS,CA,95628,(916) 416-3203,http://www.vacantinteriors.com/,DON SHANNON
MESQUITE TILE & FLOORING,MESQUITE,NV,89027-5138,(702) 346-7225,http://www.mesquitetile.com/,CARROLEE
STANDALE CARPET & FURNITURE,GRAND RAPIDS,MI,49534,(616) 453-8201,http://www.standaleinteriors.com/,
CARPET MAN INC THE,CUMBERLAND,IN,46229,(317) 894-0000,N/A,
ALLEN'S CARPET,HANNIBAL,MO,63401-5438,(573) 221-0107,http://www.allenscarpetinc.com/,
HINES SITE GROUP INC,PITTSFIELD,MA,1201,(413) 443-6459,http://www.stevensworldofflooring.com/,WILLIAM MURRAY/PRES
CF CENTER LLC,STUART,FL,34994,(772) 781-6220,N/A,NICHOLAS ELLIOTT/CFO
ELDRIDGE POLLARD SALES,SEBRING,FL,33870,(863) 385-6654,N/A,ELDRIDGE POLLARD/OWNER
CARPET WHOLESALE OUTLET,BLUEFIELD,WV,24701,(304) 327-8020,N/A,FRANK MAMONE
FLOORS AND MORE DESIGNS,ELWOOD,IN,46036,(765) 552-3830,http://www.floorsandmoredesign.com/,"THERESA CLYMER, OWNER"
NATIONWIDE CARPET & RUGS,ROCHELLE PARK,NJ,7662,(201) 226-9676,http://nationwidecarpetandrugs.com,DAVID MCMORROW/PRES
SOLO FLOORING INC,ALEXANDRIA,VA,22309,(703) 780-1970,http://www.soloflooring.com/,JOCELYN PONCE-LOPEZ
SABLOTNY PAINT & FLOOR,JACKSONVILLE,IL,62650,(217) 245-1571,http://www.sablotnyfloors.com/,
CARPET-N-THINGS OF YUCCA VLY,YUCCA VALLEY,CA,92284,(760) 228-1841,N/A,
FLOORING EXPRESS INC,COOPER CITY,FL,33328,(954) 437-4116,N/A,
L & P CARPET INC,ANNA,IL,62906,(618) 833-8913,http://www.lpcarpet.com/,PATSY CHILDERS/PRESIDENT
TOWNES & WEAR INC,PARIS,TX,75460,(903) 785-6491,http://smithcarpetsparis.com/,BOBBY WEAR
CREATIVE CARPET BY HEFFRON INC,FRAMINGHAM,MA,1702,(508) 626-9353,http://www.creativecpt.com/index.htm,
WARRENS PAINT & DECORATING,WEBSTER,NY,14580,(585) 671-6400,http://warrensdecorating.com/,
CHURCHS CARPET INC,HICKORY,NC,28602,(828) 327-0404,http://churchscarpet.com/,PAM NORRIS
ENGRAVS DECORATING CENTER,WINONA,MN,55987,(507) 454-6737,http://www.engravs.com/,MARV
ROYAL FLOORS,FARMINGTON,NM,87401,(505) 327-0476,http://www.royalfloorcompany.com/,
THOROUGHBRED CARPETS OF AUSTIN,AUSTIN,MN,55912,(507) 433-6440,http://www.tbredcarpets.com/,
TRUDEL FLOORING INC,WARREN,MI,48088,(586) 774-7590,http://www.trudelflooring.biz/,BERNARD T ADAMSKI/PRES
NATIONWIDE FLOOR & WINDOW,MONUMENT,CO,80132,(719) 487-7767,N/A,RICHARD CARSON/PRES
BLUE RIBBON CARPET SALES INC.,BURBANK,CA,91502,(818) 845-5614,http://www.blueribboncarpetsalesinc.com/,
KEY TRUCK LEASING INC,MOUNT WASHINGTON,KY,40047,(502) 955-1655,N/A,RON BARNETT
KINGDON'S TV & HOME CTR*MLD/MB,WATSEKA,IL,60970,(815) 432-5448,N/A,KEN & BOB KINGDOM
MODERN FLOOR COVERING,OSKALOOSA,IA,52577,(641) 672-2303,http://www.modernfloor.net/,DENNIS BRYAN/OWNER
ACTION FLOORING KINGSTON,KINGSTON,CN,K7M 5V7,(613) 634-3657,http://www.actionflooringkingston.com/,ALAN THOMSON/BILL WILSON
PEASE CUSTOM FLOORS,SMITHVILLE,TX,78957,(512) 360-5553,http://www.peasecustomfloors.com/Home_Page.html,GRANT PEASE        OWNER
HAGEWOOD ENTERPRISES INC,SHERWOOD,AR,72120,(501) 833-9510,N/A,BRIAN HAGEWOOD/PRESIDENT
THE CARPET MARKET,BELOIT,WI,53511,(608) 362-2077,http://www.carpetmarket.net/ -,JAY C TOUBL/ OWNER
INKROTE FLOORS INC,GRANTS PASS,OR,97526,(541) 476-2164,http://www.inkrotefloors.com,WILLIAM W. INKROTE PRES
IRAUST CORPORATION,CLIFFSIDE PARK,NJ,7010,(201) 941-9505,N/A,LYNNE NESBIHRL
VANDEHAAR CARPETS,CALEDONIA,CN,N3W 1M6,(905) 765-5525,http://www.vandehaarflooring.com/,STAN BREZNICAR
HAMRE'S INC.,STAFFORD,TX,77477,(281) 494-9200,http://www.hamresfloors.com/,
PAINT & GLASS INTERIORS,THIEF RIVER FALLS,MN,56701,(218) 681-3012,N/A,DALE DILLON
WESTCOTT HINDMARSH DIST CO,HARVEY,IL,60426,(708) 331-6177,http://www.walkertile.com/,
WRIGHTS CARPET INC,SWANNANOA,NC,28778,(828) 298-1142,http://www.wrightscarpet.com/,SAME
CAVIN ENTERPRISES INC,ASHLAND,KY,41101,(606) 324-0260,N/A,
EXTREME FLOORS OF CAMERON INC,CAMERON,MO,64429,(816) 632-8200,http://www.extreme-floors.com/,BART WALKER
SHAWS CARPETS INC,FREDERICKSBURG,VA,22408,(703) 680-4021,http://shaws.brandsource.biz/,CHRISTINA SHAW
AVANT-GARDE CARPET & FLRS INC,WALDORF,MD,20603-4758,(301) 893-5600,www.avantgardecarpet.net,JIM RAHAI
CARPET & FLOORS MARKET INC,WALDORF,MD,20603,(301) 374-9992,http://www.carpetandfloorsmarket.com/,RAMIN GHODS
ABOUT ALL FLOORS,BIRDSBORO,PA,19508,(610) 385-7847,http://aboutallfloors.brandsource.biz/,THOMAS HEFFNER
FAMILY FLOORING LLC,CHESAPEAKE,VA,23321,(757) 548-4545,http://www.familyflooring.net,
BAILEY LUMBER & SUPPLY CO,GULFPORT,MS,39506-6039,(228) 896-6071,http://www.baileylumber.com,GAYE STANCEL
TONYS FLOORCOVERING INC.,PUEBLO,CO,81004,(719) 564-9640,http://www.tonysfloorcoverings.com/,ANTHONY ESPINOZA
"CARPET CITY EXPRESS, INC.",COON RAPIDS,MN,55448-1205,(763) 421-8660,http://www.carpetcitymn.com,DEWEY
AKERS DISTRIBUTORS INC.,AUBURN,ME,04210-3612,(207) 784-1511,N/A,CLIFFORD M. AKERS JR-PRES
CARPETS OF URBANA,URBANA,OH,43078,(937) 653-7770,http://www.carpetsofurbana.com/,STEVE JACOBS
NU FLOOR INC,TUSCALOOSA,AL,35401,(205) 343-2200,http://www.nu-floors.com,JEFFERY
HARTTER INTERIORS,ROANOKE,IL,61561,(309) 923-7355,N/A,SAME
TOWN SQUARE FLOORS,GEORGETOWN,TX,78626,(512) 863-2867,www.townsquarefloors.com,"SALES;HARRIET, DELISE"
M & M CARPET ENTERPRISE INC,MANASSAS,VA,20111,(703) 368-5533,N/A,
ORGAIN BUILDING SUPPLY,CLARKSVILLE,TN,37041,(931) 647-1567,www.orgainbuilding.com,SCOTT KEY
ADAIR FLOORS N MORE INC,FRANKLIN,WI,53132,(414) 761-3660,www.adairfloors.com,
VOLUNTEER FLOOR COVERING,ROAN MOUNTAIN,TN,37687,(423) 772-4947,http://volfloorcovering.com/,JOHN EDNEY
EARLYS CARPET INC,AMISSVILLE,VA,20106,(540) 937-5500,http://www.earlyscarpetinc.com/,SAME
STRAND'S INC,MARSHALLTOWN,IA,50158,(641) 752-5451,http://www.strandsinc.com,
"L.J.M. INVESTMENTS, INC.",EUREKA,CA,95503,(707) 442-2987,N/A,JERRY
STEVENS FLOOR COVERINGS,GAINESVILLE,TX,76240,(940) 665-0318,http://www.stevensfloorcoverings.com,GARY ENDRES
CARPET WORLD OF COLO SPRINGS,COLORADO SPRINGS,CO,80915-1211,(719) 531-0402,http://www.carpet-world.net/,SAME
ARMANDS CARPET & LINO,FALL RIVER,MA,2724,(508) 679-2745,http://www.armandscarpets.com/,PATRICIA O'BRIEN
WHOLESALE CARPET,TOMAHAWK,WI,54487,(715) 453-4248,N/A,ARTHUR ZIETLOW
CARPETMAN,MILTON,PA,17847,(570) 742-3733,N/A,JON J CAMPTON
A C S ONE INC,MACHESNEY PARK,IL,61115,(815) 633-4101,http://www.carpetrockford.com/,
CHATHAM RUG CO INC,CHICAGO,IL,60643,(773) 238-0200,http://www.chathamrug.com/,JIM KATZMANN
CITY SALVAGE INC,LAUREL,MS,39441-6524,(601) 428-4195,N/A,LARRY W LOFTIN/PRES
FREEBURG HOME CENTER,FREEBURG,MO,65035,(573) 744-5405,http://www.freeburghomecenter.com,MIKE WILDE-PRES
HILLS INTERIORS INC,BELLE FOURCHE,SD,57717,(605) 892-2904,N/A,
OZARK FLOORING,POPLAR BLUFF,MO,63901,(573) 785-1111,N/A,LEE COTRELL-OWNER
STOUTS CARPET INC,NEW ALBANY,MS,38652,(662) 534-7450,http://stoutscarpetms.com/,RUBY
NEW LOOK FLOOR COVERINGS INC,NEW LENOX,IL,60451,(815) 485-5665,http://newlookfloors.net/,
JD KRANE INC,PHARR,TX,78577,(999) 999-9999,http://www.jdkrane.com/,
WATTS & WEBB FLR COV INC,HARRISON,AR,72601,(870) 741-2142,N/A,
QUALITY CARPETS,DEL RIO,TX,78840,(830) 768-1667,http://www.qualitycarpettile.com/,ELISEO RODRIGUEZ-OWNER
FREDERICK FURNITURE INC,GRUNDY CENTER,IA,50638-1439,(319) 824-5235,http://www.frederickfurnitureinc.com,H CRAIG FREDERICK
KARPET KORNER INC,WENATCHEE,WA,98801,(509) 662-3428,N/A,
JAMES BROS CARPET & TILE INC,BUNNELL,FL,32110,(386) 445-4050,http://www.jamesflooring.net/,C.E. JAMES
STEINER FURNITURE CO,CISSNA PARK,IL,60924,(815) 457-2611,N/A,EDWARD STEINER/PRESIDENT
BROTHERS FLOORING,ROCK FALLS,IL,61071,(815) 535-9226,N/A,KEITH GRELL
CARPET & DESIGN EMPORIUM LTD,LYNBROOK,NY,11563,(516) 256-2800,www.cptemp.com,SIZ TORBATI
NOVA FLOORING WHOLESALERS,CHANTILLY,VA,20151,(703) 449-5900,http://www.novaflooring.com,
FLOOR SYSTEMS INC,HUNTINGTOWN,MD,20639,(410) 257-7380,http://www.floorsystems.net,ROGER MURPHY
WILMINGTON CARPETS INC,WILMINGTON,OH,45177,(937) 383-1077,http://www.wilmingtoncarpets.com/,CHARLES AUTRY
CARPET & BLINDS CENTER,ASHBURN,VA,20146,(703) 378-7400,http://www.carpetandblindscenter.com/,ALEX
LEHMAN DECORATING CENTER,CARLSBAD,NM,88220,(575) 885-1803,N/A,
MADISON PAINT & DEC CTR INC,MADISON,AL,35758,(256) 430-4343,http://www.madisondeccenter.com,
LEGATE DISCOUNT FURN,MADISONVILLE,KY,42431,(270) 821-2050,http://www.legatefurnitureworld.com/,"DAVIS LEGATE, PRESIDENT"
MICHAELS FLOOR COVERINGS,FORT WAYNE,IN,46815,(260) 486-3131,http://www.michaelsfloorcovering.com/,SAME
DISCOUNT FLOORING,PETOSKEY,MI,49770,(231) 487-0096,N/A,DON HOWELL-OWNER
PRESCOTT FLOORS INC.,PRESCOTT,AZ,86305,(928) 771-9121,http://www.prescottfloors.com/,PEGGY HURST
CARPET MILL DISCOUNTERS,COCKEYSVILLE,MD,21030,(410) 666-0101,http://www.carpetmilldiscountersinc.com,ROB LAWRENCE
FLOORS N MORE,LUFKIN,TX,75904,(936) 699-4530,N/A,ROBERT D. POWERS-OWNERS
ELCO FLOOR COVERINGS INC,MYERSTOWN,PA,17067,(717) 866-1368,http://www.elcofloor.com/,RONALD DIEM
REDEKER FURNITURE CO,BOONE,IA,50036,(515) 432-5523,http://www.redekers.com,
TORBIT DECORATING SHOPPE,HIGHLAND,IL,62249,(618) 654-4305,N/A,CHARLES TORBIT
FLINT CARPET CO,FLINT,MI,48507,(810) 732-5210,http://www.flintcarpetco.com,JERALD ROSENBURG
CARPET CORNER INC,NEW ALBANY,IN,47150,(812) 948-0755,http://carpetcorner602.com/index.html,MIKE & HANSON
INDEPENDENT FLOOR COVERING,FORT GRATIOT,MI,48059,(810) 984-4196,http://www.independentfloor.com/,THOMAS C THIELE      PRES
LEGACY FLOOR COVERING,AMARILLO,TX,79109,(806) 331-0094,http://legacyfloorcovering.com,RICHARD J WALDERS
TOWNE CARPET & FLOORING INC,ONEONTA,NY,13820,(607) 433-2222,N/A,
BAXLEY CARPET CO.,STATESBORO,GA,30461-6814,(912) 764-5033,N/A,
"ISABELLA FLOORING, INC.",LAKE ISABELLA,CA,93240,(760) 379-4427,http://www.isabellaflooring.com,
MIKE'S FIVE STAR FLOORING INC,LEXINGTON,NE,68850,(308) 537-2827,N/A,
CARPETLAND,LIVERMORE,CA,94551-7615,(925) 455-7200,http://www.carpetlandflooring.com/,
DONS CARPET CENTER,WASHINGTON,IN,47501,(812) 254-6635,N/A,
COUNTRY CARPETS,RUSSELLVILLE,AR,72802,(479) 968-7983,N/A,JERRY TAYLOR
FLOORS BY DESIGN OF SUMTER LLC,SUMTER,SC,29150,(803) 469-6089,http://www.floorsbydesignsumter.com/,JEFF STAAB 803-720-4330
AMERICAN FLOOR CONTRACTORS LLC,WEST HAVEN,CT,6516,(203) 932-2323,N/A,
FLOOR MART WEST,LEXINGTON,SC,29073,(803) 957-7883,http://www.floormartwest.com,RUTH & CHARLES HUGGINS
"CLOUD BROTHERS, INC.",SOUTH BEND,IN,46628,(574) 289-0395,http://www.cloudbrothers.com/,BRUCE C. AUGER
FINE FLOORS,SAN ANTONIO,TX,78254,(210) 372-1301,http://www.finefloors.net/,LINDA MASON/OWNER
CARPETS WITH A TWIST INC,RED BANK,NJ,7701,(732) 758-9000,http://www.carpetswithatwist.com/,CRAIG KNOX
FABRIC TOWN INTERIORS INC,HUNTINGTON,WV,25705,(304) 736-9241,http://www.fabrictowninteriors.com/,RANDY DUNFEE
DISTINCTIVE FLOORING,MURPHYSBORO,IL,62966,(618) 684-5320,http://www.shopdistinctiveflooring.com/contacts.php,F. KEITH STOKES
CARPET SUPER MART INC,GREENSBORO,NC,27407,(336) 292-0724,www.carpetsupermart.com,SAME
RAINBOW CARPET & RUG INC,ROCKVILLE,MD,20850,(301) 762-0011,http://www.carpetpalaceusa.com/,DO NOT EXCEED GUIDE
HILLSDALE INTERIORS INC,HILLSDALE,MI,49242,(517) 523-4111,http://www.hillsdaleinteriors.com/contact-us.aspx,CATHARINE BEARMAN/PRES
SETHS GALLERY OF FLRS INC,WINSTON SALEM,NC,27104,(336) 774-0506,http://sethsgalleryoffloors.interx2.net/,
ROSS FLOOR STORE,LINTON,IN,47441,(812) 847-1826,N/A,JESSICA L ROSS
HERITAGE CARPET & INTS LTD INC,HARTLAND,WI,53029,(262) 367-5951,http://www.heritagecarpethartland.com/,CAROLYN & JIM TAYLOR
BAREFOOT FLOORING INC,CASTLE HAYNE,NC,28429,(910) 772-1735,http://www.barefootflooring.com/,JAMES
EAST TEXAS CARPETS INC,NACOGDOCHES,TX,75961,(936) 564-6742,N/A,SAMMY
DRENNERS CARPET GALLERY,BAY CITY,TX,77414,(979) 245-9103,http://www.drenners.com,PAT DRENNER
HUDRLIK CARPET SERVICE INC,CROSBY,MN,56441,(218) 546-5524,http://hudrlikcarpet.com,MARK HUDRLIK
DEVRIES FURNITURE & FLOOR COV,ARAPAHOE,NE,68922,(308) 962-7890,http://www.langfurniture.net/StoreProfile.aspx?StoreId=44035,KURT DEVRIES/OWNER
ROUHANIAN INC,FREDERICK,MD,21704,(240) 405-1365,N/A,MR MANSOUR ROUHANIAN
THE CARPET GALLERIA/SAMPLES,SIMI VALLEY,CA,93065,(805) 520-2030,N/A,
SMITTY'S FLOOR COVERING,DENTON,TX,76201-3023,(940) 382-3232,http://www.smittysfloorcovering.com/,RICK SMITH
KITCHEN & FLOOR DECOR INC,RICE LAKE,WI,54868,(715) 234-1790,http://www.kitchenfloordecor.com/,
GRAND AVENUE FLOORING,PACIFIC GROVE,CA,93950,(831) 372-0521,http://grandaveflooring.com/,TONY W GAMECHO
SIGNATURE FLOORS,ZACHARY,LA,70791,(225) 654-7110,http://www.signaturesouthernaccent.com/,
FSC ACQUISITION,MOLINE,IL,61265,(309) 762-9400,N/A,
R N R CARPET CENTER,OGDEN,UT,84404,(801) 394-0011,http://www.rnrcarpetcenter.com,
MIKES QUALITY FLOORING LLC,MONROE,MI,48162,(734) 289-1117,http://www.mikesqualityflooring.com/,CAROLYN DEROUCHIE
CARPET & FURNITURE DEPOT INC,CLAYSBURG,PA,16625,(814) 239-5865,http://carpetfurnituredepot.net,DENNIS L BURKET
ROYAL PLUS INC,SNOW HILL,MD,21863,(410) 677-3473,N/A,MATT ODACHOWSKI
NISTLER FLOOR COVERING,WALKER,MN,56484,(218) 547-4610,http://www.nistlerfloorcovering.com/,ROGER & MICHELLE NISTLER
MAIN STREET FLOORING & DESIGN,MOBILE,AL,36695-4229,(251) 639-7478,http://mainstreetflooringanddesign.com,H G MCINNIS
SPRINGVILLE CORP.,GARLAND,TX,75042,(972) 276-0348,N/A,HENRY TA
AUGUSTA CARPET MART INC,AUGUSTA,GA,30906,(706) 793-6629,http://augustacarpetmart.com/,CHUCK ROISER
FACTORY CARPET OUTLET,MILL HALL,PA,17751,(570) 893-1495,http://www.factorycarpetoutlet.net/,
YESHUA INC.,BROWNSVILLE,TX,78520,(956) 350-6777,N/A,FRANCISCO GALVAN   OWNER
CARPET STORE OF MILWAUKEE INC,MILWAUKEE,WI,53215,(414) 384-0630,http://www.carpetmillstoremilwaukee.com/,JAMES HISHMEH-PRESIDENT
C&C CARPETS INC,ALBUQUERQUE,NM,87114,(505) 898-5739,N/A,AMADOR CRESPIN
PRESTIGE CARPETS INC,CATHEDRAL CITY,CA,92234,(760) 324-5104,http://www.prestigeflooringcenter.com/,
LOUIES FLOOR COVERING,DES MOINES,IA,50312,(515) 243-5894,http://www.louiesfloorcovering.com/,RANDY OR JEFF BAGBY
BANOWETZ FLOORCOVERING,BELLEVUE,IA,52031,(563) 872-4723,http://www.banowetzfloorcovering.com/,LOREN M BANOWETZ
FLOORS BY REEVES BROTHERS,GREENVILLE,TX,75401,(903) 454-2878,N/A,EDDIE REEVES
ILLINOIS CARPET,DES PLAINES,IL,60016,(847) 297-7555,http://www.illinoiscarpetanddrapery.com/index.htm,KYU W LEE
WOODS HOUSEHOLD APPLIANCES,CLARE,MI,48617,(989) 386-2351,http://www.woodshousehold.com,RICK MOSER
MAIN PLACE FLOOR & WINDOW,COTTONWOOD,AZ,86326,(928) 634-2655,http://www.mainplacefloor.com/,STEVE D'ANGELO
STERLING CARPET SHOPS INC,STERLING,VA,20166-9331,(703) 450-5840,http://www.sterlingcarpetshops.com,"WINSTON WHITEHEAD, BOB LE"
CREATIVE CARPET & TILE,OAK RIDGE,TN,37830,(865) 481-2544,N/A,DAVID MCNEELEY
D & D FLOOR COVERING INC,VAN BUREN,AR,72956,(479) 474-0533,http://www.ddfloorcovering.com/,
TWIN OAKS CARPET,ROMEOVILLE,IL,60446,(815) 372-2444,http://twinoakscarpet.com,
CARPET STORE INC THE,CORNING,IA,50841,(641) 322-3939,http://www.carpetstoreiowa.com/,MATTHEW RILEY
PAINT & GLASS SUPPLY CO INC,DEVILS LAKE,ND,58301,(701) 662-4976,N/A,TOM/TERRY
TISSOTS HOME CENTER,HILLSBORO,OH,45133,(937) 393-4275,http://www.tissotshomecenter.com/,"DARRELL TISSOT, PRESIDENT"
CLASSIC FLOOR COVERING INC,ELKINS,WV,26241,(304) 636-9872,N/A,"PAUL MACE, PRES"
LOWELL CARPET & COVERINGS,LOWELL,IN,46356,(219) 696-8800,http://lowellcarpetcoverings.ambz.com/,
DAVES DECORATING CENTER,CHARLESTON,IL,61920,(217) 345-5921,http://davesdecoratingcenter.com,DAVID S.  BALLINGER OWNER
ERICKSONS FURNITURE INC,NORTH PLATTE,NE,69101,(308) 532-7500,http://www.ericksonsfurniture.com/,
QUALITY FLOORING,COLUMBIA,MS,39429,(601) 736-5113,http://www.qualityfloorsinc.com/,
BAUER FLOOR COVERING,SOUTH ST PAUL,MN,55075,(651) 451-6437,http://www.bauerfloorcovering.com,GREG BAUER
CARPET & TILE JUNCTION,APACHE JUNCTION,AZ,85120-4209,(480) 984-2146,N/A,
HASTY CARPET CO,SAINT AUGUSTINE,FL,32084,(904) 824-4311,http://www.hastyscarpet.com/index.htm,
WIESER & CAWLEY INC,MARIETTA,OH,45750,(740) 373-1676,http://www.wieserandcawleyfurniture.com,DAN CAWLEY
SUMMIT FLOOR & WALL COV LTD,WINDSOR,CN,N8S 1M9,(519) 944-7662,http://www.summitfloor.com,RICHARD MARTINELLO
CLASSIC CARPETS,FAIRFIELD,OH,45014,(513) 829-6087,http://classiccarpets.flooringplus.com/,"LONNIE,PAMELA,CATHY"
RIGGENBACH TILE&LINOLEUM INC,NEW MARTINSVILLE,WV,26155,(304) 455-1221,http://www.riggenbachtile.com/,
DELLA FLOORS,FLOWER MOUND,TX,75028,(972) 874-9000,http://www.dellafloors.com/,MEHRDAD MOSLEY/OWNER
STUS HOME INTERIORS,WAUPACA,WI,54981,(715) 258-3333,http://www.stushomeinteriors.com,STUART DUCKOW
VERN'S CARPET,FERTILE,MN,56540,(218) 945-6926,N/A,VERN ANDERSON/OWNER
FLOORCRAFT,MANSFIELD,OH,44907,(419) 884-2311,N/A,TOM WASHINGTON
MAY G & SONS FURNITURE,JASPER,AL,35501,(205) 384-6035,https://www.gmayfurniture.com,
GLASTONBURY CPT WORKSHOP LLC,GLASTONBURY,CT,06033-2320,(860) 633-8832,http://www.glastonburycarpet.com/,
MCFARLAND BIZZ INC,MC FARLAND,WI,53558,(608) 838-3000,http://www.bisbeesmcfarland.com/,KEN SMITH
OLD WORLD STONE IMPORTS LLC,OREM,UT,84058,(801) 431-0137,http://www.oldworldstoneimports.com,STEVE BERRY
DIETZENS CARPET & FLOORING INC,FREDONIA,NY,14063-1304,(716) 672-4468,N/A,TERRY DIETZEN
PETERSON PAINT & FLOORS,STORY CITY,IA,50248-1020,(515) 733-2031,www.petersenscarpetandflooring.com/.,STEVE PETERSON/PRES
FEEL GOOD FLOORS INC,LEXINGTON,TN,38351,(731) 967-0961,http://feelgoodfloors.com/index.php?option=com_frontpage&Itemid=1&Itemid=30,RODNEY L. JOHNSON
RITE CARPET & DECORATI,BRIDGEPORT,OH,43912,(740) 635-2447,N/A,RAYMOND MILBERT
WANCOR INC,CEDAR CITY,UT,84720,(435) 586-3232,http://www.pioneerfloor.com/,ROBERT S WANKIER     PRES
LOMBARDI FURNITURE & INTERIORS,COLLINSVILLE,IL,62234,(618) 343-1900,http://www.lombardiinteriors.com,ROBERT LOMBARDI/PRESIDENT
VICTOR FURNITURE,PITTSFORD,NY,14534-2054,(585) 586-5866,http://www.victorfurnitureinc.com/,"SANDY, IRA,"
SUNSET CARPET & DRAPERIES,NAPLES,FL,34104,(239) 643-6100,N/A,
QUALITY CO INC,OLIVE BRANCH,MS,38654,(662) 252-5098,N/A,
JERIDON FLOOR COVERINGS INC,LOUISVILLE,KY,40291,(502) 231-1100,N/A,JERRY VIRES
TRI COUNTY CARPETS,LIVERPOOL,NY,13088,(315) 457-3015,http://tricountycarpets.com/,
THREE RIVER DECORATING INC,WAHPETON,ND,58075,(701) 642-8454,www.threeriversdecorating.net,RICK
CARPET DEPOT INC,BRADENTON,FL,34207,(941) 753-5200,http://www.bestvaluecarpet.com/,
VANCO FLOORING,GALLIPOLIS,OH,45631,(740) 446-0137,N/A,
CARPET CONNECTION,CLOQUET,MN,55720,(218) 879-6367,http://www.carpetconnection.org/,
MILLERS OF CLAFLIN INC,CLAFLIN,KS,67525,(620) 587-3601,http://www.millersofclaflin.com,BILL MILLER
BUCKLEYS CARPET & LINOLEUM,DANVILLE,PA,17821,(570) 275-0590,http://www.buckleyscarpet.webs.com/,DON BUCKLY & RUBY BUCKLY
SAV-ON CARPET OF INDIO,INDIO,CA,92201,(760) 347-3434,http://www.savoncarpets.com/,
ALLEYS CARPET OF GADSDEN,GADSDEN,AL,35904,(256) 543-8330,http://www.alleyscarpet.com,"LEE ALLEY, OR STEVE"
CARPET MART,MOUNTAIN VIEW,CA,94040,(650) 941-1536,N/A,SAME
MILLERS COUNTRY CARPET INC.,WESTFIELD,IN,46074,(317) 984-3744,http://www.justfloorshome.com/,KIP MILLER
ELLIS HOME INTERIORS,MONTEZUMA,IA,50171,(641) 623-5223,N/A,RONALD P. ELLIS/OWNER
THORNTON'S CARPET & INTERIORS,SAINT PARIS,OH,43072,(937) 663-5288,http://www.thorntonscarpet.com/,
SLAY'S CARPET SHOP,CARMI,IL,62821-2105,(618) 382-3149,start.cortera.com,
BOMBERGERS STORE INC,LITITZ,PA,17543-0345,(717) 626-3333,http://www.bombergers.com/,"ROY BOMBERGER JR.,MIKE"
DARY CARPETS & FLOORS INC,STREAMWOOD,IL,60107,(630) 289-5000,http://www.darycarpet.com/,DON/SCOTT/MICHAEL
LINNS CARPET SERVICE,FARMINGTON,MN,55024,(651) 463-4887,http://www.linnscarpet.com/,
LOSCH FLOOR COVERING INC,MILLERSTOWN,PA,17062,(717) 589-7662,- No Response -,
HAVEL FLOOR COVERING INC,CLARKSTON,MI,48346,(248) 620-4523,http://www.havelfloorcovering.com/,BRIAN GALANT
KAMINSKI'S HOME FURNISH INC,JONESBURG,MO,63351,(636) 488-5922,http://www.shopkaminskifurnishings.com,
ARVADA WEST DECORATING & FLRNG,ARVADA,CO,80004,(303) 424-7333,http://www.awdecorating.com/,MATT VAGTS
BOHRERS FLOORS,HASTINGS,NE,68901,(402) 463-5667,http://www.corporationwiki.com/Texas/Whitewright/double-bar-j-enterprises-llc/36952513.aspx,B J BOHRER
DIMARIA CUSTOM CPTS &FINE FLRS,HOUSTON,TX,77027,(713) 626-9100,NONE,FRANK J DIMARIA/OWNER
COUNTRY CARPET,OKLAHOMA CITY,OK,73141,(405) 769-3535,http://www.countrycarpet.com/,DALE HORNER
KEYS FURNITURE CONNECTIONS INC,FLORIDA CITY,FL,33034,(305) 247-4000,http://shop.keysfurniture.com/,ROSS ELWELL/OWNER
COLONY FLOORING & DESIGN INC,STAFFORD,TX,77477,(281) 261-6161,http://www.colonyflooring.com,AMIR H. TAMOORY
BEST BUY CARPET INC,NICEVILLE,FL,32578,(850) 678-0041,http://www.bestbuycarpetinc.com/,
LAKE FOREST CARPETS INC,GREENVILLE,SC,29607,(864) 244-2510,http://www.lakeforestcarpets.com,
THE DAMATO GROUP LLC,CANTON,CT,06019-2538,(860) 693-1328,http://www.damatocarpet.com/,NICHOLAS DAMATO/OWNER
HAW RIVER FLOORING,HAW RIVER,NC,27258-0640,(336) 578-1809,http://www.hawriverflooring.com  **site closed,
FUSELIER KENNY & CO,LAKE CHARLES,LA,70601,(318) 478-6700,http://kennyfuselierflooring.com/,
PIEPER'S,BICKNELL,IN,47512,(812) 735-3022,not found,LEROY PIEPER/OWNER
LARRY'S CARPET & CERAMIC TILE,BEMIDJI,MN,56601,(218) 751-7448,n/a,LARRY FULLMER
ZEBULON FLOOR COVERING,ZEBULON,GA,30295,(770) 567-3365,http://zebulonfloorcovering.com/,
TUSTIN CARPET & FLOORING,SANTA ANA,CA,92705,(714) 550-9985,http://www.tustinflooring.com,DUC NGUYEN/OWNER
DOMINION FLOORS INC,ARLINGTON,VA,22207,(703) 536-4116,http://www.dominionfloors.com,"PHYLLIS, SUZANNE"
LOGAN CARPET,WEST LOGAN,WV,25601,(304) 752-4341,http://local.yahoo.com/info-12968048-logan-carpet-shop-west-logan,"FRED KAZEE,  OWNER"
A AMERICAN CONTRACTORS & SUPPL,NILES,IL,60714,(847) 966-0500,http://www.aamericanflooring.com/,IONEL CAPALNAS/PRESIDENT
DECOR INDUSTRIES INC,ANCHORAGE,AK,99503,(907) 562-2565,http://www.decorind.com/,
CARPET TOWN OF TRNTN INC,TRENTON,MI,48183,(734) 675-5515,http://www.carpettowninc.info,"RICHARD PIETRASIK, PRES"
BARTON CO CARPETS,SAN ANTONIO,TX,78217,(210) 655-8269,http://www.bartoncocarpets.com,FRANK GERAMITO
MILLER CUSTOM FLOORS LLC,LE SUEUR,MN,56058,(507) 665-4407,http://millercustomfloorsmn.com/,JAMES MILLER
R E W ENTERPRISES,SAN ANTONIO,TX,78216,(210) 349-7866,http://www.sunncarpets.com/,SAME BOB
CALDER GROUP LTD,ROCHESTER,NY,14623,(585) 292-5330,http://www.billscarpetcenter.com/,WILLIAM A. CALDER
BROADWAY CARPETS INC,KNOXVILLE,TN,37917,(865) 525-5511,http://www.broadwaycarpets.com/,JOHN MCCLELLEN
ELITE FLOORS,BURLESON,TX,76028,(817) 295-5574,http://www.eliteenterprises.us/,RANDY JAMES/PRES
FLOOR MART OF BROOKFIELD INC,BROOKFIELD,WI,53005-3103,(262) 781-0261,http://www.thefloormart.com/,
CARPET VALUE STORES LTD,WINNIPEG,CN,R2V 2B2,(204) 334-3700,http://www.carpetvaluestores.com/,FABIAN MOZALEWSKI/OWNER
PRESTIGE FLOORING CO,JEFFERSON,LA,70121,(504) 828-2200,http://neworleans.citysearch.com/profile/4434090/jefferson_la/prestige_flooring.html,
RICKS PARK N SAVE INC,CHILLICOTHE,OH,45601,(740) 773-2258,http://www.ricksparknsave.com,
BARRYS CARPET,MACON,MO,63552,(660) 385-2013,http://local.yahoo.com/info-17742336-barry-s-carpet-carpet-clean-macon,BARRY SHATZER - OWNER
GRIFFIS TILE CO INC,OCALA,FL,34472,(352) 624-2190,N/A,
CARPET WAREHOUSE WEST INC,NORTH OLMSTED,OH,44070,(440) 734-7060,n/a,
JOEL'S DECORATING CENTER,PALESTINE,TX,75801,(903) 729-3333,http://joelsdecoratingcenter.com/,JOEL BRUMLEY
FLOORWORKS & BLINDS LLC,SLIDELL,LA,70460-4688,(985) 781-7999,http://www.floorworksandblinds.com/,RAYMOND HORVATH JR/OWNER
AMERICAN CARPET SYSTEM INC,LANHAM,MD,20706,(301) 577-5090,none.,RAJ
MICHAELS CARPET & FLOORING,NIAGARA FALLS,CN,L2H 3C8,(905) 374-2721,N/A,MICHAEL LYNCH
S & M CARPET INC,MIDDLESEX,NJ,8846,(732) 356-7661,http://sandmcarpetinc.com/,JEFF & PETE
FINISHING TOUCH,LOS ALAMOS,NM,87544,(505) 662-3388,http://www.finishingtouch.co.in/,
CARPET & FURNITURE GALLERY,CEDAR RAPIDS,IA,52404,(319) 366-4732,- No Response -,OMAR IGRAM -OWNER
VALUE DISCOUNT FLOORING INC,RICHMOND,IL,60071,(815) 678-6200,http://www.valuediscountflooring.com/,
WENKE FLOORING & DESIGN,KALAMAZOO,MI,49006,(269) 385-3111,http://www.wenketileandcarpet.com/,CRAIG & DEBBIE WENKE
FREEPORT RUG & LINOLEUM,FREEPORT,IL,61032,(815) 235-7232,http://www.freeportrug.com,NANCY SEINER PRESIDENT
FLOOR FASHIONS INC,OMAHA,NE,68137,(402) 597-3161,http://www.floorfashionsomaha.com,
YANCEY'S HOUSE OF CPTS,CEDAR LAKE,IN,46303,(219) 374-9427,http://www.yanceyvillage.com/,
BLUEGRASS FLOORCOVERING INC,LOUISVILLE,KY,40299,(502) 491-4600,NONE,"J WAYNE ALLISON, PRES"
BEAUTIFUL HOME INTERIORS,JEFFERSON CITY,MO,65109-4975,(573) 893-2500,http://www.housetohome.co.uk/,
CALLAWAYS CARPET INC,ABILENE,TX,79603,(325) 673-6722,http://callawayscarpet.com/,RES-R.D. CHURCH
GREGOIRE & DODICK ENTERPRISES,BAY CITY,MI,48706,(989) 893-3531,http://www.mohawkflooring.com/,ANTHONY DODICK PRES/TRS
KILGORES FLOORING & CERAMIC,PANAMA CITY BEACH,FL,32407,(850) 234-1414,http://www.facebook.com/pages/Kilgores-Flooring-Ceramic-Tile-Inc/114054892015872?sk=wall,BRENDA & JAMES M KILGORE
JERNIGANS CARPETS,NORTH AUGUSTA,SC,29861-8125,(803) 279-9644,www.superpages.com,
VERNONS CARPET CASTLE LTD,VERNON,CN,V1T 5B8,(250) 549-4448,NONE,RANDY MIHALCHEON
DOOLITTLES CARPET & PAINTS,FAIRMONT,MN,56031,(507) 238-1155,http://www.doolittlescarpetpaints.com/,
FLOOR STORE THE,JACKSON,OH,45640-9798,(740) 288-1570,No website found,EDWARD J MARTIN
LAKELAND FLOOR COVERING CENTER,LAKELAND,GA,31635,(229) 482-2553,NONE,
HARRIS CARPETS,LAFAYETTE,AL,36862,(334) 864-7809,N/A,ALVIN HARRIS
TRI COUNTY FLOORS,SANTA ROSA,CA,95401,(707) 477-7069,http://www.tricountyfloors.com/,
BOYLE CARPET SERVICE INC,WEST VIEW,PA,15229,(412) 931-2350,http://www.boylecarpet.com/index.html,RICH BOYLE - CHAS. NACHRE
ALFREDS CARPET & DECORATING,AMES,IA,50010,(515) 232-1306,http://www.alfredscarpet.com/,
ELLENZ OF TIPTON,TIPTON,KS,67485,(785) 373-4315,http://ellenzoftipton.com/,LANETTE MARSHALL/CO-OWNER
SUPERIOR FLOOR CARE SPECIALIST,SUPERIOR,WI,54880,(715) 394-3637,http://www.greaterfloors.com/,
CROWLEY'S HOME WORKS,HOUSTON,MO,65483,(417) 967-5300,http://www.crowleyshomeworks.com/,
JERSEYVILLE DISCOUNT CARPET,JERSEYVILLE,IL,62052,(618) 498-9858,http://www.avalonn.com/,DANIEL CAPPS/PRESIDENT
NASSAU CARPET SALES & SERV INC,SCHOOLCRAFT,MI,49087-0626,(269) 679-5909,N/A,"LARRY HARRIS, PRESIDENT"
TALLY ALLEY CARPET WAREHOUSE I,SHREVEPORT,LA,71101,(318) 221-2666,none,RALPH
VAKOC CONTRUCTION INC.,WAYNE,NE,68787,(402) 375-5386,http://local.yahoo.com/info-18086780-vakoc-construction-company-wayne,JOHN VAKOC
FASHION FLOOR CPT GALLERIES IN,KINGSTON,PA,18704,(570) 287-4354,NONE,
CARPET MILL USA INC,LEBANON,NH,3766,(603) 448-3902,http://national.citysearch.com/profile/6560599/lebanon_nh/carpet_mill_usa_inc.html,
CASCADE FLOORING,SAINT CROIX FALLS,WI,54024,(715) 483-5959,http://cascadeflooringllc.com/,
PERGE CARPET,CAMP SPRINGS,MD,20748,(301) 449-7676,N/A,
WEBBS CARPET COMPANY,FAYETTEVILLE,NC,28303,(910) 485-5865,http://www.webbcarpet.net/,DON SMITH
WORDEN INTERIORS INC,FRANKENMUTH,MI,48734,(989) 652-8847,http://www.wordeninteriors.com/,"BARBARA WORDEN, PRESIDENT"
GREEN FRONT FURNITURE INC,FARMVILLE,VA,23901,(434) 392-5943,http://greenfront.com/,RICKY
STYLISH INTERIORS INC,CONROE,TX,77305,(281) 449-5118,http://www.stylishcarpets.com/,
SY INC,COVINA,CA,91723,(626) 967-3648,http://www.manta.com/c/mmjsfkt/sy-inc,RAY SULLENS
LOEPP FURNITURE,GRAND COULEE,WA,99133,(509) 633-0430,http://loepp.info/,DAVE & PEGGY PORTCH
CARPET & DOOR MART,JOHNSON CITY,TN,37601,(423) 282-0998,http://johnsoncity.citysearch.com/profile/9374374/johnson_city_tn/carpet_door_mart.html,
STOCKDALE CERAMIC TILE CTR.INC,BAKERSFIELD,CA,93313,(661) 398-6000,http://www.stockdaletile.com/,BILL OR TONY
R & S SALES,SHIPSHEWANA,IN,46565,(260) 768-7741,n/a,
BEAMS CPT HOUSE INC,CARLISLE,PA,17015,(717) 243-2836,- No Response -,"ED, LOU"
VIDALIA CARPET CENTER,VIDALIA,GA,30475,(912) 537-8100,http://vidaliacarpetcenterinc.com/,
LUTHER FLOORCOVERING,GRINNELL,IA,50112-2048,(641) 236-6103,NONE,TODD LUTHER/OWNER
AAA FLOORING SOURCE INC,CAMARILLO,CA,93012,(805) 445-9811,http://www.aaaflooringsource.com/,DANNY GHINGHIS/PRES
AHEE INTEGRITY FLOORING,SUN CITY,CA,92586,(951) 679-5585,http://aheeintegrityflooring.com/,NICHOLAS AHEE
CARPET SHOPPE INC (THE),DICKSON,TN,37055,(615) 446-6415,http://www.thecarpetshoppe.com/,PRESTON THOMPSON
HILLS CARPET SERVICE INC,BESSEMER,AL,35023,(205) 491-3691,www.exhibitorscarpet.com,WILLIAM C. HILL
INTERIORS BY JAYME,BURIEN,WA,98166,(206) 246-1122,http://www.nexport.com/company.cfm?company=389194_INTERIORS_BY_JAYME_FLOOR_MATERIALS_DEALERS_BURIEN_WA,BRIAN TRAUTMANN
ALL FLORIDA CARPET INC,MIAMI,FL,33155,(305) 592-4396,http://www.allfloridacarpet.com/,ANTONIO MEDINA
CARPET WORLD,AURORA,IN,47001,(812) 926-3589,www.merchantcircle.com,CAROL HUGHES
HOLDER'S,OWENSVILLE,IN,47665-9400,(812) 724-3501,- No Response -,JEFF LUTZ
SUBURBAN FURNITURE,WASECA,MN,56093,(507) 835-3670,http://www.suburbanfurniture.net/,KEVIN CLEMONS
CARPET DESIGNS INC,JACKSON,MS,39209,(601) 922-6200,http://www.carpetdesignsms.com/,
QUALITY FLOORZ AND SUPPLY,HEBER SPRINGS,AR,72543,(501) 362-1775,http://www.qualityfloorzsupply.com,DALE PARISH
YAHWEH FLOORS,BARSTOW,CA,92311,(760) 256-3546,NONE,RON BEARDSHEAR/OWNER
ULTIMATE FLOORING INC,SIKESTON,MO,63801,(573) 471-7660,http://www.ultimateflooringinc.com,D JOHNSON
CUMMINGS CARPET SERVICE,FOWLER,CO,81039,(719) 263-5647,http://cummingscarpetandtile.com/,DAVID CUMMINGS
FLOOR GALLERY LLC THE,MADISON,MS,39110,(601) 605-1365,http://start.cortera.com/company/research/k8q7mzm3l/floor-gallery-llc/,
LLOYDS DECORATING CENTER INC,ROANOKE RAPIDS,NC,27870,(252) 537-4102,http://www.bbb.org/raleigh-durham/business-reviews/paint-retailers/lloyds-decorating-center-in-roanoke-rapids-nc-90019475/directions,CHARLES EATMAN
CARPET CONTRACTORS INC,SAN FRANCISCO,CA,94118,(415) 933-9999,http://carpetcontractors.net/,
COLOUR PALETTE CORPORATION,SHELBYVILLE,IN,46176,(317) 398-9544,http://colourpalette.net/,"RONALD KELSAY, PRESIDENT"
MARTINS FLOOR COVERING,WESTFIELD,MA,1085,(413) 568-9474,http://www.martinsfloorcovering.com/,
BROUWER'S COUNTRY CARPET,WARSAW,IN,46582,(574) 267-8054,http://www.brouwerscarpet.com/,BRAD P. BROUWER
CARPET PLUS INC,HOLLISTER,MO,65673,(417) 335-8888,http://www.mycarpetplus.com/,
TWIN CITIES FLOOR COVERING INC,YUBA CITY,CA,95991,(530) 673-4435,http://www.twincitiesfloorcovering.com,BILL GOOD
STEFFANNI CARPET LTD,NORWALK,OH,44857,(419) 668-0795,- No Response -,KATHY STEFFANNI
F & W FLOOR COVERING,ROSEBURG,OR,97470,(541) 673-6234,www.fandffloorcovering.com,
KENNYS FLOOR COV INC,MUNCIE,IN,47304,(765) 289-2231,http://www.kennysfloors.com/,"RON, VELMA, ERNIE, GARY"
FIRST HARDWARE GROUP INC,KOSCIUSKO,MS,39090,(662) 289-3261,N/A,OWEN
HARRISBURG WALL & FLR COV,HARRISBURG,PA,17104,(717) 236-4222,http://www.harrisburgfloor.com/,
CANNON JAMES ENTERPRISES,BREWTON,AL,36426,(251) 867-9698,http://www.cannonscarpets.com/,
HOME IMPROVEMENT GALLERY INC,SOUTH GLENS FALLS,NY,12803,(518) 745-5097,http://www.homeimprovementgallery.net,"PAUL GIRARD, PRESIDENT"
GUTHRIE FLOOR COV,DODGE CITY,KS,67801,(620) 227-7752,N/A,CINDY GUTHRIE
BRINKS JOHNNY TRICO SALES INC,KERRVILLE,TX,78028,(830) 896-1204,http://www.johnnybrinks.com/,
ULTIMATE FLOORING & SUPPLIES,CHESTERTON,IN,46304,(219) 926-1094,http://ultimateflooringsupply.com,
TIDWELL CARPET,CULLMAN,AL,35055,(256) 739-5091,n/a,DON OR JUDY
WITT'S FLOORING CENTER,MOULTON,AL,35650,(256) 905-0525,http://local.yahoo.com/info-14773285-witt-s-flooring-center-moulton,TIM
NICKMAN DISTRIBUTING CO,LEMONT FURNACE,PA,15456,(724) 550-4072,NONE,ELIAS NICKMAN JR PRES
WAGNER'S HOME REMODELING INC,NEW BRIGHTON,PA,15066,(724) 847-1433,http://wagnershomecenter.com/,SAMUEL G WAGNER III
SAVANNAH FLOOR COVERING,SAVANNAH,GA,31401,(912) 234-0631,http://www.savannahfloorcovering.com,
CARPET & FLOORING GALLERIA,THOUSAND OAKS,CA,91362,(805) 381-4959,http://www.flooringbycarpetgalleria.com/,MANSOUR DALIRIFAR
CARPET WORLD USA,PURYEAR,TN,38251,(731) 498-8161,http://www.carpetworldusa.net,CYNTHIA OWENS
CURTIS FLOOR COVERING,OXFORD,MI,48371-5038,(248) 628-1141,http://curtisfloorcovering.com/,KEITH CURTIS
MAGIC CARPET MART,DULUTH,MN,55806,(218) 786-0606,http://www.yelp.com/biz/magic-carpet-mart-duluth,
"QUALITY FLOOR SERVICES, INC.",HENDERSONVILLE,NC,28793,(828) 692-7439,http://qualityfloorservice.org/,CHRIS P. MOFFITT
FANCY FLOORS COLOR CENTER,SANTA BARBARA,CA,93103,(805) 962-0787,http://www.fancyfloorssb.com,TIM MARQUEZ
PORT CHESTER RUG&LINO INC,RYE BROOK,NY,10573,(914) 939-4388,http://www.pcrug.com/,EILEEN KIYAK
BUILDERS SUPPLY OF RUSTON INC,RUSTON,LA,71270,(318) 255-3585,http://www.bs.doitbest.com/home.aspx,
JBS MILLWORK,YAKIMA,WA,98902,(509) 457-8883,http://interiorsbymoderndesign.com/,JEFF WELLS/OWNER
DODD & SOUTER DECOR CTR LTD,WHITBY,CN,L1N 2K8,(905) 668-2179,http://www.doddandsouter.ca/,GRANT DODD
RC FLOORING,PLEASANTON,TX,78064,(830) 569-5685,www.rcflooringinc.com,ROBERT
JE CONCEPTS,LEES SUMMIT,MO,64086,(816) 524-0255,- No Response -,EDMUND LIPOWICZ-PRES
GRENADA BLDG. MATERIAL-D/B/A,GRENADA,MS,38902-1114,(662) 226-4611,http://www.truevalue.com/,JIMMY JEFFORDS
JACKSON BROTHERS CARPET,HUNTINGTON,WV,25702,(304) 736-9822,http://local.yahoo.com/info-12974119-jackson-brothers-carpet-huntington,BILL JACKSON
CARPET MART OF BELLEVILLE INC,BELLEVILLE,IL,62220,(618) 234-6900,http://www.carpetmartbelleville.com,
VICTORY FLOORING  CENTER,LUNA PIER,MI,48157,(734) 848-8103,http://www.lunapierbusiness.com/victory_flooring.html,"GLEN PAFFORD, PRES"
BRANDON TILE & CARPET INC.,RIVERVIEW,FL,33569-4367,(813) 671-4585,http://www.brandontile.com/,ELAINE KRUGER
COOPER JOHN J ENTERPRISES,SULLIVAN,MO,63080,(573) 860-3764,http://www.hoppyinteriors.com/,KATHLEEN COOPER
ENCORE INSTALLATIONS INC.,FRANKFORT,IN,46041,(765) 659-2363,n/a,GLEN R. BRAGG
SUPERIOR CRAFTERS LLC,CARMEL,IN,46032,(317) 843-2272,http://www.floorcraftersindy.com/,DAVID LAKE
ASHLAND GROUP LLC,BATAVIA,IL,60510,(630) 761-9999,Not able to locate a website,
"DUSIN ENTERPRISES, INC.",WASHINGTON,KS,66968,(785) 325-2379,http://web1.awesomebusinesspages.com/detail-841721136.htm,CAROLYN DUSIN
BOECKMAN'S FURNITURE,JASPER,IN,47546-3132,(812) 482-6477,http://www.manta.com/c/mm2blhw/boeckman-s-furniture-carpet,JAMES  BOECKMAN
CONNERS MR CARPET WAREHOUSE,COLLEGE PLACE,WA,99324,(509) 522-0176,http://www.connersmrcarpet.com,
EULENFELD INTERIORS,TAYLOR,TX,76574,(512) 365-7174,www.eulenfeldinc.net/,
CARPETS BY CAIN,SEYMOUR,IN,47274,(812) 522-8130,NONE,ALEX
HALES CORNERS FLOOR COVERING,HALES CORNERS,WI,53130,(414) 425-5050,http://www.halescornersfloors.com/,DAVID CHRISTENSEN-PRES
MERIDEN DISCOUNT FLOORING LLC,MERIDEN,CT,6450,(203) 634-0464,http://www.discountflooringllc.com/,JAYNE PAPOUSHA
LESLEY'S CARPETS,CORINTH,MS,38834,(662) 287-9430,http://www.lesleysfloordesigns.com/,
CHAPMAN ORGANIZATI0N THE LLC,SUMMERSVILLE,WV,26651,(304) 872-5696,http://carpetandfloorstore.com/,"DAVID CRAIG CHAPMAN, OWNR"
DRAKES AFFORDABLE FLOORS,WHITTIER,CA,90608,(562) 696-0808,N/A,
COOKS CARPET,MURPHY,NC,28906,(828) 837-5717,http://cookscarpet.brandsource.biz/,FRED OR DONALD
BISEK INTERIORS,MONTGOMERY,MN,56069,(507) 364-7944,http://www.bisekinteriors.com,TIM BISEK
KISSINGERS DECORATING CENTER,BERWICK,PA,18603,(570) 759-8091,http://local.yahoo.com/info-12126326-kissinger-s-decorating-center-berwick,
DISCOUNT CARPET WHSE INC/ICRA,MASON,MI,48854,(517) 694-1888,http://www.discountcarpetwarehouseinc.com/ -,
RUG MART INC,OSPREY,FL,34229,(941) 966-3681,http://www.rugmartfl.com/,STEVE MAUCK
CONSTANTINE CARPET CENTER,CONSTANTINE,MI,49042,(269) 435-8436,N/A,DICK - LARRY
EDWARDS FURNITURE INC,SPRINGBORO,OH,45066,(937) 746-4559,http://edwards-furniture.com/,PAT EDWARDS
CARPETS GALORE & MORE,SAINT JOHNS,MI,48879,(989) 227-1999,http://carpetsgaloreandmore.com,GREGORY G./OWNER
PRIGGE'S FLOORING CENTER,ZUMBROTA,MN,55992,(507) 732-7345,http://priggesflooringcenter.interx2.net/Home/tabid/17706/Default.aspx,ROBERT PRIGGE
TORGERSON PAINT & FLOOR COV,CALEDONIA,MN,55921,(507) 725-3443,N/A,BARB TORGERSON
K R J INC,HIGHLAND SPRINGS,VA,23075,(804) 328-2277,http://www.jimjeterscarpet.com/,
HASTINGS FLOOR COVERING INC,GROVELAND,MA,1834,(978) 521-8848,http://www.hastingsfloor.com,
HELMS ENTERPRISES INC,AUGUSTA,GA,30909,(706) 738-9703,NONE,"ANN H. HELMS, PRESIDENT"
FLOOR COVERING EXPRESS INC,TACOMA,WA,98466,(253) 566-6880,http://www.floorcoveringexpress.com/,
BIG MARTYS,PENNDEL,PA,19047,(215) 757-0565,http://www.bigmartyscarpet.org,BUD WILKINS
TRI-CITY FURNITURE INC,AUBURN,MI,48611-9367,(989) 662-4446,http://www.tricityfurniture.com/,RONALD E. FAHRNER
"WATTS COMMERCIAL FLOORS, INC",PALATKA,FL,32177,(386) 325-0460,NONE,JAMES B. WATTS
JACKSONVILLE DISCOUNT CARPET,JACKSONVILLE,AL,36265,(256) 782-1530,No Website Exists,GEORGE WATSON
UNIQUE FLOORS & INTERIORS,MINOCQUA,WI,54548,(715) 356-5114,http://www.uniquefloorsandinteriors.com,BRYAN P. JENNINGS/PRES
FLOOR GALLERY LLC THE,ATHENS,AL,35613,(256) 216-9055,http://floorgalleryathens.com/index.htm,WANDA M CLUTTS
CLEMCO INC,SCOTTSBLUFF,NE,69361,(308) 632-2234,http://www.clemcoindustries.com/,
MICHAELS CARPET & LINOLEUM,POCONO LAKE,PA,18347,(570) 646-1502,http://www.michaelsflooringandwindowcoverings.com/,MICHAEL
PATOMA INC DBA ENDECCA,SCHERERVILLE,IN,46375,(219) 322-7744,http://www.potomacfloorcovering.com,GEORGE PLOUTIS
HOLMAN FLOOR,ALEXANDER CITY,AL,35010,(256) 234-6071,http://www.holmanfloorcompany.com,
BYRAM CARPET INC,ANDOVER,NJ,7821,(973) 347-4883,http://www.byramcarpet.com,CAROLYN
ARJAY FLOOR COVERING,TRAVERSE CITY,MI,49685,(231) 943-8010,http://www.arjayfloorcoverings.com/,RON FATE
"B & C ENTERPRISES, INC",GIG HARBOR,WA,98332,(253) 853-5833,http://www.bandcenterprises.com/,AL
MCKENNEY FLOOR COVERING INC,NICHOLASVILLE,KY,40356,(859) 887-1012,http://www.mckenneyfloorcovering.com/,JOE OR LINDA MCKENNEY
ZIMMERMANNS,MORA,MN,55051,(320) 679-4870,http://www.bizfind.us/24/255216/zimmermans/mora.aspx,
FLOOR SHOP INC THE,SAN MARCOS,CA,92069,(760) 591-3932,http://www.homeremodelingcenter.net/,LARRY CURTIS
BOWERMAN CARPET/WALLPAPER,SWANTON,OH,43558,(419) 826-7951,http://bowerman.brandsource.biz/,SHIRLEY BOWERMAN
WILLIAMS CARPET G K INC,OCEAN ISLE BEACH,NC,28469,(910) 579-7592,n/a,JOEL L LEE
"A & L CARPETS, INC.",PENSACOLA,FL,32505,(850) 455-0443,No Website Exists,ALAN TATUM
QUALITY CARPETS & INTERIORS,SOMERVILLE,TN,38068,(901) 465-4058,http://www.kudzu.com/m/Quality-Carpets-Interiors-9772935,
DECOR FLOOR & WINDOW INC.,STERLING,VA,20165,(703) 444-5595,http://www.floornkitchen.com,RAY ZIAMANESH
SOLOMONS COLOR CENTER FLOORING,SOLOMONS,MD,20688,(410) 326-4863,n/a,DON ROSE
SMITH'S CARPET & FURNITURE,SPICELAND,IN,47385,(765) 987-7414,www.smithscarpetandfurniture.com,R. DALE SMITH
SMITH FAMILY CARPET,PENSACOLA,FL,32526,(850) 944-5888,http://www.smithfamilycarpets.com/,BARON SMITH
DELANO PAINT & F/C INC,DEKALB,IL,60115,(815) 756-2951,http://www.retailflooringstores.com/il/delano/,
BIERMANS INC,NORTHFIELD,MN,55057,(507) 645-5848,http://www.biermansflooring.com/,
COLONIAL FLOORS,HAYES,VA,23072,(804) 642-9125,http://colonialfloorsinc.com,JAMES CRAWFORD
FASHION INTERIORS-GLENCOE,GLENCOE,MN,55336,(320) 864-6664,No website found,
MORGAN CARPET & FLOORS,SHELTON,CT,6484,(203) 929-3400,http://www.morgancarpet.com,
KANSAS CARPET & TILE INC,WICHITA,KS,67213,(316) 942-2111,http://www.kansascarpetandtile.com,KARL SCHRADER        PRES
FRIENDS FLOOR COVERING INC,WARMINSTER,PA,18974-4500,(215) 444-0424,http://www.friendsfloorcovering.com/,HAMED MJ SHAAT/PRES
A E MICHAELS DECORATING CTR,MONTICELLO,MN,55362,(763) 295-2200,No Website Exists,
FELLERS-SUMMER CO. INC.,CAMDEN,SC,29020,(803) 432-5144,http://www.fellers.com/,JOHN B FELLERS III
SOUTHERN ELEGANCE TILE INC,MARYVILLE,TN,37804,(865) 983-1162,http://www.southernelegancetileinc.com/,KARL  G. REEVES
PIPESTONE INTERIORS,PIPESTONE,MN,56164,(507) 825-4277,http://www.pipestonestar.com/,TOM ABRAHAMSON
MR CARPET'S FLOOR SHOP INC,DECORAH,IA,52101,(563) 382-8093,http://www.mrcarpetsfloorshop.com/,
C-SIDE DECORATING INC,ROCKPORT,TX,78382,(361) 729-9588,http://www.csidedecorating.com,DANNY OR LEE
GUARANTEE GENERAL STR INC,WHEATON,IL,60187,(630) 668-0248,http://www.ggscarpet.com/,
WILEY NESBITT INC,MOUNT PLEASANT,IA,52641,(319) 385-4231,www.wiley-nesbitt.com,KEVIN WILEY/PRES
"UNIQUE CARPET & FLOOR, INC.",MANASSAS,VA,20109,(703) 369-1600,http://uniquecarpetfloor.com/,NASSER TARAHOMI
"PAYLESS CARPET & FLOORING, INC",ANAHEIM,CA,92806,(714) 635-6677,http://www.servicemagic.com/rated.PaylessCarpet.11497224.html,SAME
K & K CARPET,SPRING VALLEY,NY,10977,(845) 573-9700,http://www.kkcleaning.com,AMAR ZEHRAN
REARDONS CARPET CENTER INC,PLAINFIELD,IL,60586,(815) 729-0125,www.reardonscarpet.com,
HAUS OF FLOOR DECOR,BIG BEAR LAKE,CA,92315,(909) 866-8803,http://www.hausoffloordecor.com/,AL WIGGLESWORTH/CEO
CAROLINA BUILDERS INTERIORS,RALEIGH,NC,27604,(919) 828-7471,http://carolinabuilderservices.com/,BILLY WILKES
ANTRIM CARPET & FLOORING LTD,BARRIE,CN,L4M 5G1,(705) 737-1576,http://www.antrimcarpetandflooringbarrie.ca/,JIM O'HARA
THE FLOOR SHOW,PONDERAY,ID,83852,(208) 263-5198,http://floorshowsandpoint.com/,CHET C WHITNEY
GRINNELL FURNITURE STORE LLC,GRINNELL,KS,67738,(785) 824-3710,http://www.uhlmannshomefurnishings.com/,DOUGLAS J BECKMAN/OWNER
"ROLLINSON'S HOME CENTER, INC.",SALEM,IL,62881,(618) 548-3181,http://www.rollinsonshomecenter.com,ROSS ROLLINSON
PERRY CARPET SHACK,PERRY,KS,66073,(785) 597-5110,http://www.perrycarpetshack.com,NADINE ROBBINS
BOOHER CARPET SALES INC,DAYTON,OH,45432,(937) 254-1010,http://www.boohercarpet.com/,
NELSON FURNITURE,SAINT JAMES,MN,56081,(507) 375-4040,http://st-james.minnesota.com/businesses/nelson-furniture-co-806-weston-ave/,TIM
"CARLSON'S CARPETS, INC.",SAN ANTONIO,TX,78260,(830) 980-3434,http://www.carlsonscarpets.com,JEFF
FLOORS 4-U,ELLENDALE,MN,56026,(507) 684-3351,http://www.floors-4-u.net/,
HARDMAN'S SPLY CO INC 10012,SPENCER,WV,25276,(304) 927-4701,http://www.prat-usa.com/store-locator.html,"TOM HARDMAN, PRES"
BENSONS HOUSE OF CARPETS & INT,SAINT JOSEPH,MI,49085,(269) 983-4343,http://www.bensonscarpet.com/,
"LUKE BROS. CARPET & LINO, INC.",ANKENY,IA,50021,(515) 964-4075,none,
BLANCHARD CARPET & TILE CENTER,BLANCHARD,OK,73010,(405) 485-9600,http://www.blanchardcarpet.com,FARRIS DENNIS/OWNER
NEEDHAM HOME CENTER,SAINT LOUIS,MI,48880,(989) 681-5393,http://www.needhamshomecenter.com/,JEFF / BOB NEEDHAM
SCHNEIDER HOUSE FURN & FLR CVG,MOUNT CARROLL,IL,61053,(815) 244-2111,http://www.schneiderhousefurniture.com,TIMOTHY SCHNEIDER/OWNER
ENDRES INTERIORS,MARINE CITY,MI,48039-1609,(810) 765-9229,http://www.endresinteriors.com/,DAVE ENDRES
CORAOPOLIS FLOOR COVERING INC,CORAOPOLIS,PA,15108,(412) 269-0399,http://www.coraopolisfloorcovering.com/ -,WILLIAM COOK
FLOOR COVERING BY WELCH,FOLEY,AL,36535,(251) 970-5244,none,JACOB WELCH/PRES
STATEWIDE CARPET INC,LAKE PARK,FL,33403,(561) 844-7697,http://www.statewidecarpets.com/index.htm,
MATTEO FAMILY KITCHENS INC,WOODSTOWN,NJ,08098-9474,(856) 769-2490,http://www.matteokitchens.com/,E. EVERETT MATTEO
EAST FLAG UPHOLSTERY &CPT SHOP,FLAGSTAFF,AZ,86004,(928) 774-6843,http://www.mohawkcolorcenter.com/,
SPECTRUM CARPETS,SHAWNEE,KS,66203,(913) 268-6855,NONE,
JENSEN ENTERPRISES LLC,WESTBROOK,CT,6498,(860) 399-6161,www.westbrookent.com,RUSSELL JENSEN/OWNER
EXCLUSIVE FLOOR COVERING LLC,HIGHLAND,MI,48356,(248) 889-4350,http://exclusivefloorcovering.com/,LARRY DESMITH       OWNER
MATTRESS & CARPET PLACE,ALEXANDRIA,VA,22312,(703) 256-4007,http://mattressandcarpet.com/,DAVID KABIRNAVAEI
BI CITY DECOR INC,OPELIKA,AL,36803-0108,(334) 749-3374,www.bicitydecor.com,RANDY LAMBERT
CAROLINA FLOORING & INTERIORS,GRANDY,NC,27939,(252) 453-8526,n/a,ART TIPTON
DON'S FLOOR COVERING,NORTON,KS,67654-0299,(785) 877-3002,n/a,DON KAUS
RALPHS FLOORS,LYNDEN,WA,98264,(360) 354-4804,http://www.ralphsfloors.com/,
CHISUMS FLOOR COVERING,OJAI,CA,93023,(805) 646-2440,http://www.chisumsfloorcovering.com/,
E & W CARPETS INC,LUTZ,FL,33549,(813) 949-4283,http://www.ewcarpets.com/,SAME
DUNN PETER ENT INC,SAN ANTONIO,TX,78222,(210) 333-5750,www.spoke.com,PETER & CHERYL & SHIRLEY
W F COX COMPANY,LORIS,SC,29569,(843) 756-1514,http://www.wfcox.com/,STEVE COX
CARPET CONNECTION,CAPE GIRARDEAU,MO,63701,(573) 334-6285,www.manta.com/c/mm8j65g/carpet-connection,
HORIZON FLOORS,EASTON,PA,18040,(908) 859-3311,http://www.horizonfloorsllc.com/,
"RUSSELL FURNITURE CO., INC",STAUNTON,IL,62088,(618) 635-5200,http://www.russellfurnitureco.com/,RON DUSTMAN
DOBSONS CARPET SERVICE,SHAMOKIN,PA,17872,(570) 648-0731,http://www.dobsonscarpet.com/,AL & LIZ DOBSON
WALL TO WALL FLOORING INC,SANFORD,NC,27330,(919) 775-4919,http://national.citysearch.com/profile/44037304/sanford_nc/wall_to_wall_flooring_inc.html,STEVE OR CATHY
GUYOT LUMBER,PERRYVILLE,MO,63775,(573) 547-4524,http://www.guyotlumber.com,
FLOORCO DESIGN CENTER,OKLAHOMA CITY,OK,73170,(405) 790-0309,http://www.floorco-designcenter.com/,
CENNI AMBROSE TILE & CPT,ZION,IL,60099,(847) 872-5300,http://www.cenniambrose.com/,
HASE INTERIORS,FAIRFIELD,IL,62837,(618) 847-2806,iana@iana.org.,RICHARD HASE
RICH'S KARPET KORNER INC,PITTSFIELD,IL,62363,(217) 285-2511,www.karpetkornerinc.com,RICHARD DECKER/PRESIDENT
M & K CARPET SALES & CLEANING,HERMON,ME,4401,(207) 848-4996,http://www.mandkcleaning.com/,
ISRAELS DISTRIBUTORS LLC,GRAND RAPIDS,MI,49508,(616) 456-9810,NONE,JASON ISRAEL
AAA CARPET CLEANING,SAN ANGELO,TX,76904,(325) 944-3133,http://www.aaa-clean.ca/,
BURROUGHS FLOOR COVERING,WILLIAMS BAY,WI,53191,(262) 245-6909,http://www.burroughsflooring.com,DAVID/GERALDINE BURROUGH
CENTENNIAL CARPET INC,HAYS,KS,67601-2405,(785) 625-2054,http://www.centennialcarpetsinc.com,CHARLIE GIEBLER
TOP LINE FLOORS,CORTEZ,CO,81321,(970) 565-4877,http://www.toplinefloorsinc.com/,DENNIS & KIM GIESLER
SINE'S FLOORING,COBOURG,CN,K9A 5V3,(905) 372-9117,- No Response -,
MODERN CARPET & FLR COV INC,EDGEMOOR,SC,29712,(803) 366-6150,NONE,
CARPET CENTER,HURON,SD,57350-2403,(605) 352-5184,http://www.carpetcenter.com,
SLUGGERS CARPET&UPHL CLEANING,WAYNESBURG,PA,15370,(724) 627-4623,NONE,"FRED HUMBLE, OWNER"
HARDMAN SUPPLY COMPANY,RIPLEY,WV,25271,(304) 372-9126,http://www.hardmans.com/,C STANLEY HARDMAN/PRES
CARPET CLUB,VICTORVILLE,CA,92395,(760) 241-0141,http://www.carpetclubinc.com/,
J & J CARPETS,CAIRO,GA,39828,(229) 377-2930,N/A,JARRELL MCCLENNY
NORTHWEST DECORE CENTER,SHELDON,IA,51201,(712) 324-4417,http://local.yahoo.com/info-16595071-northwest-decor-center-sheldon,CRAIG BOWEN         OWNER
SHAG-RUG-LA INC,SOUTH JORDAN,UT,84095,(801) 969-6226,N/A,"DEWEY, KURT WHITEHEAD"
CARPET CABIN INC,FORT SMITH,AR,72908,(479) 646-6600,http://www.carpetcabin.net/,LARRY W CHILDERS/PRES
RITCHIES CARPET WAREHOUSE,SAINT JOHN,CN,E2H 2G9,(506) 633-2022,http://www.ritchiesflooring.ca/,DARYL RITCHIE
BIG RAPIDS FURNITURE INC,BIG RAPIDS,MI,49307,(231) 527-1248,http://www.br-furniture.com/,ERIC O'NEIL
JETERS JIM CARPET OUTLET INC,RICHMOND,VA,23227,(804) 262-3867,http://www.jimjeterscarpet.com/,
SELECTIONS BY SANDOW INC,STUART,FL,34997,(772) 283-0437,http://www.hoovers.com,
DENRICH CARPET WAREHOUSE INC,UPLAND,CA,91786,(909) 981-0915,http://www.denrichflooring.com/,
THIEMANS CARPET CO,WENTZVILLE,MO,63385,(636) 327-8813,http://thiemanscarpet.com,
SLATE BELT FLOOR & WALL CV INC,PEN ARGYL,PA,18072,(610) 863-5741,N/A,
ALL SURFACE FLOORING LLC,BALLWIN,MO,63011,(636) 230-6900,http://www.allsurfacesllc.com/,ROY R FIELD JR
BSSF ENTERPRISES DBA CARPET,MARTINSBURG,WV,25405,(304) 263-6957,- No Response -,BRET A SMITH
AMORE CPT & FLOOR COVERING INC,WEST HAVEN,CT,6516,(203) 933-7523,NONE,
BEN TAYLOR ENTERPRISES,WINDHAM,NH,3087,(978) 658-9694,- No Response -,KATHLEEN PROULX/OWNER
B & B FLOOR COVERING,BRIGANTINE,NJ,8203,(609) 266-5441,NONE,BOB - BUDDY
HUNTSVILLE DECORATING,HUNTSVILLE,AL,35801,(256) 536-4479,http://www.huntsvilledecorating.net/sb.cn,JIMMY OR TERRY
CBD ANN ARBOR INC,ANN ARBOR,MI,48108,(734) 973-8466,http://www.builderscarpet.com/,
COBB'S CARPET CENTER,LAWTON,OK,73505,(580) 353-6839,http://www.cobbscarpetcenter.com/,
MOUNTAIN HOME CARPET CTR INC,RIMFOREST,CA,92378,(909) 337-8300,N/A,RICHARD PHILLIPS/PRES
FLOORMART OF SAN ANTONIO,SELMA,TX,78154,(210) 651-5222,http://www.floormartsa.com/,DAVID HARRIS        PRES
WALTERS AMERICAN CARPETS,MANITOWISH WATERS,WI,54545,(715) 543-2770,www.manitowishwaters.org,RON WALTERS/OWNER
MALMQUIST HOME FURNISHINGS,RED WING,MN,55066-2305,(651) 388-5728,http://malmquistflooring.com,BRUDESTH BUYSSE
MARC WHITE,BELMONT,NC,28012,(704) 829-6254,N/A,MARC  704 678 2225
A & M CARPET INC,OLATHE,KS,66062,(913) 780-0797,http://www.amcarpetinc.com/,
FLECKS FURNITURE & APPL INC,DICKINSON,ND,58601,(701) 225-3021,http://local.yahoo.com/info-17050511-fleck-s-furniture-appliance-dickinson,B CHARLES FRANZEN
KWK INC DBA THE CARPET BROKER,CHANDLER,AZ,85224,(480) 899-3329,http://www.thecarpetbrokerdesigncenter.com/,KARL KRAMER/OWNER
FLOORS MODERN LTD,NEW WESTMINSTER,CN,V3M 6C3,(604) 526-3746,http://www.floorsmodern.com/,DAN RAGAN
JWK INC,GAUTIER,MS,39553,(228) 497-2004,www.hoovers.com,JOHN KATSAKOS
DESIGNER CARPETS & INTS INC,DULUTH,GA,30096,(770) 476-0144,http://designercarpetint.com/,JAMES BARNETT
BOW FAMILY FURNITURE,BROKEN BOW,NE,68822,(308) 872-6461,http://www.familyfurnitureandflooring.com/,
GUNN FLOORING COMPANY INC,GASTONIA,NC,28053-0955,(704) 867-4866,http://www.manta.com/c/mmnkdbh/gunn-flooring-co,JOSEPH D GUNN/PRES
RUSBOSIN FURNITURE,LATROBE,PA,15650,(724) 532-1985,http://rusbosinfurniture.com/,
"MI CASA ENTERPRISES, INC",CHATSWORTH,CA,91311,(818) 725-7382,http://www.advantagecarpetca.com/,VIKEN KIROKIAN/PRES
KRFC CUSTOM WOODWORKING INC,LAKEWOOD,NJ,8701,(732) 363-0522,NONE,CHRISTOPHER COOPER
HEARTLAND CARPETS,HAMILTON,IL,62341,(217) 847-3998,NA,
DELAWARE FLOOR COMPANY INC,DELAWARE,OH,43015,(740) 363-4931,- No Response -,
J T E FLOORCOVERING INC,INDEPENDENCE,OR,97351,(503) 838-2826,http://jtefloors.com/,
VAN HISE LLC D/B/A,MILFORD,CT,6460,(203) 882-0026,http://www.tilebythemile.com/,
QUALITY CARPET OUTLET,MAYSVILLE,KY,41056,(606) 564-7956,N/A,STEVE MCROBERTS
CRESTWAY KLASSIC FLOORING,HODGKINS,IL,60525,(630) 662-0500,http://www.crestwaysflooring.com/,JOHN PRICE
MILLION'S CARPET SERVICE INC,SPRINGFIELD,KY,40069,(859) 336-7141,http://www.millionsfloorcenter.com/,H. GLENN MILLION II
BAKER'S FLOORS INC,CLOVIS,CA,93612,(559) 323-2510,http://www.bakersfloors.com/,GENE T BAKER/OWNER
NORTH WOODS FLOORING,ANTIGO,WI,54409,(715) 623-4165,N/A,JAMES OLESEN      OWNER
INGELS CARPET STORE,MIDDLEPORT,OH,45760,(740) 992-7028,- No Response -,YORK INGELS
CREATIVE CARPETS,LEXINGTON,NC,27292,(336) 243-2073,http://www.creativecarpetsdiscountsales.com/,SAME
PROFESSIONAL FLOOR COVERING,BEAVER DAM,WI,53916,(920) 887-9972,http://www.proflr.com/,RANDY WARMKA/OWNER
STRAWN CARPET ETC,POWDER SPRINGS,GA,30127,(770) 222-7765,http://strawncarpet.interx2.net/,
AMERICA'S FINEST INC,PORT ANGELES,WA,98362,(360) 683-2933,N/A,ROBERT BOURNS
BENNDALE CARPET CENTER,LUCEDALE,MS,39452,(601) 766-3080,http://local.yahoo.com/info-15201370-benndale-carpet-center-lucedale,ROBERT
INTERSTATE INTERIORS,RENO,NV,89511,(775) 851-4131,http://interstateinteriors.com/,DOUG
BETTER FLOORS,ALAMOSA,CO,81101,(719) 589-5552,http://betterfloorsonline.com/,ROCKIE DEHERRERA/OWNER
APD ENTERPRISES INC,COPPERAS COVE,TX,76522,(254) 547-3145,not found,ANTHONY DIAZ
C & M FLOOR COVERING INC,NEW BEDFORD,MA,2744,(508) 999-6018,http://www.candmfloorcovering.com/,SAME
B C I FLOOR SPECIALISTS,EBENSBURG,PA,15931,(814) 472-6372,www.brucebaker.com,BRUCE
SISTARE'S CARPET,LANCASTER,SC,29720-0234,(803) 285-4224,http://sistarecarpets.com/,MIKE SISTARE
CARPET UNLIMITED,DEFIANCE,OH,43512,(419) 782-5330,Unable to locate a website,JOHN OR CAROL
AJAX ENTERPRISES INC,PARAGOULD,AR,72450,(870) 236-4000,- No Response -,ALAN JACKSON
CARPET GALLERIA VENTURA,VENTURA,CA,93003,(805) 667-6668,http://www.flooringamerica.com/,WASSEY TAHIR
AAA MILL DIRECT INC,HAMPTON,VA,23669,(757) 723-7197,n/a,SUE PHILLIPS
DELANOS CARPET & FURNITURE,TERRA ALTA,WV,26764,(304) 789-6966,http://www.delanos.com/flooring.html,CHUCK
WILLIAMS CARPET & MORE,PAWLEYS ISLAND,SC,29585,(843) 235-0218,N/A,TREVIS WILLIAMS
FLOOR DECOR,WATERLOO,IA,50701,(319) 232-9242,http://floordecorwaterloo.com/,MARK FROST/PARTNER
CARPET TODAY,TYLER,TX,75707,(903) 939-1700,none,DON CHANDLER
ARK CARPET DIST,MONTICELLO,AR,71655,(870) 367-6887,"http://maps.google.com/maps/place?hl=en&gs_upl=3514l3514l5l4459l1l1l0l0l0l0l0l0ll0l0&bav=on.2,or.r_gc.r_pw.&biw=1024&bih=677&um=1&ie=UTF-8&q=ARK+CARPET+DIST,MONTICELLO+ARK&fb=1&gl=ph&hq=ARK+CARPET+DIST&hnear=0x862c4f6124d3312f:0xcab4e520e2988e10,Monticello,+AR,+USA&cid=8709919841680978402",
CROSS CARPET SER INC,MUNDELEIN,IL,60060,(847) 566-5990,http://www.carpetcornerfloors.com/,
CALLAWAY FURNITURE INC,HARRINGTON,DE,19952,(302) 398-8858,http://www.callawayfurniture.net/,PAUL CALLAWAY  BOB
EXPLORING FLOORING INC,WARRENVILLE,IL,60555,(630) 393-2020,http://www.exploringflooring.com/,ANTHONY MITCHELL
LANGE CARPET COMPANY,MUSKEGON,MI,49441,(231) 726-2352,http://www.langeflooringcenter.com/,SCOTT GILBERT
WANE'S CARPET AND DRAPERY,GOODLAND,KS,67735-1917,(785) 890-2505,http://www.manta.com/c/mm7zzpx/wanes-carpet-drapery,BOB HORTON
GREEN FAMILY FLOORING,DES MOINES,IA,50310,(515) 975-2414,http://www.greenfamilyflooring.com/,ROBERT L GREEN
ARMON DECORATING,BLUE EARTH,MN,56013,(507) 526-2797,http://www.armondecorating.com/,TERRY ARMON
KASTRAN KARPETS,MANSFIELD,OH,44906,(419) 529-3161,www.wholesalecarpetsinc.com,SAME
BIG HORN FLOORS,BUFFALO,WY,82834,(307) 684-7775,http://bighornfloors.com/,MICHAEL W. TEIGEN-PRES
SOFA PLUS FURNITURE CO INC,ANGOLA,IN,46703,(260) 665-9799,- No Response -,P.E. SANBORN
KEPHART JIM FLOOR COVERING INC,TILLAMOOK,OR,97141,(503) 842-8623,N/A,BONNIE KEPHART
BRUMMELS SALES CENTER INC,WYOMING,MI,49509,(616) 534-4958,www.brummelmadsen.com,
HALLMARK CARPETS,WHITE ROCK,CN,V4B 3E5,(604) 531-8244,http://www.hallmarkcarpets.com/,MERV SANDRES/PRES
CAMPBELL FLOORS,SEGUIN,TX,78155,(830) 372-3494,http://local.yahoo.com/info-19258645-campbell-floors-limited-seguin,
MORE THAN FLOORS,HUMBOLDT,IA,50548,(515) 332-2269,http://morethanfloorsinc.com,GARY TULL/OWNER
EXPRESS BUILDING SUPPLY INC,MOSES LAKE,WA,98837,(509) 765-3456,http://www.truevalue.com/,
MCMILLINS FURNITURE INC,YALE,MI,48097,(810) 387-2626,http://www.mcmillins.com/,CHARLES R MCMILLIN
CARPET CITY & HOME DEC CTR INC,SPRINGFIELD,VA,22150,(703) 451-0400,www.homedecorcenter.com,ALI
VALDOSTA CARPET CENTER,VALDOSTA,GA,31604,(229) 244-1427,www.valdostacarpetcenter.com,
DREAMLAND CARPETS,BUCKHANNON,WV,26201,(304) 472-3888,none,WESLEY ALLEN MARSH
DOMINION FLOOR COVERING INC,YORKTOWN,VA,23693,(757) 595-5777,http://domfloors.com,DOMINIC VELARDI
SLOTHROP INC,ALLENTOWN,PA,18102,(610) 439-1411,NONE,REFER TO ACCT # 184699
TOWN & COUNTRY CARPETS,PELHAM,GA,31779,(229) 294-9357,http://www.towncountrycarpets.com/,DON OR LA GRANDE
IDEAL FLOOR COVERING,TECUMSEH,CN,N8N 3T4,(519) 979-2354,http://www.weblocal.ca/ideal-floor-covering-tecumseh-on.html,PAT ROCCA
BENTON FLOORING CENTER INC,BENTON,IL,62812,(618) 438-2005,- No Response -,STANLEY LINDHORST/OWNER
CORNERSTONE INTERIORS & DESIGN,SEWARD,NE,68434,(402) 643-2631,www.cornerstoneindesign.com,GREG MUELLER/OWNER
SERVICE FLOOR COVERING INC,SAINT CLAIR SHORES,MI,48082,(586) 294-0020,www.servicefloorcovering.com,"BRYAN MAZEY, PRES"
MCKIM CARPET SALES,CORYDON,IN,47112,(812) 738-8305,http://mckimcarpetsales.com/,ELDON MCKIM
F C & P FLOORING,EAST BRUNSWICK,NJ,8816,(732) 905-2002,http://justcarpetsnj.com/visitus.html,FRANK DIFIGLIA
ARNOLD'S,MCKENZIE,TN,38201,(731) 352-9223,http://www.westtnonline.com/arnolds.htm,SUSAN
BUCHANONS FLOORS LLC,EDDYVILLE,KY,42038,(270) 388-7365,http://www.buchanonsfloors.com/,JAISON RILEY
WILKES FLOOR COVERING,WILKESBORO,NC,28697,(336) 903-8453,http://www.wilkins-floorcovering.com/,ERIC LEE
FLOORING GALLERY LLC,STERLING HEIGHTS,MI,48314,(586) 731-2700,http://www.manta.com/c/mm72vzs/flooring-gallery,BILL ABRAHAM/OWNER
BAUMGARTNER'S,AUXVASSE,MO,65231,(573) 386-2231,http://www.baumgartners.com/,
WERTZ FLOORING GALLERY INC,MIDLOTHIAN,VA,23112,(804) 745-3215,http://www.wertzflooring.com/,BRIAN N WERTZ
FLOOR WORLD OF W FLORIDA INC,SPRING HILL,FL,34606,(352) 688-8889,http://web.userinstinct.com/12408140-floor-world-of-west-florida-inc.htm,JAMES DICONO         PRES
FARMERS LUMBER CO INC,HILL CITY,KS,67642,(785) 421-2165,http://www.farmerslumber.com/,
"PILOT FLOORCOVERING, INC.",WINSTON SALEM,NC,27127,(336) 785-1066,http://pilotfloorcov.brandsource.biz/,
CUSTOM FLRING & ACOUSTICS INC,CHAMPAIGN,IL,61820,(217) 356-8742,http://www.custom-flooring.net/,
SUPERIOR HOME SOLUTIONS INC,ONEONTA,AL,35121,(205) 625-6741,No Website Exists,EVAN GALBREATH
DEMOTTTE CARPET INC,DEMOTTE,IN,46310,(219) 987-4941,http://www.demottecarpet.com/,
MILLERS CARPET & FURNITUR,HASTINGS,MI,49058,(269) 945-2091,http://local.yahoo.com/info-16405700-miller-s-carpet-furniture-hastings,MIKE MILLER
FRESH START DECORATING CENTER,UVALDE,TX,78801,(830) 591-2324,N/A,JOSE RENE RUIZ-OWNER
CAPITAL CARPET & FURNITURE INC,WASHINGTON,DC,20009,(202) 234-8882,http://capitalcarpetfurniture.com,KAVOOS RAD
CARPET HOUSE,PIQUA,OH,45356,(937) 773-9505,n/a,LARRY HOSTETTER
KOSCO FLOORING,HAMILTON,CN,L8W 2C7,(905) 296-7586,http://www.koscoflooring.com/,ONJEN KOSCO/OWNER
AL & BOBS INC,GRANADA HILLS,CA,91344,(818) 363-4030,http://www.kudzu.com/m/Al-Bob's-Carpets-7226293,
FACTORY WAREHOUSE OF FLRS LLC,DELAND,FL,32720,(386) 740-7484,http://www.warehouseoffloors.com,DELORES SACCHERE/PRES
PAUL & PAUL DESIGNS,HILLSBOROUGH,NJ,8844,(908) 281-1802,http://www.hdwfg.com/fullams/sb.cn,PAUL VERONSKY
GILLES TRUE VALUE,VILLA GROVE,IL,61956,(217) 832-8123,http://www.gillestruevalue.com/,JOHN GILLES
WEISS INTERIORS LLC,WILLSHIRE,OH,45898,(419) 495-2833,WWW.WEISS INTERIORS LLC.com,WILLIAM E WEISS/OWNER
PREMIER FLOORING INC,LEBANON,TN,37087,(615) 449-2668,http://www.myflooringsolutions.com,
"GRAND DESIGN, INC.",JACKSON,WY,83001,(307) 733-4510,n/a,LOUIS BENKOVICH
MOSIER FURNITURE & APPL,WEST UNION,OH,45693-1257,(937) 544-2711,http://www.mosierwestunionfurnitureandappliance.com/index.html,GARY MCCLELLAN
CARPET PLAZA,HIBBING,MN,55746,(218) 263-8801,http://www.minnesotadir.com/carpet-pla-hibbing-biz23036.htm,CURTIS LUNDIN
FLOORING STUDIO LLC THE,GONZALES,LA,70737,(225) 647-6463,http://www.theflooringstudioinc.com,MICHAEL T SPIERS
AMERICAN WHOLESALE FLOORING,MESA,AZ,85215,(480) 964-4000,http://www.americanflooringvegas.com/,BRIAN FROST          PRES
FLOORTOWN,CLEARLAKE,CA,95422,(707) 994-8011,Unable to locate a website,DANIEL E BOWEN/OWNER
M & M FLOOR COVERING,BROOKLYN,NY,11210,(718) 258-9784,http://brooklyn.citysearch.com/profile/7346846/brooklyn_ny/m_m_floor_covering.html,MICHAEL   MARIA
LURVEY CARPET SHOP,MARSHFIELD,MO,65706,(417) 468-5800,http://lurveycarpet.com/,
WEST FLOOR COVERING INC,AUBURN,IN,46706,(260) 925-3016,http://start.cortera.com/company/research/k2l9mxq4n/west-floor-covering-inc/,
FOLEY FRANK E ENTERPRISES,STRAFFORD,MO,65757,(417) 736-3607,- No Response -,FRANK FOLEY
JACKS WAREHOUSE CARPETS,CLINTON,MO,64735,(660) 885-4690,http://www.jackswarehousecarpets.com,GARY SMITH
DESSEL-ROACH FLOOR COV,WEST UNION,IA,52175,(563) 422-3419,N/A,SAME
"GM CARPET DISTRIBUTORS, INC.",DALLAS,TX,75238,(214) 342-1100,N/A,GENE TYLER
CUSTOM FLOORS AND INTERIORS,NEW BERN,NC,28560,(252) 672-0500,http://customfloorsandinteriors.flooringplus.com/,CHARLIEEVERINGTON
COUNTRY CARPET BARN,TITUSVILLE,PA,16354,(814) 827-3821,N/A,STEVE/JANE HARRISON OWNRS
M I Z INC,SUGAR LAND,TX,77478,(281) 398-2319,NONE,
NAMPA FLOORS & INTERIORS,NAMPA,ID,83687,(208) 466-8461,http://www.nampafloors.com/,ROGER WILSON
JK INTERIORS LLC,BEAVERTON,OR,97006-1253,(503) 888-1569,http://www.bbb.org/oregon/business-reviews/floor-laying-refinishing-and-resurfacing/jk-interiors-in-beaverton-or-22668555/directions,KATHLEEN MARTA
KELLER FAMILY ENTERPRISES INC,PORT RICHEY,FL,34668,(727) 868-4821,http://www.kellerent.com/,EDWARD G KELLER
THOMPSONS FLOOR COV,PORTERVILLE,CA,93257,(559) 781-1404,www.thompsonsfloorcovering.com/,
CARPETS OF WALTERBORO INC,WALTERBORO,SC,29488,(843) 549-7012,NONE,WILLARD LONG
SQUARE YARD CARPET,HENDERSON,KY,42420,(270) 827-1138,http://www.squareyardcarpet.com/,RICK CLEMENTS/OWNER
ATKINS FLOOR COVERING,VASSAR,MI,48768,(989) 823-8543,none.,BOB ATKINS
MIDDLE GEORGIA TILE CO INC,DUBLIN,GA,31021,(478) 274-1153,http://www.middlegeorgiatile.net/,GEORGE ROSA/OWNER
DEYOUNG FLR CVG & DESIGN CTR,PINCONNING,MI,48650-0445,(989) 879-4711,www.charlesvangelder.com,JIM OR NORA DEYOUNG
CLASSIC CARPET & INTERIORS,WEBSTER CITY,IA,50595,(515) 832-1219,http://www.classiccarpetandinteriors.com/,
GGC WHOLESALE FLOORING,COLUMBUS,OH,43205,(614) 253-9300,http://www.ggcflooring.com/,GARY GALBREATH
JACKSON CARPET,MILAN,TN,38358,(731) 686-1905,www.jcarpet.com,ED JACKSON
SCHNEEBERGERS FURN & APPL,CASS CITY,MI,48726-0098,(989) 872-2696,N/A,ALAN
SIMPSON COMPANY THE,JEFFERSONVILLE,IN,47130,(812) 283-5336,http://www.thesimpsonco.net/index.htm,
BAY CARPET & INTERIORS,BAY SAINT LOUIS,MS,39521,(228) 467-5000,http://local.brainerddispatch.com/bay+carpet+and+interiors.9.81521325p.home.html,CLARE JUNG
BAILEY'S CUSTOM CARPET INC,CONCORD,NH,03301-3414,(603) 228-1751,http://www.baileyscarpets.com,
TRI COUNTY FURNITURE & CARPET,COVINGTON,VA,24426-1544,(540) 962-5137,http://www.broyhillfurniture.com/,W. B. WALKER
LEE CARPET WORKS,PLEASANT GAP,PA,16823,(814) 359-4299,NONE,CINDY
HOUSE OF CARPET,FORT WALTON BEACH,FL,32549,(850) 243-6832,http://www.houseofcarpets.biz,RICHARD HOERBER
BLUE SPRINGS CARPET & TILE LLC,BLUE SPRINGS,MO,64015,(816) 228-2011,www.bluespringscarpet.com,ROBERT THORPE JR
CORY MAUPIN SALES INC,DENVER,CO,80239,(303) 295-2258,http://www.corymaupinsales.com/,JOYCE
NCK CARPET PLUS,CONCORDIA,KS,66901,(785) 243-1141,www.nckcarpetplus.com,TOM & CAROL RICHARD
FLOORS & MORE INC,PRIEST RIVER,ID,83856,(208) 448-1914,N/A,KEVIN M JOHNSON/PRES
NELSEN FURNITURE INC,VALENTINE,NE,69201,(402) 376-1360,http://www.nelsenfurniture.com,DAVID NELSEN
D & D FLOOR COVERINGS,RUCKERSVILLE,VA,22968,(434) 985-6123,http://dandd.flooringplus.com/,DAVID - MIKE
M & M CUSTOM FLOORING INC,NEW LENOX,IL,60451,(815) 485-4884,http://www.mmcustomflooring.com/,
SKYWAY FLOOR COVERING INC,MONROE,NC,28110,(704) 282-0029,N/A,
LEMCO CARPETS INC,SALT LAKE CITY,UT,84107,(801) 262-9989,http://www.lemcodesign.com,REED
WITTWER INC,SAINT GEORGE,UT,84790,(435) 986-3100,http://www.wittwerconstruction.com/,
CLT FLOORING & FURNISHINGS,NEWCASTLE,WY,82701,(307) 746-3335,www.hoovers.com,SAME
CHICAGO STREET DECORATING,GENESEO,IL,61254,(309) 944-6854,http://www.chicagostreetdecoratingcenter.com,KEVIN PAXTON
FLOORS FOR YOU INC,BROWNSBURG,IN,46112,(317) 852-8985,http://www.floorsforyou.net/,FRANK KEETON
LIL HOUSE OF CARPET INC,FENTON,MI,48430-2763,(810) 629-5593,http://lilhouseofcarpet.com/index.htm,"MICHAEL J. JORDAN, PRES"
BEST BUY SUPPLY INC,CAMBRIDGE,MD,21613,(410) 228-3800,http://bestbuy.brandsource.biz/,FRANK BROOKS
MURRAY MCCULLOUGH LTD,BELLEVILLE,CN,K8N 4Z2,(613) 969-7847,http://www.manta.com/ic/mt6c0gw/ca/mccullough-murray-limited,KEITH MCCULLOUGH
PUFFINBURGER DISTRIBUTORS,GREEN SPRING,WV,26722-0508,(304) 492-5814,NONE,"ORVIL PUFFINBURGER, OWNER"
C JS FLOORING INC,BLUFFTON,IN,46714,(260) 824-5440,http://www.cjsflooring.com/,"TODD GERBER, PRESIDENT"
RUSH CARPET,SELMA,AL,36703,(334) 875-8409,NONE,JULIUS RUSH
DARIOS CARPETS,LOS ANGELES,CA,90045,(310) 641-2914,http://www.darioscarpets.net,SANTOS HERNANDEZ
GIRARDI CARPET,BRANTFORD,CN,N3T 5L9,(519) 751-1413,not found,VINCE GIRARDI
ACCENT INTERIORS,WARREN,IN,46792,(260) 375-3900,http://local.yahoo.com/info-15997356-accent-interiors-warren,VICKIE L. GRIM PRESIDENT
CUSTOM FLOORING LLC,VICKSBURG,MS,39180,(601) 636-7474,http://www.customflooringllc.com/carpet.html,WESLEY B JONES
GREGORY J FINE FLOORING &,NASHUA,NH,03063-1004,(603) 886-9129,http://gregoryj.flooringplus.com,GREGORY J KYER
MIKES CARPET MART INC,SAINT ALBANS,WV,25177,(304) 768-6613,www.carpetingbymike.com,MIKE KYLE
LOOMCRAFT CARPET,SPRING,TX,77379,(281) 370-2255,http://loomcrafthomedesign.com,WAYNE/JENNIFER
BKMJ ENTERPRISES INC,LINCOLN,NE,68512,(402) 420-5566,http://www.gotchacovered.com/,BARRY FOWLER         PRES
"ACTION KITCHENS,BATHS & FLOORS",SURF CITY,NC,28445,(910) 328-4334,http://www.actionremodel.com,HIRAM WILLIAMS
GRINSTEADS HOME FURNISHINGSINC,BOWLING GREEN,KY,42101,(270) 843-1072,N/A,GARY S GRINSTEAD
ABINGDON CABINETRY & FLRNG INC,ABINGDON,VA,24210,(276) 628-4621,none,SUSAN P FORKNER
CARPETMAN,TURLOCK,CA,95380,(209) 667-4422,http://www.carpetmanproflooring.com/,
STONE COUNTY CARPET & TILE LLC,WIGGINS,MS,39577,(601) 928-9974,NONE,MARGARET JOBE CURTIS/OWNR
LUKASIEWICZ FURN & APPL INC,FARWELL,NE,68838,(308) 336-3411,N/A,
STERLING HEATH,CANTON,SD,57013,(605) 764-6131,www.wikitree.com,STERLING HEATH
J B COPELAND & SON,ALBION,IL,62806-1006,(618) 445-2212,N/A,
EATON FLOOR & WALL INC   TF,EATON,OH,45320,(937) 456-5635,http://eatonfloor.interx2.net/,DAVE TURNER
CARPET HOUSE,LINCOLN,IL,62656,(217) 735-2531,http://web1.awesomebusinesspages.com/detail-715483452.htm,JOHN RENFRO
FLOOR & WALL CENTER,SAINT CHARLES,MO,63303,(636) 946-5505,http://www.floorandwallcentre.com/,
CARPET VALUE INC,MILWAUKEE,WI,53228,(414) 543-6543,www.manta.com/c/mm2dm4w/value-carpets-inc,
MELGREEN FURNITURE,FARMINGTON,IL,61531,(309) 245-4307,http://www.melgreenfurniture.com/,
MERSCHMAN CARPET CENTER,SAINT PAUL,IA,52657,(319) 469-2931,http://merschmancarpet.com/,MARVIN MERSCHMAN/OWNER
WILLIAMS CARPET INC,CHARLESTON,SC,29414,(843) 571-6628,none,
CHILDRESS BUILDING CENTER,CHILDRESS,TX,79201,(940) 937-2676,http://www.cci-cbc.com/childressconstruction.html,CHARLES C BAKER/PRES
KEY CARPETS LLC,MOLALLA,OR,97038,(503) 829-6008,http://keycarpetsllc.com/,MARY LYNN JACOB
FORSYTH DESIGN CENTER INC,CUMMING,GA,30041,(770) 889-0709,http://www.forsythdesigncenter.com,PAMELA CARVER/PRES
ALBRITTON CO THE,HOOKERTON,NC,28538,(252) 747-2821,www.albritton-interiors.com,
FASHION FLOORS,MEDFORD,OR,97501,(541) 779-0996,http://www.fashionfloors.net/,DON STRAW
DESIGNER SOLUTIONS INC,HARDY,VA,24101,(540) 719-1266,www.design-solutions.com,MIRANDA FORRY
HOME PLACE FLOORS,LAMPASAS,TX,76550,(512) 556-4007,http://homeplacefloors.com/laminate.htm,GEORGE M. INGRAM-PARTNER
ARMSTRONG FLOOR & WALL,SILVER CITY,NM,88061,(575) 388-3149,www.armstrong.com,RIGG LISA
DON FRANK CO,PORTLAND,OR,97214,(503) 235-5447,http://www.donfrankfloors.com,
STEPHEN'S FURNITURE,HAVANA,IL,62644,(309) 543-3295,http://stephensfurnitureltd.com/,DUDLEY STEPHENS
ECONOMY CARPETS INC,MUSCLE SHOALS,AL,35661,(256) 383-6821,http://www.economycarpets.com,LEWIS PATTERSON
GREAT LAKES FLOOR CVRNG SVCS,TEMPERANCE,MI,48182,(734) 850-1618,N/A,"TOM WIRICK, OWNER"
HACKNEY CARPETS,MARIETTA,GA,30066,(770) 429-9149,http://hackneycarpet.com,
PETERSEN'S LINOLEUM & CARPETIN,FORT COLLINS,CO,80525,(970) 226-5343,http://www.petersensflooringanddesign.com,JIM PETERSEN
FLEENER'S INC.,GREENSBURG,KS,67054-1707,(620) 723-2741,http://www.fleenerfuneralhome.com/,JOHN FLEENER
JACKSON FLOOR CENTER INC,JACKSON,AL,36545,(251) 247-2600,N/A,WAYNE
FAGNANT CARPET,WARWICK,RI,2886,(401) 737-1191,none,
HIGH BROTHERS INC.,CAMDENTON,MO,65020,(573) 346-5663,NONE,JIM & MIKE HIGH
TEXOMA INTERIOR,POTTSBORO,TX,75076,(903) 786-3726,NONE,ALLEN PEARSON
HOWARD FURNITURE & HDWR CO INC,DENVER,NC,28037,(704) 483-2283,http://howardsfurnitureanddecoratingcenter.com/,
HOUGH INVESTMENT GROUP INC,TAMPA,FL,33609,(813) 287-2480,http://www.relointeriors.com/Layouts/Layout1/Default.aspx,P ANTHONY HOUGH/PRES
TOLLER ENTERPRISES LLC,CLAYTON,GA,30525,(706) 782-2741,N/A,KEITH J. TOLLER
ADANAC CARPET LTD,VANCOUVER,CN,V5Y 3K6,(604) 255-3852,No website exists.,WILSON WONG
STEVENS CARPET INC,WATONGA,OK,73772,(580) 623-7757,http://www.stevenscarpetinc.com,CHARLES-JACQUITA
HOWE CARPET & CABINET,IRVINGTON,IL,62848,(618) 249-6421,www.manta.com,PHILLIP HOWE
B & W FURNITURE & FLOOR COVRNG,BETHANY,MO,64424,(660) 425-6712,http://bandwfurnitureandfloorcovering.com/,
S&H CUSTOM CARPET,KENTON,OH,43326,(419) 675-5100,No Website Exists,SHAWN STUMP
H & R CARPET & SALES INC,WEST,TX,76691,(817) 826-3062,http://www.handrcarpet.com/,TERRY REDDELL & JAMES BOH
NASIM INC,TUCSON,AZ,85712,(520) 318-0009,http://www.hansenwholesale.com/?AID=10813796&PID=4181854&source=CJ&af=4181854,
MINDEN LUMBER & CONCRETE CO,MINDEN,NE,68959-0340,(308) 832-2157,N/A,PHIL WERNER JR
GOOD HEALTH CLEANING CO,BURLINGTON,CO,80807,(719) 346-7579,n/a,DANIEL & MYRNA TROYER
DIAMOND PAINT CO.,DES PLAINES,IL,60018,(847) 824-8084,www.diamondpainthomecenter.com,JOHN KOUVELIS
MCCOOK F/C & FURNITURE INC,MCCOOK,NE,69001,(308) 345-1952,N/A,SAME
BEST VALUE FLOORING AND,BURLINGTON,WI,53105,(262) 206-7154,www.ifloor.com,
INTERIORS NORTHWEST-PUYALLUP,PUYALLUP,WA,98374-6451,(253) 845-9353,http://interiorsnorthwest.net/index.htm,BARB TIPTON  PRES.
PRATT FURNITURE INC,LEWISTOWN,IL,61542,(309) 547-3663,www.cpratts.co.uk,
B & H CARPET SALES,ZANESVILLE,OH,43702,(740) 454-8822,- No Response -,BILL GILGER
HOUSE OF CARPETS LLC,SHREVEPORT,LA,71106,(318) 868-3671,http://www.houseofcarpets.net/,MARK M HARRISON
MAGIC CARPET CO INC       CIB,BAY CITY,MI,48708-7178,(989) 894-2857,http://www.magiccarpetskilifts.com/,"DICK CHARBONNEAU, OWNER"
CONKLIN BROS OF SAN CARLOS,SAN CARLOS,CA,94070,(650) 591-5600,http://www.conklinbrosofsancarlos.com/,DANNI GAO
CUSTOM FLOORS,DALLAS,TX,75238,(214) 341-0310,"http://maps.google.co.in/maps/place?hl=en&prmd=ivnscm&resnum=1&bav=on.2,or.r_gc.r_pw.&biw=1024&bih=677&um=1&ie=UTF-8&q=CUSTOM+FLOORS+in+DALLAS&fb=1&gl=in&hq=CUSTOM+FLOORS&hnear=0x864c19f77b45974b:0xb9ec9ba4f647678f,Dallas,+TX,+USA&cid=11162180908025340987",LARRY
TILE MART CORPORATION,ALBUQUERQUE,NM,87110-2963,(505) 830-1952,http://nmtilemart.com/,HECTOR BRAVO/PRES
BENNETT-COOPER FLOORS,RAMSEY,MN,55303,(763) 786-9616,http://www.bbb.org/minnesota/business-reviews/carpet-layers-equipment-and-supplies/bennett-cooper-floors-in-ramsey-mn-44003064,
BALLWEG HOME DECORATING CENTER,COLUMBUS,WI,53925,(920) 623-4480,www.globalspec.com,TONY BALLWEG
PRECISION DECORATING CTR INC,WINSTON SALEM,NC,27127,(336) 785-3625,http://www.precisiondecorating.com,JIM
ATKINS CUSTOM FLOORS INC,DU QUOIN,IL,62832,(618) 542-4821,N/A,WILLIAM ATKINS
MCKELVY FLOOR COVERING,ROWLETT,TX,75088,(972) 475-4041,http://mckelvy.tripod.com/,LYNN KINCAID
DORAN & SONS DISC FLOORING,WESTWEGO,LA,70094,(504) 347-5490,N/A,RICHARD J DORAN/PRES
BAKER INTERIORS INC,LITTLETON,CO,80120,(303) 794-7900,http://www.bakerinteriors.com/,
MORRISONS HOME CENTER INC,NASHVILLE,GA,31639,(229) 686-2014,www.lumbercenter.com,ANDY MORRISON
YOUR FLOOR & DECOR,MESA,AZ,85202,(480) 755-9538,http://www.yourfloordecor.com/,DAVID N TURNER
THREE ANGELS INC,HOUGHTON LAKE,MI,48629,(989) 366-9612,n/a,"WILLIMA KRENTZ, PRESIDENT"
DOUBLE BAR J ENTERPRISES LLC,WHITEWRIGHT,TX,75491,(903) 364-1111,- No Response -,JASON & AMY SIMPSON/PRES
ANDERSON TILE,ANDERSON,SC,29625-2127,(864) 226-6018,none,SAME
HERINGHAUS FURNITURE,OTTAWA,OH,45875,(419) 523-4675,http://www.heringhausfurniture.com/,JIM
D D BARNES LLC,AIKEN,SC,29803,(803) 643-3643,www.barnesandnoble.com,DALLAS BARNES JR
DANFORD FLOORS & MORE INC,LANSING,MI,48917-4252,(517) 393-2510,http://www.danfordcarpet.com/,
HOLLIDAY'S FLOORING,BELTON,SC,29627,(864) 338-5466,http://www.hollidaysflooring.com/,JAMES C HOLLIDAY
RADEMACHER BROS. LUMBER CO INC,GIFFORD,IL,61847,(217) 568-7322,none,
HYDERS CARPET,FORT WALTON BEACH,FL,32547,(850) 863-1398,http://www.hyderscarpets.com/,MURRELL HYDER
TSW LLC,MERRIAM,KS,66202,(913) 432-7900,http://www.tswllc.com/,MICHAEL CHRISTIE
ROE CARPET & VINYL,EAST LIVERPOOL,OH,43920,(330) 386-9141,- No Response -,ROGER ROE
ROSSOS KARPET KORNER,LA MIRADA,CA,90638,(562) 943-3030,http://www.rossoskarpets.com,ROBERT ANDERSON
WHITE LAKE FLOORING INC,MONTAGUE,MI,49437,(231) 893-1730,http://www.whitelakeflooring.com/,ALEX FELT            PRES
CARPET FLOORS & MORE,TOMPKINSVILLE,KY,42167,(270) 487-0880,http://www.facebook.com/pages/Carpet-Floors-More/159569537399068,"GRALAND DAVIS, OWNER"
TAZEWELL FLOOR COVERING,MORTON,IL,61550,(309) 266-6371,http://www.tazewellfloor.com/,PATRICIA ZIMMERMAN/PRES.
HOUSTON CARPET SALES & SERVICE,PEARLAND,TX,77581,(281) 485-7470,- No Response -,
PARDUE & QUARLES,JONESBORO,LA,71251,(318) 259-2529,N/A,LAURI
MCKINNON UNLIMITED INC,WORLAND,WY,82401,(307) 347-3289,NONE,
PYNE FLOOR COVERINGS,PLEASANT GROVE,UT,84062,(801) 785-3718,http://www.pynefloors.com,
ADAMS INTERIORS INC,ELK RIVER,MN,55330,(763) 441-2844,n/a,HAROLD ADAMS
COUNTRY CARPET WAREHOUSE INC,ATTICA,MI,48412,(810) 724-0000,none,CHARLES A. SORBIE JR
STONE HOUSE FLOORS,STRASBURG,VA,22657,(540) 465-8055,none,SUE HORTON
HOMETOWN FURN & APPL LTD LLC,ALLIANCE,OH,44601,(330) 823-7775,NONE,PAUL H. SULLIVAN
COUNTRY FURN & LIGHTING INC,QUAKERTOWN,PA,18951,(215) 538-8686,http://www.manta.com/c/mm2rrnq/karen-s-furniture,THOMAS COCHRANE/PRES
CALGARY CARPET CRAFT,CALGARY,CN,T3J 5H2,(403) 630-4035,http://calgary-carpet-craft-inc.alberta.canadab.com/,SUKHAIRPAL SADIOURA
WALLY WEMNANT'S CARPET MKTNG,SAINT CATHARINES,CN,L2R 4M2,(905) 685-6663,http://www.wallywemnant.com/,JOANNE & LARRY WHALLEY
PROBST FURNITURE,CEDAR SPRINGS,MI,49319,(616) 696-9340,No website found,
LOUS FLOOR COVERING,SAN PEDRO,CA,90732,(310) 548-5557,http://www.lousfloor.com/,SAME
J & S FLOOR COVERING INC,ASHIPPUN,WI,53003-0025,(920) 474-4244,- No Response -,EVERETT JAEGER
L & L FLOORCOVERING INC,ROCK ISLAND,IL,61201,(309) 786-3656,http://www.superpages.com/bp/Rock-Island-IL/L-L-Floor-Covering-Inc-L2064415591.htm,
GERAMI'S FLOORS,LAFAYETTE,LA,70501,(337) 232-6202,http://www.geramis.com,
ALL ABOUT FLOORS,HOT SPRINGS,AR,71913,(501) 321-2522,http://www.allaboutfloorsinc.net/,GREG D LININGTON/PRES
ALLEY CARPET & FLOORING INC,HUACHUCA CITY,AZ,85616,(520) 456-2979,none,MARION ALLEY
CARPET COTTAGE,PASCAGOULA,MS,39567,(228) 762-8809,http://www.carpetcottage.com,
FURNITURE SALES CONSULTANTS,WHEATLAND,WY,82201,(307) 322-2010,www.careerjet.co.za,HERSCHEL D PRUITT/OWNER
SUPERIOR CARPETS & FLOOR,DECATUR,AL,35602,(256) 351-9016,http://superiorcarpetsal.com/,
"COASTLINE FLOOR COVERING, LLC",EGG HARBOR TOWNSHIP,NJ,8234,(609) 569-9909,http://www.coastlinefloorcoverings.com/,RICHARD WAINWRIGHT
TREND TILE INC,GLENDALE HEIGHTS,IL,60139,(630) 893-4470,http://www.trendcarpettile.com/,STEVE CELL
FLOOR STORE THE,FITZGERALD,GA,31750,(229) 423-6763,http://www.thefloorstore.co.nz/,
GIBSON FLOORS,HEWITT,TX,76643,(817) 666-1144,http://www.gibsonsinteriors.com/,
LEITCHFIELD FLOOR COVERING,LEITCHFIELD,KY,42755-0365,(270) 259-9733,N/A,ROY L SMITH/MEMBER
CUSTOM CARPETS,FAIRMONT,WV,26554,(304) 366-7357,N/A,JOHN NESTOR
DECORLUX SAC,"LIMA, PERU",,,(511) 213-2930,http://www.decorluxonline.com/,LUIS JAVIER MONTEBLANCO
ALFOMBRAS MULTICARPET LTDA,SANTIAGO CHILE,,,(562) 663-4000,"http://www.chilnet.cl/rc/company/results_company_mbr.asp?meco_code=300071954&parstacks=0,0,0,0,0&lang=eng&mask=510",CELL 5699-238-7011
PARAMOUNT CARPET SLS &SER LTD,"CAYMAN ISLANDS, BWI",,,(345) 949-5000,http://www.paramountcarpets.ky/,MITCHELL/GARY RANKIN
,,,,,,