name,owners,address,city,state,postal,phone,websites,,
ARIZONA FCA,Cyndi Hardy,PO BOX 6064,GOODYEAR,Arizona,85338,(623) 640-4114,,,
ASSOCIATED FCC,Jerry Van Scoy,"10117 SE SUNNYSIDE RD, F#1225",CLACKAMAS,Oregon,97015,(503) 760-5109,,,
CENTRAL COAST COUNTIES FCA,Thomas Heinzelmann,400 REED ST,SANTA CLARA,California,8032,(408) 727-4320,http://www.floorcovering.org/fci,,
CHICAGO FLOORCOVERING ASSOC,Cecil Treadway,"799 ROOSEVELT RD, BLDG 4 #010",GLEN ELLYN,Illinois,60137,(800) 627-1299,http://www.chicagoflooring.org,,
CONNECTICUT FLOOR COVERING ASSOCIATION,Jim Walsh,1390 PARK ST,HARTFORD,Connecticut,6106,(860) 951-1644,http://www.thecfca.org,,
HAWAII FLOORING ASSOC,Tim Lyons,"1188 BISHOP ST, STE 1003",HONOLULU,Hawaii,3304,(808) 537-1224,,,
IDAHO FLOOR COVERING ASSN,Teri Ottens,PO BOX 8224,BOISE,Idaho,83707,(208) 376-4222,,,
LONG ISLAND FCA,Joan Liguori,406 JERICHO TURNPIKE,FLORAL PARK,New York,11001,(516) 352-3898,http://www.lifca.org,,
MARYLAND & NORTHERN VIRGINIA FL\COV ASSN,Michelle Goshorn,PO BOX 5724,FREDERICKSBURG,Virginia,22403,(877) 896-3605,http://www.mdnvafca.org,,
MIDDLE TENNESSEE FLOORING ASSOC,Yvonne Nolte,2140 DAYTON AVE,NASHVILLE,Tennessee,37210,(615) 301-2715,,,
MINNESOTA FCA,Lori Anderson,645 81ST AVE NE,SPRING LAKE PARK,Minnesota,55432,(651) 254-5715,http://www.minnesotaflooring.org,,
NAT'L INSTITUTE CERTIFIED FL/COV INSPECTORS NICFI,Bill Zoetvelt,18813 S 113TH AVE,MOKENA,Illinois,60448,(708) 205-0040,,,
NEBRASKA/IOWA FCA,Darren McKean,10811 HARRISON ST,OMAHA,Nebraska,68128,(402) 331-4062,,,
NEW ENGLAND INSTITUTE OF RESTORATION AND CLEANING,Pamela McKenna,"6 BOSTON RD, STE 201",CHELMSFORD,Massachusetts,1824,(978) 250-9847,http://www.neirc.org,,
NO. CALIFORNIA FLOORING ASSOC,Steve Lyon,1100 SELBY ST,SAN FRANCISCO,California,94124,(415) 282-1822,,,
NORTH EAST OHIO FCA,Mimi Russ,18077 ALPINE CIRCLE,STRONGSVILLE,Ohio,44136,(440) 878-1359,http://www.neofca.org,,
NORTHERN SIERRA FLOORING ASSN,Bob Toriyama,4190 RIVERHAVEN DR,RENO,Nevada,89509,(775) 746-5525,,,
REDWOOD EMPIRE FCA,Elaine Harper,714 PETALUMA BLVD N,PETALUMA,California,94952,(707) 763-9663,,,
SACRAMENTO VALLEY FCA,Dana Reckers,7531 KRETH RD,FAIR OAKS,California,95628,(916) 747-0249,http://www.svfca.org,,
SAN DIEGO COUNTY FL\COV ASSOC,Don Melucci,7525 RAYTHEON RD,SAN DIEGO,California,92111,(858) 278-9100,,,
SOUTHERN CALIFORNIA FCA,Mitch Kearns,PO BOX 6106,ANAHEIM,California,92806,(714) 474-9335,,,
SOUTHERN NEVADA FCA,Terry Mayfield,"2303 E SAHARA AVE, STE 101",LAS VEGAS,Nevada,89104,(702) 457-0556,,,
UTAH FLOOR COVERING ASSN,Betty Sturdevant,PO BOX 95166,SOUTH JORDAN,Utah,84095,(801) 484-5105,,,
WASHINGTON STATE FCA,Debbie Tott,PO BOX 2559,REDMOND,Washington,98073,(425) 885-0012,http://www.wsfca.org,,
WISCONSIN FCA,Roger Hegg,PO BOX 259301,MADISON,Wisconsin,9301,(608) 663-2525,http://www.wifca.net,,
"ACCENT HARDWOOD FLOORING, INC",Genia Smith,601 FOSTER ST,DURHAM,North Carolina,27701,(919) 682-3941,http://www.accenthardwoodflooring.com,,
AERO CARPET SERVICES LTD,James Lovell,8258 ST GEORGE ST,VANCOUVER,British Columbia,V5X 3S5,(604) 321-7440,http://www.aerocarpetservices.com,,
ALAN'S CARPET & FLOORS,Alan Ellis,1110 AVENUE D,COUNCIL BLUFFS,Iowa,51501,(712) 256-7000,http://www.alansfloors.net,,
"C M R ALLIANCE, LLC",Tim Rail,"6701 DEMOCRACY BLVD, STE 300",BETHESDA,Maryland,20817,(301) 212-9550,http://www.cmralliance.com,,
CHASE CARPET CARE,Neil Atkinson,2065 S HUDSON ST,DENVER,Colorado,80222,(303) 753-9171,http://www.chasecarpetcare.com,,
CLEANERS SUPPLY WAREHOUSE LLC,Brian DeSemple,PO BOX 1570,CLACKAMAS,Oregon,1570,(503) 656-1781,http://www.cleanerssupplywarehouse.com,,
DIAMOND T ENTERPRISES,Tom Slattery,1308 CRAIGFLOWER RD,VICTORIA,British Columbia,V9A 2Y7,(250) 883-6526,,,
DUAL CLEAN SERVICES,David Brown,136 W 4TH ST,PORT ANGELES,Washington,98362,(360) 457-3490,,,
ECO TEAM,Alexander Evstafiev,2417 MARINER SQUARE LOOP #255,ALAMEDA,California,94501,(805) 636-2071,,,
ERNIE'S CARPET CARE,Ernie Goudreault,21330 NE 149TH ST,WOODINVILLE,Washington,98077,(425) 788-5671,,,
MASTER STEAM CUSTOM TEXTILE,Scott Mitseff,610 S 58TH AVE,YAKIMA,Washington,98908,(509) 575-0923,http://www.mastersteamservices.com,,
MORGAN & SONS,Steve Morgan,3530 NE ALBERTA COURT,PORTLAND,Oregon,97211,(503) 244-9050,,,
NESHEIMS CLEANING SERVICES INC,Rick Farasyn,1212 COMMERCE CT,LAFAYETTE,Colorado,80026,(303) 666-8888,http://www.nesheims.com,,
PLANET CLEAN,Michael Elias,100 SW MARINE DR,VANCOUVER,British Columbia,V5X 2R1,(604) 327-1101,http://www.planetclean.com,,
QUICK & CLEAN SERVICES LLC,Darcella Lawson,4800 SW PROSPERITY PARK RD,TUALATIN,Oregon,97062,(503) 638-4100,http://www.quickandclean.biz,,
"QUICK DRAW CARPET CLEANING, LLC",Joel Ruehle,PO BOX 7095,GUNNISON,Colorado,81230,(970) 641-4247,http://www.quickdrawcleaning.com,,
RUDY CONTRERAS,Rudy Contreras,1822 E TAM O'SHANTER ST,ONTARIO,California,91761,(626) 345-8550,,,
SAM'S CARPET CARE,Tyson Brauneis,"601 N BUNKER HILL, STE C",WASILLA,Alaska,99654,(907) 373-7276,http://www.samscarpetcare.com,,
SANI-TECH INSPECTIONS,Peter Eckert,434 GOWARD RD,VICTORIA,British Columbia,V9E 2J5,(250) 744-2004,http://www.sani-tech.com,,
"TOWN & COUNTRY SERVICES, INC",Daniel Thompson,PO BOX 40,GREENLAND,New Hampshire,3840,(603) 436-8820,http://www.townandcountryservices.com,,
"W SERVICES GROUP, LLC",Matthew Whelan,410 FORT SALONGA RD,NORTHPORT,New York,11768,(631) 651-9595,http://www.wservices.com,,
WESSENDORF CARPET CLEANING SERVICES,Bill Wessendorf,PO BOX 3305,REDMOND,Washington,3305,(425) 869-7505,http://www.blueearthcarpetcleaning.com,,
A & B APT & BUSINESS FLOORING,Phillip Miller,5401 ERDMAN AVE,BALTIMORE,Maryland,21205,(410) 485-6790,http://www.abflooringmd.com,,
A A A ACTION FAST SERVICES INC,Dennis Jossi,"10117 SE SUNNYSIDE RD, STE F-1145",CLACKAMAS,Oregon,97015,(503) 653-9190,http://www.aaaactionfastservices.com,,
A C R SERVICES INC,Brandt Benson,1330 W 25TH ST,SAN BERNARDINO,California,92405,(909) 883-4884,http://www.acrrestoration.com,,
A-1 FIRST IMPRESSIONS INSPECTIONS,Steven Johnston,3707 WELCOME ARCADIA RD,LEXINGTON,North Carolina,27295,(336) 403-4274,http://floorinspect.com,,
AAA RESTORATION,Mike Mahanes,PO BOX 370831,RESEDA,California,91337,(818) 943-3800,,,
ABBEY CAPITOL FLOORS AND INTERIORS,Blake Woodland,1217 COOPER POINT RD SW,OLYMPIA,Washington,98502,(360) 357-5559,http://www.capitolfloorsandinteriors.com,,
ABOVE & BEYOND CARPET CARE,Dave Nichols,8854 GOLF DR,SPRING VALLEY,California,91977,(619) 462-1990,http://www.carpetsupport.com,,
ACCURATE CONSTRUCTION DISASTER KLEENUP,Curtis Negrinelli,"2570 W 237TH ST, STE B",TORRANCE,California,5276,(310) 534-1921,http://www.accurateconstruction.com,,
"ACME CLEAN AIR, INC",James Jackman,409 N PACIFIC COAST HWY #736,REDONDO BEACH,California,90277,(310) 818-1860,,,
"ACTION CARPET & CLEANING CO, INC",Aaron West,803 LOMAX ST,EASTON,Maryland,21601,(410) 822-0333,http://www.actioncarpet.com,,
ADVANCED CLEAN & RESTORATION,Tom Salas,"4105 E 605 N, UNIT 1",RIGBY,Idaho,83442,(208) 745-0037,,,
ADVANCED FLOORING INSPECTIONS,Kevin Schleweis,PO BOX 1102,LITTLETON,Colorado,80160,(303) 459-9000,http://advancedflooring.com,,
ADVANCED RESTORATION SERVICES,Rob Villars,507 CENTRAL AVE,BEDFORD,Iowa,50833,(712) 523-2057,,,
ADVANCED STEAM EXTRACTION INC,Richie Lott,3165 VIRGINIA STREET,PEARL,Mississippi,39208,(601) 664-2001,http://www.ase-inc.com,,
ALBRITE'S / ABBEY CARPET & FLOORING,George Abdinoor,223 WINTHROP AVE,LAWRENCE,Massachusetts,1843,(978) 682-7651,http://www.albritecarpets.com,,
ALL DRY,Greg Chancey,2301 S JASON,DENVER,Colorado,80223,(303) 478-6127,http://www.alldry.com,,
AMBASSADOR SERVICES,Albert Ong,170 GLENNWAY #2,SAN CARLOS,California,94070,(650) 593-6192,http://www.abrash.com,,
AMERICLEAN OF BILLINGS,Jim Pearson,1119 MAGGIE LANE,BILLINGS,Montana,59101,(406) 256-9140,http://www.AmericleanOnLine.com.com,,
"ANDERSON CARPET & LINOLEUM SLS CO, INC",Tom Christophe,1000 W GRAND AVE,OAKLAND,California,94607,(510) 652-1032,,,
APPLEBY CLEANING & RESTORATION,Mark Belotz,1660 TIMOTHY DR,SAN LEANDRO,California,94577,(510) 351-5230,http://www.applebycleaning.com,,
APTOS CARPET & UPHOLSTERY CLEANING,James Morris,110 ALTA DR,LA SELVA BEACH,California,95076,(831) 688-7705,http://www.aptosclean.com,,
"ATIYEH BROS, RUGS & CARPETING",Mark McGirr,6750 SW BONITA RD,TIGARD,Oregon,97224,(503) 639-8642,http://www.atiyehbros.com,,
AVENUE RESTORATION SERVICES LTD,George Korecki,#130-3751 JACOMBS RD,RICHMOND,British Columbia,V6V 2R4,(604) 244-7484,http://www.avenueonline.ca,,
BAKER BROS,Phil Koufidakis,4545 E BROADWAY RD #100,PHOENIX,Arizona,85040,(602) 431-1200,http://www.bakerbros.com,,
BARONE JANITORIAL SERVICE,John Barone,3519 PLANTAIN CT,SANTA ROSA,California,95403,(707) 545-5402,http://www.baronejanitorial.com,,
BEACON CARPET CLEANING INC,Ken Rogers,27665 #2 FORBES RD,LAGUNA NIGUEL,California,92677,(949) 496-6079,http://beaconcarpetcleaning.com,,
BIERL'S CARPET ONE FLOOR & HOME,Todd Bierl,811 PLAZA DR,CARROLL,Iowa,51401,(712) 792-5557,http://www.bierlcarpetone.com,,
BILL'S DESIGN CARPET ONE INC,Jolene Tupper,706 E WISHKAH ST,ABERDEEN,Washington,98520,(360) 538-0400,http://www.carpetone.com,,
BISHOP CLEAN CARE - VALDOSTA,Steve Bishop,3115 N OAK ST EXT,VALDOSTA,Georgia,1008,(229) 244-2470,,,
"BISHOP CLEAN CARE, INC - LEESBURG",Jud Savelle,234 CEDRIC ST,LEESBURG,Georgia,31763,(229) 883-1202,http://www.bishopcleancare.com,,
BLAIR & SON FLOOR COMPANY,Krissy Blair,6017 144TH ST E,PUYALLUP,Washington,98375,(253) 535-1964,http://www.blairandsonfloor.com,,
BOB'S CARPET CARE INC,Robert McLean,336 SANFORD ST,ENCINITAS,California,92024,(760) 753-8750,http://www.bobscarpetcare.com,,
BOBCAT CARPET AND FABRIC CARE INC,Al Casas,11630 TENNESSEE AVE,LOS ANGELES,California,1411,(310) 478-4438,http://www.bobcatcarpetcare.com,,
BONDED CARPET CLEANING & SALES,Mitch Adler,PO BOX 710130,SAN DIEGO,California,130,(858) 576-8400,http://www.bondedcarpet.com,,
"C B C CLEANING & RESTORATION, INC",Gordon Glasnow,25042 ANZA DR,VALENCIA,California,91355,(661) 294-2221,http://www.cbcfirst.com,,
C C I N W / CARPET CLEANERS INSTITUTE OF THE NW,Jane O'Haleck,2661 N PEARL ST,TACOMA,Washington,98407,(877) 692-2469,http://www.ccinw.org,,
C C I RESTORATION SERVICES,Wilbur Grooms,1750 EMERSON ST,JACKSONVILLE,Florida,32207,(904) 396-1294,http://www.ccirestorationservices.com,,
C R A / CLEANING & RESTORATION ASSOCIATION,Jennifer Germond,3284 RAMOS CIRCLE,SACRAMENTO,California,95827,(916) 736-1100,http://www.crassocation.org,,
CALIFORNIA RESTORATION CONTRACTORS,William Bonds,5960 VALENTINE RD #4,VENTURA,California,93003,(805) 650-1209,http://www.californiarestoration.com,,
CANYON CARPET CLEANERS INC,Ted Meredith,"1300 E BUTLER AVE, STE 200",FLAGSTAFF,Arizona,86001,(928) 214-8714,,,
"CAPITAL CARPETS, INC",Bob Raver,9097 COMPRINT CT,GAITHERSBURG,Maryland,20877,(301) 948-6724,http://www.capitalcarpetsinc.com,,
CAPTAIN CLEAN INC,David Oakes,208 W BRUNDAGE ST,SHERIDAN,Wyoming,82801,(307) 672-0726,,,
CARPET & FABRICARE INSTITUTE,Matt Cole,20539 MARSHALL ST,CASTRO VALLEY,California,94546,(800) 227-7389,http://www.carpet9.org,,
"CARPET BUTLER, THE",Bob Kong,14435-C BIG BASIN WAY #111,SARATOGA,California,95070,(408) 253-8080,http://www.thecarpetbutler.com,,
CARPET CARE CRAFTSMAN,Allen Shipley,4547 E PLATTE AVE,COLORADO SPRINGS,Colorado,4114,(719) 391-0623,http://www.carpetcarecraftsman.com,,
CARPET CARETAKERS,Dan Curtis,BOX 1731,TELLURIDE,Colorado,81435,(970) 729-0332,,,
CARPET CLUB,Denis Royer,518 W WASHINGTON AVE,ESCONDIDO,California,92025,(760) 740-9545,http://www.carpetclub.com,,
CARPET CONTRACTORS & CONSULTANTS,Kent Edel,6922 GUNDER AVE,BALTIMORE,Maryland,21220,(443) 324-5657,,,
"CARPET DOCTOR, THE",Mark Tucker,PO BOX 1886,NEW BRITIAN,Connecticut,6050,(860) 225-5954,http://www.callthecarpetdoctor.com,,
CARPETLAND CARPET ONE,Ken Weisbacher,1050 SKILLMAN DR,CINCINNATI,Ohio,45215,(513) 771-2345,http://www.carpetlandcincinnati.com,,
"CARR'S RUG CLEANING, INC",Robert Carr,2919 SUTHERLAND AVE,KNOXVILLE,Tennessee,37919,(865) 584-2116,http://www.carrsrugcleaning.com,,
CERTIFIED FLOOR COVERING SERVICES,Kathleen Sobb,2620 CENTENNIAL RD #A,TOLEDO,Ohio,43617,(419) 843-3451,http://www.chem-dry.net/lake.oh,,
CHICAGOLAND FLOORING INC,Mark Agat,5547 N LINDER AVE,CHICAGO,Illinois,60630,(773) 775-8577,http://www.chicagohardwood.com,,
CLEAN AS A WHISTLE INC,Howard Partridge,808 PARK TWO DR,SUGAR LAND,Texas,2840,(713) 784-4648,http://www.cleanasawhistlehouston.com,,
CLEAN SWEEP PROFESSIONAL CLEANING SERVICE INC,Doug Moerschbacher,121 WEST ST,PLEASANT GAP,Pennsylvania,16823,(814) 359-4414,,,
CLEANER MH CARPET & FLOORCARE,Robert Tripp,2843 HOPYARD RD #157,PLEASANTON,California,94588,(714) 544-3619,,,
CLEANING AND RESTORATION SUPPLY,John Carter,1710 SE BROOKLYN ST,PORTLAND,Oregon,97202,(503) 230-2969,http://www.cleaningandrestoration.com,,
CLEANING CONSULTANT SERVICES,William Griffin,PO BOX 98757,SEATTLE,Washington,757,(206) 682-9748,http://www.cleaningconsultants.com,,
CLEANING MANAGEMENT SERVICES,Jerry Selig,13113 COASTAL HWY,OCEAN CITY,Maryland,21842,(410) 250-6002,,,
"CLEANING SPECIALISTS, THE",Francisco Rojas,3728 NATIONAL AVE,SAN DIEGO,California,92113,(619) 599-4998,,,
COLUMBUS FLOORING AND MORE INC,Al Gaston,4848 RIVER RD,COLUMBUS,Georgia,31904,(706) 324-4451,http://www.columbusflooringandmore.com,,
COMMERCIAL FLOORING SERVICES,Mike Marden,940 APOLLO RD #110,EAGAN,Minnesota,55121,(651) 681-8100,,,
"CONTEMPO FLOOR COVERINGS, INC",Mark Haloossim,902 S BARRINGTON AVE,LOS ANGELES,California,90049,(310) 826-8063,http://www.contempofloorcoverings.com,,
COUNTRY CARPET & RUG,Harris Cohen,207 ROBBINS LANE,SYOSSET,New York,11791,(516) 822-5855,http://www.countrycarpet.com,,
COUNTRY CONSTRUCTION,Kevin Sarkela,2210 W MAIN ST #107-205,BATTLE GROUND,Washington,98604,(360) 546-3259,http://www.countryrestoration.com,,
"COUNTRY ROAD CARPET CLEANING, INC",Daniel Joner,24013 NE 120TH COURT,BATTLE GROUND,Washington,98604,(360) 687-6156,http://www.countryroadcarpetcleaning.com,,
CPS INC,Greg Burns,101 GREENBRIAR TRAIL,LAGRANGE,Georgia,30241,(706) 302-2815,http://www.cps911.com,,
"CREATIVE DESIGNS IN CARPET, INC",Jim Blanz,2440 NW 16TH LN,POMPANO BEACH,Florida,33064,(954) 971-2949,http://www.rugcrafter.com,,
"CUSTOM FLOORS CO, INC",Kraig Lundeberg,2132 RICHARDS ST,SALT LAKE CITY,Utah,84115,(801) 486-8441,http://www.customfloorsutah.com,,
D & S PROFESSIONAL SERVICES,Dan Cunningham,PO BOX 114,MINOA,New York,1931,(315) 656-2533,"http://www.dsprofessionalservice.com,www.dsprofessionalservice.com,www.dsprofessionalservice.com",,
"D.A. BURNS & SONS, INC",Michael Hyatt,4411 LEARY WAY NW,SEATTLE,Washington,98107,(206) 782-2268,http://www.daburns.com,,
DAVID W. TAYLOR & ASSOCIATES,David Taylor,4331 S MAIN ST,MURRAY,Utah,84107,(801) 262-2997,,,
DEEP STEAM CARPET CLEANING,Robert Kelly,8415 MORRO RD,ATASCADERO,California,93422,(805) 466-5419,http://www.deep-steam.com,,
"DESERT FLOOR INSPECTIONS, INC",Marty Sures,PO BOX 82185,LAS VEGAS,Nevada,89180,(702) 804-5800,http://www.desertfloorinspections.net,,
"DOUBLE EAGLE INTERIORS, INC",Kent Schwartzenberger,"2880 W VALLEY HWY N, # 102",AUBURN,Washington,98001,(253) 804-8800,http://www.doubleeagleinteriors.com,,
DRI,Rick Schutt,27 DAUPHINE,NEWPORT COAST,California,92657,(805) 890-0390,,,
"DUROTONE CO INC, THE",Howard Sklar,510 OGDEN AVE,MAMARONECK,New York,10543,(914) 381-1167,http://www.durotone.com,,
ELEGANT THREAD,Scott Miller,"922 SAN LEANDRO AVE, STE A",MOUNTAIN VIEW,California,94043,(650) 961-1339,http://www.elegant-thread.com,,
"EMMANUEL'S RUG & UPHOLSTERY CLEANERS, INC",Thea Sand,1105 RAINIER AVE S,SEATTLE,Washington,98144,(206) 322-2200,http://www.emmanuelsrug.com,,
FABRA-CLEEN CARPET & FABRIC SPECIALISTS INC,Brian Kornet,PO BOX 280471,QUEENS VILLAGE,New York,11428,(516) 377-0993,http://www.fabracleen.com,,
FAIR PRICE ENTERPRISES,Donavon Ritz,1070 CENTER ST,RIVERSIDE,California,92507,(951) 684-8578,http://www.fairpricecarpets.com,,
FAIRCHILD FLOORS,Dave Fairchild,"1404 E FRONT ST, STE D",PORT ANGLES,Washington,98362,(800) 788-1411,http://www.fairchildfloors.com,,
FASHION CARPET INC,Robert Blochinger,241 NW 16TH ST,POMPANO BEACH,Florida,33060,(954) 830-4426,http://fashioncarpet.com,,
FELIKIAN'S CARPET ONE,Eliza Gasparyan,188 N ROSEMEAD BLVD,PASADENA,California,91107,(626) 795-2821,http://www.felikiancarpet.com,,
FIBERCARE LLC,John Schremser,925 ROSEWOOD ST,JENISON,Michigan,49428,(616) 667-8580,http://www.fibercaregr.com,,
FIBRECLEAN SUPPLIES LTD,Kathy Brown,#102-3750 19 ST NE,CALGARY,Alberta,T2E 6V2,(403) 291-3834,http://www.fibreclean.com,,
"FLOOR CLUB ONE, LLC",Jim Fullmer,8303 SIERRA COLLEGE BLVD #136,ROSEVILLE,California,95661,(916) 782-2582,http://www.rosevillefloorclub.com,,
FLOOR COVERING INTERIORS OF NM,William Maher,4120 CUTLER NE,ALBUQUERQUE,New Mexico,87110,(505) 830-3007,http://www.floorcoveringinteriors.com,,
"FLOOR GUYS, THE",Jennifer Defalco,PO BOX 3115,NEWPORT BEACH,California,92659,(949) 650-7676,http://www.thefloorguysflooringamerica.com,,
FLOORING FRENZY & MORE INC,Robin Osterhus,223 N CEDAR AVE,OWATONNA,Minnesota,55060,(507) 446-0069,http://flooring-frenzy.com,,
FLOORWORKS INSPECTION SVCS,Andrew Fronczek,36230 FAWN HILL PL,WILLOUGHBY,Ohio,44094,(888) 400-8721,http://www.fronczek.com,,
FRANCE & COMPANY,Paul Render,920 N WENATCHEE AVE,WENATCHEE,Washington,98801,(509) 662-6139,http://franceandco.com,,
FRESH AND CLEAN,James Senter,"160 CIDERMILL AVE, UNIT 8",CONCORD,Ontario,L4K 4K5,(416) 604-0607,http://www.freshandclean.ca,,
FRESH START CLEANING,Vernon Schlosser,188 SEA HERO DR,ELIZABETH,Kentucky,42701,(502) 639-8376,,,
GENESIS RESTORATIONS LTD,Graham Dick,29-19257 ENTERPRISE WAY,SURREY,British Columbia,V3S 6J8,(604) 533-3440,http://www.genesisrestorations.com,,
GILLESPIE'S ABBEY CARPET AND FLOORS,Monte Hoover,360 CHADBOURNE RD,FAIRFIELD,California,94534,(707) 427-3773,http://www.gillespiesabbeycarpet.com,,
GRAHAM UPHOLSTERY & CARPET CLEANING,Dean Graham,1008 COLORADO AVE,BRUSH,Colorado,80723,(970) 842-4506,,,
GREAT FLOORS,Doug Chadderdon,524 E SHERMAN AVE,COEUR D ALENE,Idaho,83814,(208) 664-5405,http://www.greatfloors.com,,
"GREAT LAKES CARPET & TILE, LLC",Darren Hearns,13553 N US HIGHWAY 441,LADY LAKE,Florida,32159,(352) 330-4800,http://www.greatlakescarpet.com,,
GREAT WESTERN FLOORING,Steve Chirico,31 KENDALL POINT DR,OSWEGO,Illinois,60543,(630) 236-2200,http://www.greatwesternflooring.com,,
GREGORY J FINE FLOORING & DESIGN,Gregory Kyer,520 AMHERST ST,NASHUA,New Hampshire,3063,(603) 886-9129,http://www.gregoryj.com,,
GRIFFIN'S FLOORING AMERICA,Gwen Tennyson,22755 MAPLE RD - ROUTE 235,CALIFORNIA,Maryland,20619,(301) 862-2700,http://www.flooringamerica.com,,
HAMMER BUILDING & RESTORATION INC,Steve Gohm,3205 FASHION SQUARE BLVD,SAGINAW,Michigan,48603,(989) 793-5700,http://www.hammerrestoration.com,,
HAMMOND KNOLL,Matt O'Haleck,1764 BABY DOLL RD SE,PORT ORCHARD,Washington,98366,(360) 769-2326,http://www.hammondknoll.com,,
HEAVEN'S BEST,John Steiner,247 N 1ST EAST,REXBURG,Idaho,83440,(208) 359-1106,http://www.heavensbest.com,,
HIGHLAND PRO CLEAN,Andrew Johansen,PO BOX 776,NEWLAND,North Carolina,28657,(828) 733-5089,http://www.highlandproclean.com,,
"HORRIGAN CLEANERS, INC",Timothy Horrigan,100 PEARSON BLVD,GARDNER,Massachusetts,1440,(978) 632-4200,http://horrigancleaners.com,,
HOWARD YOUNG FLOORING,George Young,4430 AVALON BLVD,MILTON,Florida,32583,(850) 981-8434,,,
IKE'S CARPET CLEANING  & INSPEC,Charles Maddox,128 POINSETT HWY,GREENVILLE,South Carolina,29609,(864) 232-9015,,,
IMPERIAL SERVICES,Andy Smith,19229 SONOMA HWY #238,SONOMA,California,95476,(707) 996-9358,http://imperialservices.com,,
INDEPENDENT CARPET ONE FLOOR & HOME,Frances Francavilla,1400 N WAYNE RD,WESTLAND,Michigan,48185,(734) 729-6200,http://www.independentcarpetone.com,,
INSPECTIONS TOO - FLOORING TECH,Claudia Lezell,133 N FRIENDSWOODS DR,FRIENDSWOOD,Texas,77546,(281) 286-5197,http://www.inspectionstoo.com,,
"J R MCDADE COMPANY, INC",J.R. McDade,15250 N HAYDEN RD,SCOTTSDALE,Arizona,85260,(602) 955-9400,http://www.jrmcdade.com,,
"J-LEE FLOORS, INC",Wendy Gardner,3615 MUKILTEO BLVD,EVERETT,Washington,98203,(425) 355-6781,http://www.jleefloors.com,,
J. B. SHORT CARPET ONE,Tim Short,PO BOX 896,SOUTHERN PINES,North Carolina,28388,(910) 692-6411,http://www.carpetone.com,,
JANSSEN'S INC,Ralph Greco,3514 OCEAN VIEW BLVD,GLENDALE,California,91208,(818) 249-1175,http://www.dirtisgone.com,,
JEFF BISHOP INSPECTOR,Jeff Bishop,3113 OXMOOR INDUSTRIAL BLVD,DOTHAN,Alabama,36303,(334) 983-8730,http://www.cleancareseminars.net,,
"JERRY'S INTERIORS, INC",Ron Geisen,12733 WESTERN AVE,GARDEN GROVE,California,92841,(714) 898-3655,,,
JIM'S FLOOR COVERING,Jim Cochrane,23202 MARIPOSA AVE,TORRANCE,California,90502,(310) 539-0700,http://www.jimsfloorcovering.com,,
"JOE DENMAN & ASSOCIATES, LLC",Joe Denman,3 SCOFIELD CT,BLOOMINGTON,Illinois,61704,(309) 824-1353,http://www.joedenman.com,,
K-TECH KLEENING SYSTEMS INC,Craig Kersemeier,PO BOX 289,WESTON,Wisconsin,54476,(715) 359-8888,http://www.k-techkleening.com,,
KENNY'S CARPET ONE,Kenny Hogan,246 NEW YORK 52,CARMEL,New York,10512,(845) 225-4330,http://www.kennyscarpetone.com,,
KING FLOOR SERVICE,Jason Collins,26140 RIDGE RD,DAMASCUS,Maryland,20872,(301) 253-2200,http://www.kingfloor.com,,
KLEENRITE CARPET CARE,Michael Schmitt,PO BOX 85,CORAM,New York,11727,(631) 451-1349,http://www.kleenritecarpetcare.com,,
L M C C A / LOW MOISTURE CARPET,Lonnie Mc Donald,7809 E 134TH TERRACE,GRANDVIEW,Missouri,64030,(816) 966-9065,http://www.lmcca.org,,
LEN'S CARPET CARE & CONSULTANTS,Lenny Mingus,3436 FRANETTE RD,LANSING,Michigan,48906,(517) 886-5367,http://www.lenscarpetcare.com,,
MC CRORIE CARPET ONE,David McCrorie,547 N OAKRIDGE DR,PORT ANGELES,Washington,98362,(360) 457-7500,http://www.mccorie.com,,
MC NEVIN CLEANING SPECIALISTS,Bill Nicolay,1186 SAN MATEO AVE,SOUTH SAN FRANCISCO,California,94080,(650) 952-7975,http://www.mcnevincleaning.com,,
MERCHANTS CARPET,Tom Firek,PO BOX 515,NEWCASTLE,California,95658,(916) 381-3100,http://www.merchantscarpet.com,,
MID AMERICA SOLUTIONS,Shawn Trevino,6351 W MONTROSE AVE #244,CHICAGO,Illinois,60634,(773) 447-1258,http://www.flooring-consultant.com,,
MIDWEST CARPET INSPECTION,Bill Gallagher,7907 E CR-X,CLINTON,Wisconsin,53525,(608) 676-4059,http://www.midwestflooringspecialist.com,,
MILE ABOVE COMMERCIAL CLEANING & RESTORATION,Sam Castro,905 S NORFOLK ST,AURORA,Colorado,80017,(303) 745-5280,,,
"MOLD AWAY USA, INC",Maureen Hoben,29218 ROSELITE CIRCLE,MENIFEE,California,92584,(951) 679-9646,http://www.moldawayusa.com,,
MORRIS CARPET CLEANING INC,Mike Morris,"1405 NE LAFAYETTE AVE, STE E",MC MINNVILLE,Oregon,97128,(503) 472-3889,http://www.morriscleaning.com,,
NEMETH FAMILY INTERIORS,Dave Nemeth,700 W ARROW HWY,COVINA,California,91722,(626) 966-1763,http://www.nemethinteriors.com,,
NEW LIFE SERVICE CO,Paul Dixon,PO BOX 3579,EUREKA,California,95502,(707) 444-8222,http://www.nlsco.com,,
NEW WEST DESIGN,Cal Chamberlain,30 RANCHO CIRCLE,LAKE FOREST,California,92630,(949) 855-3277,,,
NORTH AMERICAN HOME CENTERS,Randy Ward,401 2ND ST,CORALVILLE,Iowa,52241,(319) 354-4344,http://www.randyscarpets.com,,
ON THE SPOT RESTORATION,James Milne,"4354 TOWN CENTER BLVD, STE 114-218",EL DORADO HILLS,California,95762,(530) 676-4411,,,
PACR / PROFESSIONAL ASSOCIATION OF CLEANING,Jillian Olson,PO BOX 21412,DENVER,Colorado,80221,(888) 881-1001,,,
PAUL DAVIS RESTORATION INC TRI-STATE AREA,Doug Wallin,4395 BORON DRIVE,LATONIA LAKES,Kentucky,41015,(859) 655-8300,http://www.pauldavistristate.com,,
POTTER'S CARPET,Bill Potter,1029 E DELANEY PARK RD,SALEM,Indiana,47167,(812) 883-0386,,,
PREFERRED CARPET CARE,Rod Barth,PO BOX 491567,REDDING,California,96049,(530) 243-8400,http://www.preferredcarpetcare.com,,
PRESTIGE CARPET & UPHOL CLEANING,Bill Corridan,"14935 OLIVE AVE, UNIT A",MORGAN HILL,California,95037,(408) 448-2016,http://www.prestigecarpetcleaning.net,,
PRO LINE CARPET CLEANING & RESTORATION,Tom Alameda,12819 SE 38TH ST,BELLEVUE,Washington,98006,(425) 865-9021,,,
PRO-CARE,John Browning,"3656 TROUSDALE DR, STE 108",NASHVILLE,Tennessee,37204,(615) 221-4100,http://www.procareofnashville.com,,
PROFESSIONAL CARPET CLEANERS,Steve Bethel,"220 12TH ST SW, UNIT 113",LOVELAND,Colorado,80537,(970) 669-4911,,,
PROTECH CONSTRUCTION,Jonathan Brown,11626 GOLDRING RD,ARCADIA,California,91006,(626) 359-8283,http://www.ptech1.com,,
PUROCLEAN FIRE AND WATER RECOVERY,Robert Cline,"5075 HILLSDALE CIR, SUITE 100",EL DORADO HILLS,California,95762,(530) 218-8992,,,
Q J S SPECIALTY CLEANING INC,Kevin Casey,545 LAKERIDGE RD,WHITBY,Ontario,L1P 1Z9,(905) 686-9272,http://www.qjsservices.ca,,
QUICK DRY,Robin Deschene,13 BROADVIEW DR,LITCHFIELD,New Hampshire,3052,(603) 886-9461,http://www.quickdrynh.com,,
QUICK DRY FLOOD SERVICES,Robert Freitas,293 VENTURE ST,SAN MARCOS,California,92078,(760) 744-2212,http://www.quickdry.com,,
R & D CERTIFIED FLOORING INSPECTORS,Bret Whitehead,1026 N CHRISTINE,WICHITA,Kansas,67208,(316) 253-4154,,,
R I A / RESTORATION INDUSTRY ASSOCIATION,,"9810 PATUXENT WOODS DR, STE K",COLUMBIA,Maryland,21046,(800) 272-7012,http://www.restorationindustry.org,,
RED OVAL FLOOR CARE,John Wake,"6301 WINCHESTER AVE, STE 310",KANSAS CITY,Missouri,64133,(816) 531-4550,http://redovalfloorcare.com,,
RED THREAD,Mark Graham,300 E RIVER DR,EAST HARTFORD,Connecticut,6108,(860) 282-1826,http://www.bkm.com,,
REGAL FABRIC CARE,David Mavilio,10 DRAPER ST #6,WOBURN,Massachusetts,1801,(781) 995-0683,http://www.regalfabriccare.com,,
"RENOVATION SYSTEMS, INC",Ryan Comer,2735 CHESHIRE LANE N,PLYMOUTH,Minnesota,55447,(763) 551-3500,http://www.renovationsystems.com,,
"RICKMEYER FLOOR COVERING, INC",Jeff Meyer,W213 N11231 MEQUON RD,GERMANTOWN,Wisconsin,53022,(262) 255-4250,,,
SERVICE MASTER ABSOLUTE WATER & FIRE DAMAGE SVC,Mark Ralph,"6975 NORTH AVE, STE B",LEMON GROVE,California,91945,(619) 287-7070,,,
"SERVPRO OF AVONDALE, GOODYEAR AND SW PHOENIX",Jeff Ottaway,PO BOX 949,LAVEEN,Arizona,85339,(623) 537-9999,,,
SERVPRO OF OZAUKEE COUNTY,Javier Pinto,"106 50 N BAEHR RD, STE D",MEQUON,Wisconsin,53092,(262) 242-8888,http://www.servproofozaukeecounty.com,,
SERVPRO OF UNIVERSITY PLACE / LAKEWOOD,Wayne Worthen,PO BOX 98885,LAKEWOOD,Washington,98496,(253) 564-1494,,,
SHARON'S ELITE CARPET CLEANING-MILLER'S,Craig Dunn,1168 FREMONT BLVD,SEASIDE,California,93955,(831) 393-3200,,,
SKILLFUL IMPROVEMENTS INC,Ray Dettmer,"2143 GUS THOMASSON, BLDG 1",MESQUITE,Texas,75150,(972) 279-0119,http://www.skillfulimprovements.com,,
SOCIETY OF CLEANING AND RESTORATION TECHNICIANS,Debbie Glenn,4402 S DANVILLE DR,ABILENE,Texas,79605,(800) 949-4728,http://www.scrt.org,,
"SPECIALIST COMPLETE CARPET CARE, THE",Rich Paulin,5267 WARNER AVE #218,HUNTINGTON BEACH,California,92649,(714) 350-9290,http://www.thespecialistccc.com,,
SPOTLESS INDUSTRIES,Ralph Denning,5360 FLORA ST,MONTCLAIR,California,91763,(909) 621-1333,,,
STANLEY STEEMER,Jeff Heisey,581 W. HIGH ST,POTTSTOWN,Pennsylvania,19464,(610) 323-0204,http://www.stanleysteemer.com,,
"STEAMMASTER CARPET CLEANING & RESTORATION, LLC",Gary Gilman,PO BOX 399,MINTURN,Colorado,81645,(970) 827-5555,http://www.steammaster.com,,
SUNRISE CLEANING & CONSTRUCTION SERVICES,Scott McCorvie,5610 LAMONE,LANSING,Michigan,48911,(517) 351-4200,http://www.sunrisecleaning.biz,,
SUPERIOR RESTORATION INC,Gabriel Prieto,3135 ROOSEVELT ST,CARLSBAD,California,92008,(760) 434-4555,http://www.superiorflood.com,,
T. HILL & ASSOCIATES,Tom Hill,2715 E MILL PLAIN BLVD,VANCOUVER,Washington,98661,(360) 696-0602,,,
THE CLEAN TEAM,Jennifer Critz,45 PEMBROKE ST,KINGSTON,Massachusetts,2364,(781) 585-4678,http://www.thecleanteam.net,,
TOLIVER'S CARPET ONE,John Toliver,1920 E APACHE BLVD,TEMPE,Arizona,85281,(480) 967-8877,http://www.tolivers.com,,
TRI TECH RESTORATION,William Gandsey,3301 N SAN FERNANDO BLVD,BURBANK,California,91504,(818) 565-3900,http://www.tritechrestoration.com,,
TRIPLE S INC,Steve DeMarco,337 WESTPORT AVE,NORWALK,Connecticut,6851,(203) 750-1514,http://www.triplesclean.com,,
TUFT AIDE INC / BUDDY'S CARPET CARE,Buddy McClelland,6526 N FARM RD #171,SPRINGFIELD,Missouri,65803,(417) 833-1732,,,
UNITED SERVICES,Thomas Broertjes,500 E RIDGE RD SUITE 201,GRIFFITH,Indiana,46319,(219) 972-6300,http://www.usdki.com,,
"UNITED SERVICES BY PERMACO, INC",Gary Swenson,124 BAKER RD,LAKE BLUFF,Illinois,60044,(847) 816-9800,http://www.unitedfirewater.com,,
"UNIVERSAL FLOORING SYSTEMS, INC",Michael Bastien,15573 COMMERCE LANE,HUNTINGTON BEACH,California,92649,(714) 373-1136,http://www.universalflooring.com,,
VIOLAND FLOORING INSPECTIONS INC,Mark Violand,1526 CANYON ST NE,UNIONTOWN,Ohio,44685,(330) 877-0661,http://www.mark4floors.com,,
WESTCO FLOORS & INTERIORS,William Bull,"13407 NE 20TH ST, STE 6",BELLEVUE,Washington,98005,(425) 747-2205,http://www.westcofloors.com,,
WESTERN CARPET,Chris Hubbell,PO BOX 9081,REDLANDS,California,92375,(909) 794-0333,http://www.westerncarpet411.com,,
WHITBY CARPET CLEANERS,Robert Chapman,1333 BOUNDARY RD #28,OSHAWA,Ontario,L1J 6Z7,(905) 432-7129,http://www.whitbycarpetcleaners.com,,
"WORLEY HOME DESIGN CENTER, INC.",Carol Worley,2751 CASTRO VALLEY BLVD,CASTRO VALLEY,California,94546,(510) 582-6400,http://www.worleyandsons.com,,
YELLOW VAN CLEANING SERVICES,David Keiter,206 EAST 6TH ST,KEARNEY,Nebraska,68847,(308) 234-2930,http://www.yellowvan.com,,
ZARCONE'S,Samuel Zarcone,541 S SANDUSKY AVE,BUCYRUS,Ohio,44820,(419) 562-5939,http://carpetinspector.com/zarcone,,
A & M FLOORING AMERICA,Lee Horwitz,160 E BULLARD AVE,FRESNO,California,93710,(559) 448-1000,http://www.amcarpet.com,,
ABBEY CARPET OF TACOMA,Mick Johnson,3852 S 74TH ST,TACOMA,Washington,98409,(253) 473-2939,http://www.abbeycarpet.com,,
ALLIED FLOORS LLC,Kenneth Payne,PO BOX 33820,SEATTLE,Washington,98133,(206) 281-9770,http://www.alliedfloors.com,,
AMERICAN DRAPERY BLIND & CARPET,Denny Thostrud,PO BOX 896,RENTON,Washington,98057,(425) 255-3893,http://www.freeinhome.com,,
ASTORIA CARPET INC,Eleanor Kazas,2504 BROADWAY,ASTORIA,New York,11106,(718) 721-2334,,,
"BAER'S RUG & LINOLEUM CO, INC",Louis Baer,275-A EDISON AVE,WEST BABYLON,New York,11704,(631) 392-1073,http://www.baersrug.com,,
BAY CARPETS - FLOORING AMERICA,Mike Dahle,300 CENTREVILLE RD,QUEENSTOWN,Maryland,21658,(410) 820-7288,http://www.baycarpets.com,,
BROOKFIELD HOMES,Linda Ryberg,"3080 BRISTOL ST, STE 105",COSTA MESA,California,92626,(714) 200-2310,http://www.brookfieldhomes.com,,
"C B FLOORING, LLC",Carol Bode,"9515 GERWIG LANE, STE 131",COLUMBIA,Maryland,21046,(410) 381-5400,http://www.cbflooring.com,,
C D I FLOORING,Tim Russeau,6315 MIDLAND INDUSTRIAL DR,SHELBYVILLE,Kentucky,40065,(502) 647-9803,,,
C. G. FLOORING,Chet Grisso,417 VISTA DEL LLANO DR,LA HABRA HEIGHTS,California,8723,(626) 336-6774,,,
CARPET & WOOD LIQUIDATORS,Randy Pleasant,5199 RAYNOR AVE,LINTHICUM,Maryland,21090,(410) 789-1155,http://www.baltimorecarpets.com,,
CARPET BARN,Tom Pardun,P O BOX 2986,SPOKANE,Washington,99220,(509) 533-6742,,,
CARPET INTERIORS/CARPET ONE,Paul Wisnoski,5849 W 95TH ST,OAK LAWN,Illinois,60453,(708) 636-2300,http://www.carpetone.com,,
CCA FLOORS & INTERIORS,Andrew Goshorn,430 S PICKETT ST,ALEXANDRIA,Virginia,22304,(703) 370-0000,http://www.commercialcarpetsofamerica.com,,
CHAMPION FLOOR,Ralph Kuehn,11656 LILBURN PARK RD,ST LOUIS,Missouri,63146,(314) 739-2555,http://www.championfloor.com,,
CHAMPION FLOORS TO GO,Joe Roberto,2701 LAKE TAHOE BLVD,SOUTH LAKE TAHOE,California,7724,(530) 544-4018,,,
COMMERCIAL FLOOR DISTRIBUTORS,Kevin Sutherland,210 S RIVER ST,SEATTLE,Washington,98108,(206) 767-3077,http://www.cfloor.com,,
COMMERCIAL FLOOR SERVICES,Tom Hart,"3911 N CORDOBA AVE, STE 6",SPRING VALLEY,California,91977,(619) 670-8989,http://www.commercialfloorservices.com,,
"CONTRACT FLOOR COVERINGS,  INC",Robert Frillman,33400 WESTERN AVE,UNION CITY,California,94587,(510) 489-6020,http://www.contractfloor.com,,
"CRAFT CROSWELL, INC",Bill Croswell,116 RIDGELAND PLAZA,RIDGELAND,Mississippi,39157,(601) 856-8861,http://www.craftcroswell.com,,
CRITERION BROCK,Jack Byrne,"4500 SE CRITERION CT, SUITE 100",MILWAUKIE,Oregon,97222,(503) 654-0206,http://www.criterionbrock.com,,
"CROWN CARPETS, INC",Douglas Lepper,21655 SE STARK ST,GRESHAM,Oregon,97030,(503) 665-4162,http://www.crowncarpets.com,,
CULVER FLOOR COVERING CO INC,George Petersen,2411 AVENUE X,BROOKLYN,New York,11235,(718) 332-3434,,,
DECOR CARPET ONE FLOOR & HOME,John Gentry,1000 SW 7TH ST,RENTON,Washington,98055,(425) 226-7550,http://www.decorcarpetone.com,,
DESITTER  FLOORING INC,Thomas Cunningham,1 TIMBER COURT,BOLINGBROOK,Illinois,60440,(630) 771-1420,http://www.desitterflooring.com,,
EXPO FLOORS LLC,Andrey Rankin,4660 FLORIN PERKINS RD,SACRAMENTO,California,95826,(916) 379-9773,http://www.expofloors.com,,
"FLOOR SHOW INC, THE",Wayne DeWitt,20695 TIMBERLAKE RD,LYNCHBURG,Virginia,24502,(434) 237-6233,http://www.floorshow.net,,
FLOORING.ORG,Eric Hurst,4531 COUNTY BREEZE DR,NEW PORT RICHEY,Florida,34653,(727) 457-3328,http://www.flooring.org,,
FLOORMASTERS CARPET WORKROOM,Joseph Bianculli,406 JERICHO TURNPIKE,FLORAL PARK,New York,2238,(516) 352-3898,http://www.floormasterscarpet.com,,
"FRANK'S FLOOR COVERING, INC",Frank Battaglia,2419 SE POWELL BLVD,PORTLAND,Oregon,97202,(503) 238-5793,,,
HAMERNICK DECORATING,Ted Natus,1381 N RICE ST,ST PAUL,Minnesota,55117,(651) 487-3211,http://www.hamernicksdecorating.com,,
"HARRY L. MURPHY, INC",Randy Wadley,42 BONAVENTURA DR,SAN JOSE,California,95134,(408) 955-1100,http://www.harrylmurphy.com,,
"HOLLIER FLOOR COVERING, INC",Rocky Hollier,901 BERTRAND DR,LAFAYETTE,Louisiana,70506,(337) 232-2700,http://www.holliersflooring.com,,
"ISLAND FLOORING CO, INC",Raymond Mori,411 ALAKAWA ST,HONOLULU,Hawaii,5763,(808) 847-6577,http://www.island-flooring.com,,
J & C CARPET COMPANY,John Lopez,780 HOLLISTER ST,SAN DIEGO,California,92154,(619) 498-1424,http://www.jccarpet.net,,
J & S FLOORS INC,John Schwartz,"1167 ANNIE CT, UNIT E",MINDEN,Nevada,89423,(775) 267-4123,,,
JIM BOYD'S FLOORING AMERICA,Jim Boyd,12 W AYLESBURY RD,TIMONIUM,Maryland,21093,(410) 667-0620,,,
"JIM'S CARPET & SUPPLIES, INC",Jim Oltman,308 COURT ST,BEATRICE,Nebraska,68310,(402) 228-3684,http://www.jimscarpet.com,,
"JOHNSON FLOOR COMPANY, INC",Jeffrey Johnson,9690 W 55TH ST,COUNTRYSIDE,Illinois,60525,(708) 354-5510,http://www.johnsonfloor.com,,
"LIBERTY FLOOR SERVICE, INC",Don Brannen,PO BOX 72419,BALTIMORE,Maryland,21237,(410) 485-7744,http://libertyflooringservices.com,,
MALY CERAMIC TILE CO INC,Mike Maly,"5353 MALY RD, STE A",SUN PRAIRIE,Wisconsin,53590,(608) 837-6927,,,
"N F I ENTERPRISES, LLC",Zach Brown,P.O. BOX 58583,SEATTLE,Washington,98138,(253) 245-5500,,,
"NEW HOME COMPANY, THE",Joan Marcus-Colvin,"95 ENTERPRISE, STE 325",ALISO VIEJO,California,92656,(949) 382-7803,,,
"OAK PRODUCTS OF IL, INC",Mary Benesz,7950 W 185TH ST,TINLEY PARK,Illinois,60477,(708) 614-0233,http://www.oakproducts.net,,
"OLDE TOWNE FLOORS, INC",Dan Burdzinski,"12344 S INDUSTRIAL DR, E",PLAINFIELD,Illinois,60585,(815) 230-3200,,,
"ORCHARD CITY FLOOR COVERING, INC",Michael Kagel,480 McGLINCEY LN,CAMPBELL,California,4934,(408) 371-8801,http://www.orchardcity.com,,
"PACIFIC CARPETS, INC",Fred Ferrari,17752 METZLER LN,HUNTINGTON BEACH,California,92647,(714) 842-9115,http://www.pacificcarpets.com,,
PACIFIC DECORATING CENTERS,Scott Bryan,3811 E LA PALMA AVE,ANAHEIM,California,92807,(714) 632-7707,http://www.pdcinteriors.com,,
PACIFICLAND TILE,Toan Ngo,1261 S STATE COLLEGE PKWY,ANAHEIM,California,92806,(800) 882-6071,http://www.summittileonline.com,,
"PCI FLORTECH, INC",Michael O'Connell,910 W NATIONAL AVE,ADDISON,Illinois,60101,(630) 458-0760,http://www.pciflortech.com,,
R. E. CUDDIE CO,Thomas Cuddie,1751 JUNCTION AVE,SAN JOSE,California,1029,(408) 998-1250,,,
"RECOVERY 1, INC",Terry Gillis,1630 E 18TH ST,TACOMA,Washington,98421,(253) 627-1180,http://www.recovery1.com,,
RESIDENTIAL DESIGN SERVICES,James Gunckel,4900 E HUNTER AVE,ANAHEIM,California,2057,(714) 701-4200,http://www.resdesign.com,,
RITE-LOOM CARPET,George Lowe,1295 N KRAEMER BLVD,ANAHEIM,California,92806,(714) 764-1122,http://www.riteloom.com,,
ROBERTS ROOF & FLOOR INC,Phil Freeman,4801 W BELL DR,LAS VEGAS,Nevada,89118,(702) 876-4880,http://www.robertsroofandfloor.com,,
"ROCKBROOK FLOORS, INC",Tim McElligott,"12355 W CENTER RD, STE B",OMAHA,Nebraska,3976,(402) 333-2711,http://www.rockbrookfloors.com,,
SERGENIAN'S FLOOR COVERINGS,James Garner,2805 W BELTLINE HWY,MADISON,Wisconsin,53713,(608) 271-1111,http://www.sergenians.com,,
"SOCIETY CONTRACTING, LLC",Shawn Kurihara,96-1403 WAIHONA PLACE,PEARL CITY,Hawaii,96782,(808) 455-8157,,,
SPECTRA CONTRACT FLOORING,Vince Lester,5325 S KYRENE RD # 101,TEMPE,Arizona,85283,(480) 366-8690,http://www.spectracf.com,,
STU'S FLOORING,Steve Ulik,4820 W LOOMIS RD,GREENFIELD,Wisconsin,53220,(414) 744-9400,http://www.stusflooring.com,,
"SUN COUNTRY FLOORS, INC",Taft Smithson,"1743 S HORNE, STE 200",MESA,Arizona,85204,(602) 757-8407,http://www.suncountryfloorsinc.com,,
TIM'S CARPETS & INTERIORS,Tim Youngkin,425 PINE ST NE,SALEM,Oregon,97303,(503) 371-7556,http://www.timscarpet.com,,
"VALLEY FLOOR COMPANY, INC",April Sta Rosa,25423 74TH AVE S,KENT,Washington,98032,(253) 852-7008,http://www.valleyfloorinc.com,,
VALLEY FLOOR COVERING,Dennis Curtis,9945 PROSPECT AVE,SANTEE,California,92071,(619) 449-5222,http://www.valleyfloorcovering.com,,
WALKERS CARPET ONE FLOOR & HOME,Scott Walker,2425 E BAKERVIEW RD,BELLINGHAM,Washington,7694,(360) 733-6390,http://www.walkerscarpetone.com,,
"ACCREDITED FLOORING INSPECTIONS & CONSULTING, LLC",Kermit Walker,18582 CR 1100,FLINT,Texas,75762,(903) 521-8342,http://www.accreditedflooringinspections.com,,
ADVANTAGE PRO INSPECTION SERVICES,Roger Gerber,3040 SHEILA ST NW,MASSILLON,Ohio,44646,(330) 844-1405,http://www.floorinspection1.com,,
D C A ENTERPRISES INCORPORATED,David Alton,28222 MILLWOOD RD,PORTOLA HILLS,California,1210,(949) 713-3006,,,
"A & S FLOORING, INC",Julie Marsteller-Jones,2461 FENTON ST,CHULA VISTA,California,91914,(619) 585-8057,http://www.asflooring.com,,
A & S FLOORS,Anthony Trevino,"938 ADAMS ST, STE A",BENICIA,California,94510,(707) 747-4776,,,
A-1 FLOOR COVERING CO,Stan Levy,5773 W PICO BLVD,LOS ANGELES,California,3752,(323) 938-3716,http://www.a-1floor.com,,
ABBEY CARPET & FLOOR OF PUYALLUP,Barry Lindgren,708 E MAIN,PUYALLUP,Washington,98372,(253) 445-1122,http://www.abbeycp.com,,
ADL FLOORS INC,Dinu Luca,3417 228th AVE SE,SAMMAMISH,Washington,98075,(425) 369-9017,http://www.adlfloors.com,,
"ALDO CARPETS, INC",Albert Benavides,35 HAYWARD AVE,CARTERET,New Jersey,7008,(732) 969-9699,http://www.aldodesigngroup.com,,
ALLIANCE FLOORING SERVICES,Jeff Denckla,7503 S 228TH ST,KENT,Washington,98032,(253) 856-1288,http://www.allianceflooring.com,,
"APOSTROPHE DESIGN, INC",Mark Sauter,401 HIGHGROVE BLVD,GLENDALE HEIGHTS,Illinois,60139,(630) 980-9900,http://www.adifloors.com,,
ARIZONA WHOLESALE SUPPLY,Bill Parks,PO BOX 2979,PHOENIX,Arizona,85062,(602) 258-7901,http://www.arizonawholesalesupply.com,,
ARMSTRONG CPT & LINOLEUM,Steven Balestrieri,369 W PORTAL AVE,SAN FRANCISCO,California,94127,(415) 751-2827,http://www.armstrongcarpet.com,,
B & B FLOORING CONTRACTORS,Jose Barragan,80700 SUNNY COVE CT,INDIO,California,92201,(760) 318-5842,,,
B B C CARPET ONE,John Morris,"6236 RIVER CREST DRIVE, SUITE E",RIVERSIDE,California,92507,(951) 214-6929,http://www.bbccarpetone.com,,
B T MANCINI CO INC,Skip Mancini,876 S MILPITAS BLVD,MILPITAS,California,95035,(408) 942-7900,http://btmancini.com,,
BARNARD & ASSOCIATES FLOORING SUBCONTRACTORS,Barney Barnard,34651 APPALOOSA TRAIL,ZEPHYRHILLS,Florida,33541,(813) 782-4101,http://www.associatesflooring.com,,
BARTON CARPETS & FLOORING,John Barton,47 W BROWNING RD,BELLMAWR,New Jersey,8031,(856) 933-3500,http://www.bartoncarpet.com,,
BLODGETT'S FLOOR COVERING,Larry Blodgett,3291 MT DIABLO COURT,LAFAYETTE,California,94549,(925) 284-4807,http://www.blodgetts.com,,
BONITZ FLOORING - CHARLESTON,Fred Dolloff,1993 TECHNOLOGY DR,CHARLESTON,South Carolina,8122,(843) 375-3571,http://www.bonitz.com,,
"BOOTH FLOORING, INC",Brian Booth,384 R-MERROW,TOLLAND,Connecticut,6084,(860) 872-2345,http://www.boothflooring.com,,
BRADFORD CARPET / CARPET ONE,Robert Mastrocola,880 BROADWAY,SAUGUS,Massachusetts,1906,(781) 231-2955,http://www.bradfordcarpet.com,,
"BREEGLE BUILDING PRODUCTS, INC",Bobby Diltz,2213 GRANT ST,WICHITA FALLS,Texas,76309,(940) 322-3129,http://www.breegle.com,,
BUILDERS FLOOR COVERING & TILE,Bryan Ahrens,1328 BUFORD HWY SUITE 101,BUFORD,Georgia,30518,(770) 945-4097,http://www.getnewfloorstoday.com,,
"CAPITOL FLOORS, INC",Iraj Solimani,1049 TAFT ST,ROCKVILLE,Maryland,20850,(301) 838-0584,,,
CAROUSEL CUSTOM FLOORS,Terry O'Toole,676 E GREEN ST,PASADENA,California,91101,(626) 795-8085,http://www.carouselfloors.com,,
"CARPET CO, THE",David Egbert,1585 W 7TH AVE,EUGENE,Oregon,97402,(541) 484-5373,http://www.thecarpetcompany.biz,,
CARPET CONSULTANTS,Steven Weidner,1405 C TANGIER DR,MIDDLE RIVER,Maryland,21220,(410) 321-9771,http://www.carpetconsultantsmd.com,,
CARPET GARDEN / INSTALLATION SERVICES,Dave Garden,6400 PRODUCT DR,STERLING HEIGHTS,Michigan,48312,(586) 826-9447,http://www.carpetgarden.com,,
"CARPET PLUS, LLC",Nat Rudulph,2807 CITIZENS PARKWAY,SELMA,Alabama,36701,(334) 874-3700,,,
"CARPET VALUES OF CHICAGO, INC / CARPET ONE",Robert Balistreri,230 W NORTHWEST HWY,MT PROSPECT,Illinois,60056,(847) 870-0227,http://www.carpetvaluesmountprospect.com,,
"CARPET WORKS, INC",Christopher Gallagher,6402 FALLS RD,BALTIMORE,Maryland,21209,(410) 821-9468,,,
CASCADE FLOORING LLC,Tracey Palmer,PO BOX 1603,BORING,Oregon,97009,(503) 658-3828,,,
CENTRAL TILE & TERRAZZO CO INC,Scott Bragagnini,5180 S 9TH ST,KALAMAZOO,Michigan,49009,(269) 375-1660,http://www.centraltile.net,,
"CINMARIES HARDWOOD FLOORING, LLC",Cindi Dickman,PO BOX 151376,FORT WORTH,Texas,76108,(817) 805-0674,http://cinmarieshardwoodflooring.com,,
CITY CARPETS,Leigh Bakhtiari,555 E FRANCISCO BLVD,SAN RAFAEL,California,94901,(415) 454-4200,http://www.city-carpets.com,,
"CITY FLOORS OF YORK, INC",Mitchell Fox,340 W MARKET ST,YORK,Pennsylvania,17401,(717) 848-2178,,,
"CITY FLOORS, LLC",John Kostakos,9229 HAMPTON OVERLOOK,CAPITOL HEIGHTS,Maryland,20743,(301) 808-7160,http://www.city-floors.com,,
"CLASSIQUE FLOORS, INC",Judith Huck,14127 SE STARK ST,PORTLAND,Oregon,2147,(503) 255-6775,http://www.classiquefloors.com,,
"COMMERCIAL FLOORING SERVICES, INC",Randy Sexton,303 WILLIAMS AVE SUITE # 1131,HUNTSVILLE,Alabama,35801,(256) 722-9302,http://www.commercialflooringservices.com,,
COMPLETE COMMERCIAL FLOORING,Raymond Olinger,PO BOX 893130,MILILANI,Hawaii,96789,(808) 487-8223,http://www.ccfhawaii.com,,
"COMPLETE FLOORS, INC",Todd Sock,1019 MONROE AVE,NORFOLK,Nebraska,68701,(402) 371-3986,http://www.completefloors.net,,
CONKLIN BROS OF SAN FRANCISCO INC,Stephen Lyon,1100 SELBY ST,SAN FRANCISCO,California,94124,(415) 282-1822,http://www.conklinbrothers.com,,
CONKLIN BROS OF SAN JOSE,Rick Oderio,2250 ALMADEN EXPRESSWAY,SAN JOSE,California,2050,(408) 266-2250,http://www.conklinbros.com,,
CONNER'S MR. CARPET LLC,Fred Conner,536 NE C ST,COLLEGE PLACE,Washington,99324,(509) 522-0176,http://www.connersmrcarpet.com,,
CONTRACT CARPET ONE,Kurt Zanelotti,10212 SOUTHARD DR,BELTSVILLE,Maryland,20705,(301) 937-0030,http://www.contractcarpet1.com,,
CONTRACT CARPET SALES,Belinda Yoder,314 POLK AVE,NASHVILLE,Tennessee,37204,(615) 291-5252,http://www.contractcarpetsales.com,,
"CR FLOORS, INC",Tom Smith,34323 PACIFIC HIGHWAY S,FEDERAL WAY,Washington,98003,(253) 838-1020,http://www.crfloorsinc.com,,
CRAIG'S CARPETCRAFT,Kevin Craig,8464 COMMERCE AVE,SAN DIEGO,California,92121,(858) 271-1971,,,
"CUSTOM HARDWOOD FLOORS, INC",Sandra Scott,2934 RACE TRACK RD,ST AUGUSTINE,Florida,32084,(904) 826-4409,,,
CUSTOM RENOVATIONS,Dwayne West,600 E 11TH,HUGOTON,Kansas,67951,(620) 544-2653,,,
"D. L. ROOT FLOORING, LLC",D. Lamar Root,188 DOE RUN RD,MANHEIM,Pennsylvania,17545,(717) 371-6721,http://www.dlroot.com,,
DALENE FLOORING CARPET ONE,Steven Dalene,45 NUTMEG RD S,S WINDSOR,Connecticut,6074,(860) 289-4305,http://www.daleneflooring.com,,
DALTON CARPET ONE,Michael Blanton,3690 ATLANTA HWY #108,ATHENS,Georgia,30606,(706) 353-0547,http://www.carpetone.com,,
DC FLOORING INC,Enrique Cano,2104 KALMIA CT,OXNARD,California,93030,(805) 612-2611,http://www.dcflooringinc.com,,
DEL'S FLOORING CONTRACTOR'S INC,Del Bernardi,42-120 STATE ST,PALM DESERT,California,92211,(760) 568-0060,http://www.delsflooring.com,,
DERMA'S FLOOR COVERING,Raymundo Derma,220 NORTH J ST,IMPERIAL,California,92251,(760) 355-2483,http://www.dermasfloorcovering.com,,
"DIVISION 9, INC",Chuck Young,"8510 MALTBY RD, STE A",WOODINVILLE,Washington,98072,(425) 205-4020,http://division9flooring.com,,
DUNCAN'S FLOORING AMERICA,Tammy Noda,1911 S BUSSE RD,MT PROSPECT,Illinois,60056,(847) 364-9150,http://www.duncancarpet.com,,
DECOR CORP,Michael Shellnutt,PO BOX 1310,GOOSE CREEK,South Carolina,29445,(704) 523-9411,http://www.decorcorporation.com,,
"E.J.K.C., INC",Edward Smith,"14417 MERIDIAN PKWY, BLDG 6",RIVERSIDE,California,92518,(951) 656-1004,http://www.smithfloors.com,,
"EAST VALLEY FLOORS, INC",Von Payne,PO BOX 2048,GILBERT,Arizona,85299,(480) 926-3444,http://www.eastvalleyfloors.com,,
EKO FLOORING & WOODWORK,Tomasz Poznanski,6350 WETHEROLE ST #4G,REGO PARK,New York,11374,(347) 628-3965,,,
"ELLIOTT FLOOR COVERING, INC.",Jason Elliott,25392 CALLE BECERRA,LAGUNA NIGUEL,California,92677,(949) 279-8858,http://www.elliottfloorcovering.com,,
EMBASSY CARPETS,Dara Jilla,PO BOX 13985,ROANOKE,Virginia,3985,(800) 366-7847,http://www.embassycarpets.com,,
EMO FLOORING CO,William Richter,"4815 S 14TH ST, STE 2",LINCOLN,Nebraska,1260,(402) 420-2323,http://www.emoflooring.com,,
FALLON FLOORS & BUILDING MATERIALS,Darwin Haffner,4677 RENO HWY,FALLON,Nevada,9306,(775) 867-3777,http://www.fallonfloors.com,,
FASHION FLOORS,Don Straw,427 N RIVERSIDE,MEDFORD,Oregon,97501,(541) 779-0996,http://www.fashionfloors.net,,
FAZZARI TILE & REMODELING SERVICE,Michael Fazzari,PO BOX 2937,GLEN ELLYN,Illinois,2937,(630) 858-9740,,,
FLAG FLOORS,Denny Hunkler,PO BOX 306,BARNESVILLE,Ohio,43713,(740) 425-3344,http://www.flagfloors.com,,
FLOOR FACTORS,Cameron Crenshaw,1320 NW 17TH AVE,PORTLAND,Oregon,97209,(503) 222-9393,http://www.floorfactors.com,,
FLOORING CANADA OTTAWA,Les Galko,726 INDUSTRIAL AVE,OTTAWA,Ontario,K1G 0Y9,(613) 247-3737,http://www.flooringcanada.ca,,
"FLOORING DESIGN GROUP, INC",Greg Kenith,3230 OAK CLIFF INDUSTRIAL ST,DORAVILLE,Georgia,30340,(770) 454-7110,http://www.flooringdesigngroup.com,,
FLOORING RESOURCES CORPORATION,Keith Krueger,600 W PRATT BLVD,ELK GROVE VILLAGE,Illinois,60007,(847) 640-7300,http://flooringresources.com,,
FLOORING SERVICES,Bruce Reeve,12815 WAYNE RD,LIVONIA,Michigan,48150,(734) 522-2622,http://flooringservices-inc.com,,
FLOORMASTERS,Don Lau,1678 DELTA COURT,HAYWARD,California,94545,(510) 476-1000,http://www.floormastersinc.com,,
FLOORS BY BECKERS,John Becker,805 1ST ST NW,NEW BRIGHTON,Minnesota,55112,(651) 636-1100,,,
FLOORTEC NORTH COAST,Arthur Cappelen,PO BOX 8088,EUREKA,California,9008,(707) 442-6423,,,
"FLOORWORKS, INC / FLOORING AMERICA",James Heiderich,3605 NE 45TH ST,SEATTLE,Washington,98105,(206) 306-0200,http://www.flooringamericaseattle.com,,
FOCAL POINT FLOORING,Bruce Busch,5358 QUAM CIRCLE NE,ST MICHAEL,Minnesota,55376,(763) 497-6363,http://www.builderscarpetdesigncenter.com,,
FRIENDS FLOOR COVERING INC,Hamed Shaat,350 N YORK RD,WARMINSTER,Pennsylvania,18974,(215) 444-0424,http://www.friendsfloorcovering.com,,
"FRYER-KNOWLES, INC",Susan Bittner,205 S DAWSON ST,SEATTLE,Washington,98108,(206) 776-7770,http://www.fryerk.com,,
"G. B. SALES, INC",Ken Hilton,7720 KENSAMAR CT,SAN DIEGO,California,92121,(858) 571-3600,http://www.gbsales.net,,
"GAETANO HARDWOOD FLOORS, INC",Rick Larson,7071 KEARNY DR,HUNTINGTON BEACH,California,92648,(714) 536-6942,http://www.gaetanoinc.com,,
GARDNER FLOOR COVERING,Catherine Siegmund,PO BOX 11290,EUGENE,Oregon,97401,(541) 485-6984,http://www.gardnerfc.com,,
"GARY'S CARPETING, INC",Gary Suarez,"182 GRANITE, STE 102-C",CORONA,California,1288,(951) 272-8210,http://www.garyscarpeting.com,,
GLENDALE CARPET ONE FLOOR & HOME,Bruce Bell,1203 S CENTRAL AVE,GLENDALE,California,91204,(818) 243-4251,http://www.c1glendale.com,,
GOLD RIVER FLOORS CARPET ONE,Jeff Krekelberg,"11367 PYRITES WAY, STE A",RANCHO CORDOVA,California,95670,(916) 638-5563,http://www.goldriverfloors.com,,
GRADYS SUPERIOR INC,Troy Bryant,218 S BERKELEY CIR,FULLERTON,California,92831,(714) 447-1474,http://www.gsi2000.net,,
GREATER SEATTLE FLOORS,Paul Mosher,114 S FINDLAY ST,SEATTLE,Washington,98108,(206) 763-7004,http://www.gsfloors.com,,
"GREEN STEP FLOORING, INC",Janar Tsaro,1426 HUNTLY CT,CARY,North Carolina,27511,(919) 795-8746,http://www.greenstepflooring.com,,
HAIG PEDIAN,Haig Pedian,7 THREE LAKES RD,BARRINGTON HILLS,Illinois,60010,(847) 381-5525,,,
HARDWOODS OF NASHVILLE,Harold Johnson,P O BOX 331235,NASHVILLE,Tennessee,37203,(615) 321-9663,http://hardwoodsofnashville.com,,
HERITAGE CARPETS & INTERIORS,Dennis Crowley,2501 W PHELPS RD,PHOENIX,Arizona,85023,(602) 943-8599,http://www.heritageinteriors.com,,
HILLER'S FLOORING AMERICA,Rob Elder,PO BOX 6307,ROCHESTER,Minnesota,55903,(507) 288-1766,http://www.hillercarpet.com,,
"HILLSIDE FLOOR COVERING, LLC",Amy Geppert,9725 160TH ST E,PUYALLUP,Washington,98375,(253) 848-4318,http://www.Hillsidefloorcovering.com,,
HOEM & ASSOCIATES,Russ Hoem,951 LINDEN AVE,S SAN FRANCISCO,California,94080,(650) 871-5194,http://www.hoemassociates.com,,
HOUSE OF CARPETS / CARPET ONE,Robert Kerr,1120 McHENRY AVE,MODESTO,California,95350,(209) 523-5664,,,
"INTERIOR CONCEPTS, INC",Jason Doughty,4444 S 34TH ST,PHOENIX,Arizona,85040,(480) 967-1384,http://www.interiorconceptsaz.com,,
INTERIOR DESIGN SERVICES,Matt McGuinness,"2000 MCKINNON ST, STE 427-15",SAN FRANCISCO,California,94124,(415) 282-0900,,,
"INTERIORS, LLC",Ron Foster,PO BOX 9493,YAKIMA,Washington,98909,(509) 453-2642,http://www.interiorsllc.com,,
ISABELLA FLOORING,Brad Welsh,PO BOX 551,BODFISH,California,93205,(760) 379-4427,http://www.isabellaflooring.com,,
"ISENSEE FLOORCOVERING, INC",Steve Lee,1532 E MAIN ST,VENTURA,California,93001,(805) 648-5333,http://www.isenseefloorcovering.com,,
"J K P, INC",Peter Schurkman,1435 S VERNON ST,ANAHEIM,California,92805,(714) 563-1121,http://www.jkpflooring.com,,
J M PROFLOORING SERVICES LLC,Jesus Ramos,2006 THORNBUSH PL,BRANDON,Florida,33511,(813) 520-3027,,,
J. B. WOODWARD FLOORS INC,Sharon Wollman,6968 INDIANA AVE,RIVERSIDE,California,92506,(951) 683-5149,http://www.jbwoodwardfloors.com,,
"J. W. FLOOR COVERING, INC",John Wallace,9881 CARROLL CENTRE RD,SAN DIEGO,California,4554,(858) 530-2901,http://www.jwfloors.com,,
JONATHAN C. TRIVERS,Jon Trivers,5105 LAGO VISTA WAY,PARADISE,California,95969,(902) 837-4738,,,
"KAUAI FLOORS, INC",George Fern,2956 AUKELE ST,KAUAI,Hawaii,96766,(808) 245-3503,http://www.kauaifloors.com,,
KERNS CARPET ONE HOME & FLOOR,Bill Kerns,6661 W MILL RD,MILWAUKEE,Wisconsin,53218,(414) 358-1925,http://www.kernscarpets.com,,
"L & L COMPANY, THE",Michael Geisler,7459 MASON KING CT,MANASSAS,Virginia,20109,(703) 881-7100,http://www.thelandlcompany.com,,
L & M CARPET ONE,Morris Shelton,6156 MECHANICSVILLE TURNPIKE,MECHANICSVILLE,Virginia,23111,(804) 730-3016,http://www.carpetone.com,,
"L & R ENTERPRISES, INC",Anthony Crisalli,5011 LAWRENCE PLACE,HYATTSVILLE,Maryland,20781,(301) 927-2030,http://lrfloors.com,,
LAMBERT & SONS FL\COVERING CO,Nathan Lambert,695 McGLINCEY LN,CAMPBELL,California,95008,(408) 371-2630,http://www.lambertfloors.com,,
"LANSING LINOLEUM CO, INC",Mark Urell,7307 SE FOSTER RD,PORTLAND,Oregon,97206,(503) 777-3333,http://www.lansinglinoleum.com,,
"LERCH'S FLOORING & TILE COMPANY, INC",Bob Lerch,PO BOX 14457,TUMWATER,Washington,4457,(360) 753-6581,http://www.lerchsflooring.com,,
"LES' CARPET & DRAPERY INSTALLATION, INC",Leslie Kumiji,796 HINANO ST,HILO,Hawaii,96720,(808) 935-9690,,,
"LINOLEUM & CARPET CITY, INC",Tony Caruso,1426 W FRANCIS,SPOKANE,Washington,99205,(509) 326-9431,http://www.spokanefloors.net,,
"LINOLEUM CITY, INC",Frederick Stifter,4849 SANTA MONICA BLVD,LOS ANGELES,California,90029,(323) 469-0063,http://www.linoleumcity.com,,
"LONG HUA USA, INC",Ling Qin,PO BOX 88153,TUKWILA,Washington,98138,(206) 438-3025,http://www.ifloor.com,,
MAC CHEYNE'S CARPETS PLUS,John MacCheyne,2060 PEGER RD,FAIRBANKS,Alaska,99709,(907) 479-9193,http://www.macsplus.net,,
"MARCHIO TILE & CARPET, INC",Jim Wartenberg,910 S STATE ST,LOCKPORT,Illinois,60441,(815) 838-6050,http://www.cityofjoliet.com,,
MARK BISESE,Mark Bisese,1826 FRINGER TRAIL,BUCHANAN,Virginia,24066,(540) 330-4485,,,
METRO CARPETS,Frank Jones,1525 ELM HILL PIKE,NASHVILLE,Tennessee,37210,(615) 228-6477,http://www.metrocarpets.com,,
MEUTH CARPET & SUPPLY INC,Mary Meuth,936 8TH ST,HENDERSON,Kentucky,42420,(270) 826-6281,http://www.meuthcarpets.com,,
MICHAEL CATALDO FLOOR COVERING,Michael Cataldo,54 SKYLINE DR,EAST HAMPTON,Connecticut,6424,(860) 306-8225,,,
MILLER'S INTERIORS CARPET ONE FLOOR & HOME,Cindy Webster,PO BOX 1116,LYNNWOOD,Washington,98046,(425) 743-3213,http://www.millersinteriors.com,,
MR SANDLESS,Grant Telleri,5 MILL END RD,WHITEHOUSE STATION,New Jersey,8889,(908) 534-0401,http://www.mrsandless.com,,
NAGL FLOOR COVERING,David Deyoung,HWY 99 E & LIBERTY,AURORA,Oregon,97002,(503) 678-1258,http://www.naglfloor.com,,
"NASHVILLE CARPET CENTER, INC",Van Gilmore,515 4TH AVE S,NASHVILLE,Tennessee,37210,(615) 244-9591,http://www.nashvillecarpet.com,,
NASSAU HARDWOOD FLOORING CORP,Robert Hoenig,256 NEW HYDE PARK RD,GARDEN CITY,New York,11530,(516) 637-2412,,,
NEMETH FLOOR COVERING,Mark Nemeth,11159 GAYNOR AVE,GRANADA HILLS,California,91344,(818) 368-8397,,,
"NEVADA CONTRACT CARPET, INC",Steve Bucher,6840 W PATRICK LANE,LAS VEGAS,Nevada,89118,(702) 362-3033,http://www.nccfloors.com,,
"NEW YORK COMMERCIAL FLOORING, INC",Diane Springer,1770 EMERSON ST,ROCHESTER,New York,14606,(585) 647-1200,http://www.nycf.net,,
NORMAN CARPET ONE,Brian Norman,PO BOX 73,MARION,Illinois,62959,(618) 993-3034,http://www.carpetone.com,,
"OLSON FLOOR COVERING, INC / CARPET ONE",Galen Olson,PO BOX 607,WAUSAU,Wisconsin,607,(715) 359-9221,http://www.carpetone.com,,
ONSITE DESIGN,Joelyn Frawley,1769 W UNIVERSITY DR #177,TEMPE,Arizona,85281,(480) 966-4787,http://www.onsitedesign.com,,
PANDO FLOORING,John Pando,6826 S MACDILL AVE,TAMPA,Florida,33611,(813) 902-8453,http://www.pandoflooring.com,,
PARK AVE FLOOR SERVICES,Ed Labelle,6209 190TH ST,SURREY,British Columbia,V3S 8S4,(604) 575-0708,,,
"PARKERS HARDWOOD, INC",Mike Reissig,906 MAXWELL LN,COLORADO SPRINGS,Colorado,80909,(719) 244-6650,,,
PATRIOT FLOOR COVERING,Sean Snovak,1839 S ORANGE BLOSSOM TRAIL,APOPKA,Florida,32703,(407) 814-1777,http://www.patriotfloorcovering.com,,
PETERSEN'S FLOORING & DESIGN,James Petersen,4217 S MASON ST,FORT COLLINS,Colorado,80525,(970) 226-5343,http://www.petersensflooringanddesign.com,,
PINNELL'S CARPET ONE - ANGELS CAMP,Dan Pinnell,PO BOX 808,ANGELS CAMP,California,95222,(209) 736-8077,http://www.carpetone.com,,
PINSON'S INC,Jim Pinson,PO BOX 647,ROME,Georgia,30162,(706) 291-0081,http://www.pinsons.com,,
POPP ENTERPRISES,Jeff Popp,"3694 S 500 W, STE C",SALT LAKE CITY,Utah,84115,(801) 652-1042,,,
PROFESSIONAL FLOORING AND DESIGN INC,Carolyn Daniels,"5016 FORNI DR, STE F",CONCORD,California,94520,(925) 671-2556,http://www.professionalflooringconcord.com,,
PROFLOOR LLC,Rob Walker,3700 OAKCLIFF RD,DORAVILLE,Georgia,30340,(770) 797-2765,http://www.profloorsllc.com,,
PROSOURCE OF BREVARD,Kim Quinlivan,5095 INDUSTRY DR,MELBOURNE,Florida,32940,(321) 254-1488,http://www.prosourcefloors.com,,
PROSOURCE OF OXNARD,Scott Wening,701 DEL NORTE BLVD STE 225,OXNARD,California,93030,(805) 983-1314,,,
R & R FLOORS LLC,Richard Diamond,48 ITHACA AVE,ATLANTIC BEACH,New York,11509,(516) 239-6822,,,
"RATHBUN HARDWOOD FLOORS, INC",Bryan Rathbun,16640 FIREBRICK DR,PARKER,Colorado,80134,(303) 648-9184,http://www.rathbunhardwoodfloors.com,,
RAY'S CARPETS,Raymond Hirayama,7316 NUULOLO ST,HONOLULU,Hawaii,96825,(808) 833-7911,,,
"RELIABLE FLOORING CONTRACTOR, LLC",Juan Villamizar,102 CHERRY ST,EAST HARTFORD,Connecticut,6108,(860) 289-9400,http://reliableflooring.com,,
RIVERSIDE INTERIORS,Mike Gallatin,PO BOX 170,PACIFIC,Washington,98047,(253) 929-6541,http://www.riversideinteriors.biz,,
"ROD NICHOLAS FINISHING TOUCH, INC",Susan Nicholas,18311 BOTHELL-EVERETT HWY #220,BOTHELL,Washington,5234,(425) 486-9030,http://www.ftfloors.com,,
S C S CARPET ONE,Andy Grinstead,17829 VALLEY BLVD,INDUSTRY,California,91744,(626) 913-0442,http://www.scscarpets.com,,
SACRAMENTO AREA WOOD SPECIALISTS,Dennis Alexander,4366 SHORTHORN RD,RESCUE,California,95672,(916) 879-1798,,,
"SERRA TILE & STONE, INC",John Williams,"212 LAUREL ST, STE 208",SANTA CRUZ,California,7502,(831) 460-0312,http://www.serratile.com,,
"SIGNATURE FLOORING, INC",Jeffery Grimsley,1353 E WILSHIRE AVE,SANTA ANA,California,92705,(714) 558-9200,http://www.floorsbysignature.com,,
"SILMAR FLOORING, INC",David Silva,3950 VALLEY AVE #C,PLEASANTON,California,94566,(925) 846-7600,http://www.silmarflooring.com,,
SPECTRA CONTRACT FLOORING,Jim Mitchell,17620 W VALLEY HWY,TUKWILA,Washington,98188,(425) 656-5919,http://www.spectracf.com,,
ST. FRANCIS FLOORING INC,Kerry Brown,116 CALISTOGA RD,SANTA ROSA,California,95409,(707) 539-4790,,,
STATE TILE,John Florence,3820 N 30TH AVE,PHOENIX,Arizona,85017,(602) 264-5705,,,
STU'S FLOOR SANDING,Stu Erickson,105 MIDDLE ST W,CANNON FALLS,Minnesota,55009,(507) 581-2337,http://www.stusfloorsanding.com,,
SUBURBAN FLOORCOVERINGS INC,Steve Ables,2120 BEAVER RD,LANDOVER,Maryland,20785,(301) 773-1600,http://www.suburbanfloorcoverings.com,,
SUNWEST FLOORING,Drue Kehl,6152 S STRATLER ST,MURRAY,Utah,84107,(801) 265-1701,http://www.sunwestflooring.com,,
"SUPERIOR FLOOR COVERING, INC",Karen O'Connor,PO BOX 314,POSEN,Illinois,60469,(708) 371-0515,http://www.superiorfloorcoveringinc.com,,
SUPERIOR FLOOR DESIGNS,John Antman,579 WESTLAKE ST,ENCINITAS,California,92024,(760) 436-0900,http://www.superiorfloors.com,,
SUSSEX HARDWOOD FLOORING,Phil Morrison,92 DEPEUTER CRESCENT,BRADFORD,Ontario,L3Z 3A2,(416) 409-4399,,,
TEC FLOOR COVERINGS LTD,Carol Sollenius,5600 CEDARBRIDGE WAY # 120,RICHMOND,British Columbia,V6X 2A7,(604) 273-6520,http://www.tecfloors.com,,
TILE INTERIORS,"John Wabeke, Inspector",210 N MAIN ST,COTTONWOOD,Arizona,86326,(928) 634-3951,http://www.tileinteriors.biz,,
TONY'S FLOOR SERVICE,Tony Viers,1677 HIGHWAY A,TRUXTON,Missouri,63381,(636) 597-3113,,,
UNIQUE FLOORS INC,Adrian Hulea,3222 W WARNER AVE,CHICAGO,Illinois,60618,(847) 630-8338,http://www.uniquefloorsinstallers.com,,
WALL 2 WALL,Bill Bohrer,BOX 4929,POCATELLO,Idaho,4329,(208) 232-4226,http://www.wall2wallflooring.com,,
WALLY'S CARPETS,Eugene Gleason,26007 E BASE LINE ST,SAN BERNARDINO,California,92410,(909) 862-2707,http://www.iefloors.com,,
WASATCH FRONT FLOOR COVERING,Michele Tippets,4661 S CHERRY ST,MURRAY,Utah,84123,(801) 281-6694,http://www.wffcinc.com,,
"WEBB CARPET CO, INC",Woody Griffin,2825 RAEFORD RD,FAYETTEVILLE,North Carolina,28303,(910) 485-5865,http://www.webbcarpet.net,,
WEST COAST FLOORING,Minos Spyridakis,1025 6TH AVE S,SEATTLE,Washington,98134,(206) 622-5200,http://www.wcflooring.com,,
"WEST VALLEY CARPET SERVICE, INC",Gary Baszak,1605 WATSON CT,MILPITAS,California,95035,(408) 946-2447,,,
WESTCO CARPETS & INTERIORS INC,Brad Belliston,PO BOX 1656,OREM,Utah,84059,(801) 226-8512,http://www.westcocarpets.com,,
"WISENBAKER BUILDER SVCS, INC",Joseph Chiavone,1703 WESTFIELD LOOP,HOUSTON,Texas,77073,(281) 233-4000,http://www.wisenbaker.com,,
"WORKPLACE SERVICES, INC",John Boyce,610 ALPINE WAY,ESCONDIDO,California,92029,(760) 745-6869,http://www.workplaceservices.com,,
WORLD OF CARPET ONE FLOOR & HOME,Scott Carston,3023 SANTA ROSA AVE,SANTA ROSA,California,95407,(707) 524-1450,http://www.worldofcarpetsantarosa.com,,
A & D CARPETS INC AND HARDWOODS,Becky Critell,320 S BELAIR RD,MARTINEZ,Georgia,30907,(706) 863-8879,http://www.aanddcarpets.com,,
ABBEY CARPET OF MOUNDS VIEW,Tom Link,2222 COUNTY HWY 10,MOUNDS VIEW,Minnesota,55112,(763) 398-3981,http://www.moundsview.abbeycarpet.com,,
ABBEY'S CARPET CITY AND FLOORING,Pablo Gallardo,317 CHAPALA ST,SANTA BARBARA,California,93101,(805) 966-1606,http://www.abbeysb.com,,
AMBASSADOR FLOOR COMPANY,Mike Hart,17770 CHESTERFIELD AIRPORT RD,CHESTERFIELD,Missouri,63005,(636) 728-1600,http://www.ambassadorfloor.com,,
"AMERICARPET, INC",Juan Werner,364 NE 167TH  ST,MIAMI,Florida,33162,(305) 945-2973,http://www.americarpet.cc,,
ANDERSON CARPET ONE FLOOR & HOME,Allen Anderson,PO BOX 16055,HATTIESBURG,Mississippi,6055,(601) 545-7198,http://www.andersondesigncenter.com,,
ASPIRE DESIGN INC.,Steve Shuler,2043 W LONE CACTUS DR,PHOENIX,Arizona,85027,(623) 516-2700,,,
ASSOCIATED INC,Debra Hall,580 S LUCILE ST,SEATTLE,Washington,98108,(206) 763-2536,http://www.associatedinc.net,,
BEAMS QUALITY FLOORING INC,Mark Beams,1475 ELM STREET NORTH,TWIN FALLS,Idaho,83301,(208) 734-3068,http://www.beamsflooring.com,,
BERGMANN'S COUNTRY INTERIORS LLC,Bruce Bergmann,7416 80TH ST,GLENCOE,Minnesota,5218,(320) 864-6754,http://www.bergmannsonline.com,,
BIVIANO CARPET ONE FLOOR & HOME,David Biviano,1828 N STATE ST,GIRARD,Ohio,44420,(330) 545-9968,http://www.bivianocarpetone.com,,
"BRETAG FLOOR SOURCE, LLC",Michael Bretag,"601 W CAMPUS DR, STE A-5",ARLINGTON HEIGHTS,Illinois,60004,(847) 255-7273,http://www.michaelbretag.com,,
C B L FLOORS,Frank Hanzal,1061 S ROBERT ST,WEST ST PAUL,Minnesota,55118,(651) 292-1011,http://www.cblfloors.com,,
CALIFORNIA FLOORING & DESIGN,Shawn Hedi,8266 MIRAMAR RD SUITE A,SAN DIEGO,California,92126,(858) 408-0047,http://www.cafloordesign.com,,
CARPET ISLE FLOORING AMERICA,Garret Sasaki,424 KANOELEHUA AVE,HILO,Hawaii,96720,(808) 935-0047,,,
CARPET ONE FLOOR & HOME,Brian Horner,500-A OLD DURHAM RD,ROXBORO,North Carolina,27573,(336) 599-1339,http://www.carpetoneroxboro.com,,
CARPET ONE FLOOR & HOME,John Shepard,PO BOX 16222,PANAMA CITY,Florida,32406,(850) 785-4938,http://www.CarpetOnePanamaCity.com,,
CARPET TILE & FLOORING DEPOT,Anthony Gomez,"5980 FAIRMOUNT AVE, STE 100",SAN DIEGO,California,92120,(619) 640-2899,http://www.ctfdepot.com,,
CARPETING BY MIKE INC,Michael Faust,405 LASER DR,SOMERSET,Wisconsin,54025,(715) 247-3244,http://www.carpetingbymike.com,,
CENTRAL CARPET & INTERIORS,Bill Keller,3397 DAYTON-XENIA RD,BEAVERCREEK,Ohio,45432,(937) 426-9311,http://www.centralcarpetinteriors.com,,
CHATEAU INTERIORS & DESIGN,Nancy Giangeruso,10 BUNSEN,IRVINE,California,92618,(949) 679-3100,http://www.chateauinteriorsanddesign.com,,
CITY TILE & FLOOR COVERING CO,Douglas Young,223 S SPRING ST,MURFREESBORO,Tennessee,37130,(615) 893-7721,http://www.citytile.net,,
CLASSIC DESIGN FLOOR TO CEILING,Tiffany Gomes,2303 S STOCKTON ST,LODI,California,95240,(209) 334-4060,http://www.classicdesignftc.com,,
"CONSULT INSPECT DESIGN, INC",Tony Robison,220 PINE CONE WAY,SOUTHERN PINES,North Carolina,28387,(714) 269-5777,,,
CORINTHIAN RUG & CARPET CO,Robb Pickens,2000 SE MILPORT RD,PORTLAND,Oregon,97222,(503) 786-3678,http://www.carpetmill-portland.com,,
"CUSTOM FLOOR COVERING, INC",Bill Schuldt,3809 HWY 29 S,ALEXANDRIA,Minnesota,56308,(320) 762-0292,,,
DE/MAR CO,Chuck Hawes,515 STRANDER BLVD,TUKWILA,Washington,98188,(206) 575-0345,,,
DESIGN EXPO FLOORING CENTER,Floyd Burton,15443 EXCELSIOR DR,BOWIE,Maryland,20716,(301) 262-8022,http://www.designexpoflooringcenter.com,,
DON'S CARPET ONE FLOOR & HOME,Renee LeCroy,PO BOX 560,TRUSSVILLE,Alabama,35173,(205) 655-8777,http://www.donscarpetone.com,,
DOOR COUNTY CARPET ONE,Jim Perry,6124 STATE HIGHWAY 57,STURGEON BAY,Wisconsin,54235,(920) 832-2137,http://www.doorcountycarpetone.com,,
"FASHION FLOORS, INC",Steve Siegfried,1802 VERNE ROBERTS CIR,ANTIOCH,California,94509,(925) 754-7006,,,
FLAHERTY'S FLOORING AMERICA,Patrick Flaherty,13422 GRANT RD,CYPRESS,Texas,77429,(281) 370-8022,http://www.flahertysflooringamerica.com,,
FLOOR COVERINGS OF WINONA,Alfred Quandahl,5505 HWY 61 W,WINONA,Minnesota,55987,(507) 454-7090,http://www.winonafloors.com,,
FLOOR PARTNERS IN DESIGN INC,Theril Williams,5780 AIRPORT FWY,HALTOM CITY,Texas,76117,(817) 735-8500,http://www.floorpartners.com,,
"FLOOR SHOW, INC",Mark Frost,33858 STATE ROUTE 20,OAK HARBOR,Washington,98277,(360) 675-0415,,,
FLOOR SYSTEMS INC,Roger Murphy,15 OXFORD WAY,HUNTINGTOWN,Maryland,20639,(410) 257-7380,http://www.floorsystems.net,,
FLOOR SYSTEMS INC,Bill Freck,5130 E HUNTER AVE,ANAHEIM,California,92807,(714) 970-2222,http://www.floor-systems.com,,
FLOORCRAFT,Carl Olson,231 NH RT 11,WILMOT,New Hampshire,3287,(603) 526-2600,http://www.floorcraftnh.com,,
FLOORHAUS' FLOORING AMERICA,Virgil Klaus,12105 S. MEMORIAL,BIXBY,Oklahoma,74008,(918) 369-1450,http://www.floorhausflooringamericabixby.com,,
FLOORING AMERICA OF SIOUX FALLS,Dave Serck,27107 INDEPENDENCE AVE,SIOUX FALLS,South Dakota,57108,(605) 498-8000,http://www.flooringamericaofsiouxfalls.com,,
FLOORS DEPOT TX,Richard Courchesne,5505 AIRPORT FWY,HALTOM CITY,Texas,76117,(817) 222-2274,http://www.floorsdepottx.com,,
FLOORSCAPES,Bill Burrell,8515 PASEO ALAMEDA NE,ALBUQUERQUE,New Mexico,87113,(505) 857-0438,http://www.floorscapesnm.com,,
GINA'S DESIGN CORNER,Gina Cook,ONE N BROWNE ST,SPOKANE,Washington,99201,(509) 624-2205,http://www.ginasdc.com,,
"HARFORD CARPET SALES, INC",Susan Dieter,1001 EDGEWOOD RD,EDGEWOOD,Maryland,21040,(410) 679-5580,http://www.harfordcarpet.com,,
"HOME BEAUTIFUL INC, THE",Bruce Hamel,141 DANIEL WEBSTER HWY,BELMONT,New Hampshire,3030,(603) 524-5588,http://www.home-beautiful.com,,
"HOMEOWNERS DESIGN CENTER, INC",Lori Matsushige,1030 KOHOU ST #201,HONOLULU,Hawaii,96817,(808) 847-0216,http://www.homeownersdesign.com,,
INTERIORS NORTHWEST OF PUYALLUP INC,Richard Tipton,"1106 39TH AVE SE, STE 500",PUYALLUP,Washington,98374,(253) 845-9353,http://www.interiorsnorthwest.com,,
INTERNATIONAL FLOORING,Scott Jorenson,451 N ROBERTSON BLVD,WEST HOLLYWOOD,California,90048,(310) 859-0044,,,
IRVINE PACIFIC,Bob Edmonston,550 NEWPORT CENTER DR,NEWPORT BEACH,California,7011,(949) 720-2309,,,
JERRY'S FLOOR STORE,Dawn Iversen,1550 COUNTY HIGHWAY 10,SPRING LAKE PARK,Minnesota,55432,(763) 786-7570,http://www.jerrysfloorstore.com,,
JUST CARPETS & FLOORING OUTLET,Frank Difiglia,4329 US  9,HOWELL,New Jersey,7731,(732) 905-2002,http://www.justcarpetsnj.com,,
KATHY HANSON INTERIORS,Kathy Hanson,"3055 OLD HWY 8, SUITE LL85A",ST ANTHONY,Minnesota,55418,(612) 353-4628,http://www.khansoninteriors.com,,
KPM FLOORING,Kathleen Mayers,35 MAIN ST SUITE 110,HILTON HEAD ISLAND,South Carolina,29926,(843) 342-4955,http://www.kpmflooring.com,,
LOEW'S CARPET ONE,Jeff Loew,1424 LAKE AVE,STORM LAKE,Iowa,50588,(712) 732-7328,http://www.loewscarpetone.com,,
LOVELAND DESIGN CARPET ONE,Cindy Corbett,360 S LINCOLN AVE,LOVELAND,Colorado,80537,(970) 667-3590,http://www.lovelanddesigncenter.com,,
MADDEN MCFARLAND INTERIORS,Bernie Madden,1903 W 135TH ST,LEAWOOD,Kansas,66224,(913) 681-2821,http://www.maddenmcfarland.com,,
"MADISON HARDWOOD FLOORS & SUPPLIES, INC",Sabrina Siqueira,230 WOODMONT RD 21G,MILFORD,Connecticut,6460,(203) 878-7085,,,
MC LEOD CARPET ONE,Stan Fons,42598  WOODWARD AVE,BLOOMFIELD HILLS,Michigan,48304,(248) 333-7086,,,
"MERCER CARPET ONE, INC.",Jim Farrell,26 W MAIN ST,WESTMINSTER,Maryland,21157,(410) 848-7181,http://www.mercercarpetone.com,,
MILLER TECHNICAL SERVICES,Jerry Miller,PO BOX 6414,DALTON,Georgia,30722,(706) 218-7244,,,
MIRA FLOORS,Kevin Bergstresser,9785 192 ST,SURREY,British Columbia,V4N 4C7,(604) 856-4799,http://www.mirafloors.com,,
MOUNT VERNON CARPET ONE FLOOR & HOME,Debbie Monetti,PO BOX 1166,MOUNT VERNON,Washington,1166,(360) 336-6533,http://www.mvcarpetone.com,,
N F I C,P.J. Arthur,PO BOX 4248,CANTON,Georgia,30114,(866) 445-8777,http://www.nficnet.com,,
PACIFIC COAST COMMUNITIES,Sylvia Hanson,4350 EXECUTIVE DR #305,SAN DIEGO,California,92121,(858) 259-2960,http://www.pcc-heritage.com,,
PRIMERA,TJ Wheeler,1311 W 21ST ST,TEMPE,Arizona,85282,(480) 829-0054,http://www.primerainteriors.com,,
PROSOURCE OF JACKSONVILLE,Glenn Miller,5250 SUNBEAM RD,JACKSONVILLE,Florida,32257,(904) 288-5688,http://www.prosourcefloors.com/jacksonville,,
PROSOURCE OF NASSAU,Douglas Katz,303 SUNNYSIDE BLVD,PLAINVIEW,New York,11803,(516) 576-0000,http://www.prosourcefloors.com,,
PROSOURCE OF SEATTLE,Scott Lewis,21312 30TH DR SE #B107,BOTHELL,Washington,98021,(425) 487-4343,http://www.prosourcefloors.com/seattle,,
QUALITY CARPET ONE,Shawn Bayat,10232 HARRY J PARRISH BLVD,MANASSAS,Virginia,20110,(703) 499-9777,http://www.qualitycarpetone.com,,
QUALITY CARPET ONE FLOOR & HOME,Herbert Frank,214 DITMAS AVE,BROOKLYN,New York,11218,(718) 941-4200,http://www.qualitycarpet.com,,
ROGER'S CARPET ONE,Roger Pierce,"971 TOPSY LANE, STE 322",CARSON CITY,Nevada,89705,(775) 267-2555,,,
"RUG GALLERY, THE",Sam Presnell,9350 KENWOOD RD,CINCINNATI,Ohio,45242,(513) 793-9505,http://www.ruggallerycincy.com,,
S & J BIREN FLOOR COVERINGS,Evan Biren,9563 W PICO BLVD,LOS ANGELES,California,90035,(310) 553-0971,http://www.sjbiren.com,,
SANDPOINT FURNITURE CARPET ONE,John Darling,"401 BONNER MALL WAY, STE B",PONDERAY,Idaho,83852,(208) 263-5138,http://www.ponderaydesigncenter.com,,
SHEA DESIGN STUDIO,Melanie Hannigan,2580 SHEA CENTER DR,LIVERMORE,California,94551,(925) 245-3770,http://www.sheahomes.com,,
SIGNATURE INTERIORS & DESIGN LLC,Kelli O'Day,6404 S 209TH ST,KENT,Washington,98032,(425) 251-0241,http://www.signatureinteriorsdesign.com,,
ST. JEAN FLOORING SERVICES LTD,Michael St. Jean,179 AGNES ST,PEMBROKE,Ontario,K8A 5M8,(613) 735-8190,http://www.stjeanflooring.ca,,
STANGE'S OF WAUPACA,Mark Stange,110 W UNION ST,WAUPACA,Wisconsin,54981,(715) 258-8113,http://www.stanges.com,,
STAR FLOORING & DECORATING,Jacque Jolly,325 S WEST ST,WICHITA,Kansas,67213,(316) 946-1630,http://www.starlumber.com/flooring.html,,
T S CARPET & DESIGN CENTER,Tom Solomonson,"320 E ORANGETHORPE AVE, STE A/B",PLACENTIA,California,92870,(714) 572-7333,http://www.tscarpet.com,,
"TILE MARKET OF DELAWARE, INC",John Watson,405 EAST MARSH LANE,WILIMINGTON,Delaware,19804,(302) 777-4663,http://www.tilemarketofde.com,,
TOUCH OF COLOR DESIGN GROUP,Scott Appel,PO BOX 4845,HARRISBURG,Pennsylvania,17111,(717) 939-4390,http://www.floorpro.biz,,
"VALLEY FLOORS, INC",Dean Chase,PO BOX 364,BRADFORD,Vermont,5033,(802) 222-9611,http://www.valleyfloorsinc.com,,
"VILLAGE FLOOR & WALL, INC",Brent Pobuda,2221 108TH LANE NE,BLAINE,Minnesota,55449,(763) 210-3000,http://www.villagefloor.com,,
WESTCHESTER HOUSE AND HOME,Kathleen Shahin,65 S MOGER AVE,MOUNT KISCO,New York,10549,(914) 864-2865,http://www.westchesterhouseandhome.com,,
WESTLAND CARPET ONE FLOOR & HOME,Steve Najarro,116 E SHOPPERS LN,COVINA,California,91723,(626) 967-1432,,,
YATES FLOORING CENTER,Bobby Yates,1901 W LOOP 289 SUITE 11,LUBBOCK,Texas,79407,(806) 795-0070,http://www.yatesflooring.com,,
"DEATON'S CARPET ONE, INC",Gary Deaton,1000 HWY 45 BYPASS,JACKSON,Tennessee,38301,(731) 664-5200,http://www.carpetone.com,,
ABRAHAM LINC,Darren Abraham,519 W MAIN ST,BRIDGEPORT,West Virginia,26330,(304) 842-6474,http://www.abrahamlinc.com,,
"ALL AMERICAN HARDWOOD, INC",Angela Ma,1735 E GREVILLEA CT,ONTARIO,California,91761,(909) 947-5157,,,
ALL TILE INC,Bob Weiss,1201 CHASE AVE,ELK GROVE VILLAGE,Illinois,60007,(847) 979-2500,http://www.alltile.com,,
ALLWOOD IMPORTS,Hung Chen,PO BOX 20308,PORTLAND,Oregon,97294,(503) 255-7976,http://allwoodimport.com,,
AMAZON WOOD FLOORS,Edgar Takvoryan,8828 LANKERSHIM BLVD,SUN VALLEY,California,91352,(818) 394-9701,http://www.amazonwoodfloors.com,,
B & M NOBLE/DuCHATEAU,Scott Petersen,1501 FRONT ST #115,SAN DIEGO,California,92101,(619) 793-5899,http://www.duchateaufloors.com,,
B P I,John Anderson,3263 SHARPE AVE,MEMPHIS,Tennessee,38111,(901) 744-6202,http://www.bpidecosurf.com,,
"BASE KING, LLC",Dennis Schlisner,137 LOWER DUG GAP RD SW,DALTON,Georgia,9272,(800) 586-3236,http://www.bindnstix.com,,
BECKLERS CARPET OUTLET,Randy Beckler,PO BOX 9,DALTON,Georgia,30722,(706) 277-1151,http://www.becklerscarpet.com,,
BEST BUY FLOORING SOURCE,Larry Heckman,PO BOX 1308,CHATSWORTH,Georgia,6372,(800) 245-0652,,,
BROTHERS BUILDING MATERIALS INC,Carson Xu,900 E VERMONT AVE,ANAHEIM,California,92805,(626) 551-1568,http://www.brothersmosaic.com,,
"C G PLANCHER, INC",Carole DesJardins,336 CHEMIN INDUSTRIEL,GATINEAU,Quebec,J8R 3N9,(819) 643-2220,http://www.cgplancher.com,,
CAL-FLOR ACCESSORY SYSTEMS,Bruce Hall,1000 CAL OAK RD,OROVILLE,California,95965,(530) 534-1426,http://www.cal-flor.com,,
CENO GROUP,Robert Moffett,12221 CARLSBAD,HOUSTON,Texas,77085,(713) 551-8460,http://floorsanding.com,,
CFS CORPORATION,Bin Liu,3371 MARTIN FARM RD,SUWANEE,Georgia,30024,(770) 614-8009,http://www.cfscorporate.com,,
CHINAFLOORS LAMETT NORTH AMERICA INC,Perry Coker,4579 CABINWOOD TURN,DOUGLASVILLE,Georgia,30135,(770) 489-2419,http://www.chinafloors.com,,
COUNTRY WOOD FLOORING,Peter Feng,"17521 RAILROAD ST, UNIT G",CITY OF INDUSTRY,California,91748,(626) 820-8555,http://www.countrywoodfloor.net,,
DALTON CARPET MART,Cynthia Potts,2222 S HAMILTON EXT,DALTON,Georgia,30721,(706) 226-7404,http://www.daltoncarpetmart.com,,
"EASTOREAN FLOORING, INC  / A.J. TRADING",Jay Cho,"2F LIANTAI BLDG, NO 41 HULI RD",XIAMEN,FUJIAN,361006,(909) 869-0500,http://www.ajtrading1015.com,,
ECOFUSION FLOORING,Chanel Clifford,19224 E WALNUT DR N #5,CITY OF INDUSTRY,California,91748,(877) 215-6824,http://www.ecofusionflooring.com,,
"ELEGANZA TILES, INC",Mike Darmawan,3125 E CORONADO ST,ANAHEIM,California,92806,(714) 224-1700,http://www.eleganzatiles.com,,
ELEMENTS FLOORING,James Park,4461 S SANTA FE AVE,VERNON,California,90058,(323) 277-7930,http://www.elementsflooring.com,,
"EMILAMERICA, INC",David Lang,22701 DULLES SUMMIT CT,DULLES,Virginia,9575,(703) 751-3645,http://www.emilamerica.com,,
EMSER TILE & NATURAL STONE,Shannon Ghodsian,8431 SANTA MONICA BLVD,LOS ANGELES,California,4294,(323) 650-2000,http://www.emser.com,,
ENNOVAGE LLC,Mark Prince,"200 N BERRY ST, BLDG B",BREA,California,92821,(714) 256-4828,http://www.ennovage.com,,
FIBREWORKS CORP,Kim Lewis,2417 DATA DR,LOUISVILLE,Kentucky,40299,(502) 499-9944,http://www.fibreworks.com,,
GOTON TILES INC,Ken Li,1543 S STATE COLLEGE BLVD,ANAHEIM,California,92806,(714) 935-9986,http://www.gotontiles.com,,
HEREFORD IMPORTS,Christian Morwood,101 KALMUS DR,COSTA MESA,California,92626,(714) 434-8440,http://www.herefordimports.com,,
HIGUERA HARDWOODS,Joe Gallegos,PO BOX 2067,POULSBO,Washington,98370,(360) 779-6050,http://www.higuerahardwoods.com,,
"HOME LEGEND, LLC",Tiffany Davis,PO BOX 887,ADAIRSVILLE,Georgia,30103,(706) 383-5904,http://www.homelegend.com,,
"ICON STONE, INC",Mehmet Aktas,13000 FIRESTONE BLVD,SANTA FE SPRINGS,California,90670,(714) 635-5353,http://www.iconstoneinc.com,,
IMPERIAL WHOLESALE INC,Michael Imperial,9602 E APACHE TRAIL,MESA,Arizona,85207,(480) 986-6900,http://www.imperialwholesaleinc.com,,
INTERNATIONAL PRODUCT GROUP,W. Hoelker,PO BOX 1676,SUGAR LAND,Texas,77487,(800) 397-9799,,,
J. H. FREED & SONS,Chris Freed,7717 OSTROW ST,SAN DIEGO,California,92111,(858) 292-6901,http://www.freedomcarpets.com,,
L A HARDWOOD FLOORING INC,Eli Shuat,345 PARKSIDE DR,SAN FERNANDO,California,91340,(818) 361-0099,,,
"L.W. MOUNTAIN HARDWOOD FLOORS, INC",Ying Wang,"1615 DUNDEE AVE, UNIT C",ELGIN,Illinois,60120,(847) 888-9966,http://www.lwmountain.com,,
"LINCO ENTERPRISES, INC",Ben Lin,12033 JACK BENNY DRIVE #104,RANCHO CUCAMONGA,California,91739,(909) 941-7900,http://www.lincoenterprises.com,,
LOTSOFCARPET.COM,Steve Garrett,825 OLD RUCKER RD,ALPHARETTA,Georgia,30004,(877) 475-2204,http://www.lotsofcarpet.com,,
"M K DIAMOND PRODUCTS, INC",Rulon Heaton,PO BOX 2803,TORRANCE,California,2803,(310) 539-5221,http://mkdiamond.com,,
"MAJESTIC STONE IMPORT, INC",Robert Arnett,129 E PIMA ST,PHOENIX,Arizona,85004,(602) 253-7800,http://www.majesticstoneimport.com,,
MARME CANADA INC,Suleyman Odemis,150 CALDARI RD,CONCORD,Ontario,L4K 4L1,(905) 660-1214,http://www.marmecanada.com,,
MC RAE SALES AND DISTRIBUTING INC,Kip McRae,2747 LEMEL CIRCLE,SALT LAKE CITY,Utah,84115,(801) 487-1021,http://www.wholesaleflooringexpo.com,,
MEDITERRANEA,Don Mariutto,3501 NW 115TH AVE,DORAL,Florida,33178,(305) 718-5091,http://www.mediterranea-usa.com,,
"MICHAELS CARPET, INC",Brent Brutledge,PO BOX 488,CALHOUN,Georgia,30703,(706) 629-1242,,,
N W BAMBOO TRIM INC,David Johns,"15300 WOODINVILLE REDMOND RD NE, STE C2",WOODINVILLE,Washington,4510,(206) 963-8911,http://www.nwbambootrim.com,,
NATURESORT INC,Jianqiu Fang,3818 FUQUA ST,HOUSTON,Texas,77047,(713) 661-6267,http://www.naturesort.com,,
NIKO'S IMPORT-EXPORT LLC,Kole Ivanaj,17411 23 MILE RD,MACOMB,Michigan,48042,(586) 781-9000,http://www.nikosimportexport.com,,
"NIKZAD IMPORT, INC",Fred Nikzad,4403 W JEFFERSON BLVD,LOS ANGELES,California,90016,(323) 733-4144,http://www.nikzad.com,,
NORTHSTAR CERAMIC TRADING LLC,Peggy Malloy,14500 E BELTWOOD PKWY,DALLAS,Texas,75244,(972) 392-3800,http://www.northstarceramics.com,,
NOVA DISTINCTIVE FLOORS,Chris Cash,1710 E SEPULVEDA BLVD,CARSON,California,90745,(310) 604-0060,http://www.novafloorings.com,,
ONYX TILE DISTRIBUTORS,Tamer Kilincoglu,"357 WILSON AVE, BLDG 8",NEWARK,New Jersey,7105,(973) 344-5545,http://www.tilebyonyx.com,,
PAN AMERICAN CERAMICS,Troy Moon,16610 E GALE AVE,CITY OF INDUSTRY,California,91745,(626) 961-0051,http://www.panamericanceramics.com,,
"PATRIOT TIMBER PRODUCTS, INC",Paul Gosnell,PO BOX 19065,GREENSBORO,North Carolina,27419,(336) 299-7755,http://www.patriottimber.com,,
PRAVADA FLOORS INC,Onkarnbir Bandesha,105-13112 84TH AVE,SURREY,British Columbia,V3W 1L2,(604) 597-6881,http://www.pravadafloors.com,,
PROVENZA FLOORS INC,Ron Sadri,3211 S HARBOR BLVD,SANTA ANA,California,92704,(949) 788-0900,http://www.provenzafloors.com,,
QFLOORS,Chad Ogden,"7050 S 400 W, STE 100",MIDVALE,Utah,84047,(801) 563-0140,http://www.qfloors.com,,
R & D COATINGS,Buster Weinzierl,1320 ISLAND AVE,KEES ROCKS,Pennsylvania,15136,(412) 771-8110,http://www.rdcoatings.com,,
"RUBIO MONOCOAT USA, LLC",Patrick Mervyn,537 CONSTITUTIONI AVE UNIT E,CAMARILLO,California,93012,(805) 384-9200,http://www.rubiomonocoatusa.com,,
RVJ INTERNATIONAL BY UNIQUE 4U,Vida Guillory,6130 W FLAMINGO RD PMB 460,LAS VEGAS,Nevada,89103,(702) 871-6377,http://www.happyfeet.net,,
"SAXONY DISTRIBUTORS, INC",Gary Chatoff,660 LINTON BLVD #211,DELRAY BEACH,Florida,33444,(561) 276-6774,http://www.saxcarpet.com,,
SCHONOX,Karen Bellinger,515 WILHITE ST,FLORENCE,Alabama,35630,(256) 245-0345,http://www.hpsubfloors.com,,
SMARTWOOD FLOORING INC,Issac La,13668 VALLEY BLVD UNIT A,CITY OF INDUSTRY,California,91746,(626) 333-6666,http://www.smartwoodflooring.net,,
SOUND SEAL / IMPACTA FLOORING DIVISION,Bill Devin,PO BOX 545,AGAWAM,Massachusetts,1001,(800) 569-1294,http://www.acousticflooring.com,,
STANTON CARPET,Jonathan Cohen,211 ROBBINS LANE,SYOSSET,New York,11791,(516) 822-5878,http://www.stantoncarpet.com,,
STARNET COMMERCIAL FLOORING INC,Jeanne Matson,20 HOMESTEAD RD,DARIEN,Connecticut,6820,(800) 787-6381,http://www.starnetflooring.com,,
STEVENS OMNI INC,Lindsay Selby,6430-A KENNEDY RD,MISSISSAUGA,Ontario,L5T 2Z5,(800) 563-4866,"http://www,stevensomni.com",,
STOVER'S LLC,Darryl Hartnagle,PO BOX 6749,KNOXVILLE,Tennessee,37914,(865) 523-4449,http://www.stoversliquidation.com,,
STRATEGIS INTERNATIONAL INC,Jeffrey Feller,420 RUE TRANS-CANADA,LONGUEUIL,Quebec,J4G 1N8,(450) 463-9663,http://www.strategisinc.biz,,
SWIFF-TRAIN CO / EARTHWERKS,L.A. Train,2500 AGNES ST,CORPUS CHRISTI,Texas,78405,(361) 883-1706,http://www.swiff-train.com,,
SYNTHETIC GRASS WAREHOUSE,Victor Lanfranco,1400 N DALY ST,ANAHEIM,California,92806,(714) 683-2050,http://www.syntheticgrasswarehouse.com,,
TRI-WEST LTD,Daniel Proctor,12005 E PIKE ST,SANTA FE SPRINGS,California,90670,(562) 692-9166,http://www.triwestltd.com,,
TROPICAL FLOORING,Bobby Lin,2400 CHICO AVE,SOUTH EL MONTE,California,91733,(626) 582-8652,,,
TROXELL USA,Ron Troxell,18392 ENTERPRISE LANE,HUNTINGTON BEACH,California,92648,(714) 847-0880,http://www.troxellusa.com,,
V S P FLOORING,David Polley,P O BOX 668,CHATSWORTH,Georgia,30705,(706) 270-1444,http://www.vspflooring.com,,
V.A.L. FLOORS,Vito Lupino,555 GOTHAM PARKWAY,CARLSTADT,New Jersey,7072,(201) 617-7900,http://www.valfloors.com,,
"VERSATRIM, INC",Thilo Hessler,860 COMMERCE DR,HENDERSON,North Carolina,27537,(866) 200-8132,http://versatrim.com,,
WELLMADE FLOOR COVERING INTERNATIONAL,Bruce Baxter,26100 SW 95TH AVE # 205,WILSONVILLE,Oregon,97070,(866) 582-0848,http://www.wellmadefloors.com,,
WESTERN PACIFIC TILE,Mark Robson,1575 S STATE COLLEGE BLVD,ANAHEIM,California,92806,(800) 646-6161,http://www.westernpacifictile.com,,
WOODCARE USA LLC,John Thafvelin,4729 B PEACHTREE INDUSTRIAL BLVD,NORCROSS,Georgia,30092,(770) 441-0021,http://www.woodcareusa.com,,
XPRESS GLOBAL SYSTEMS,David Curvin,4080 JENKINS RD,CHATTANOOGA,Tennessee,37421,(800) 367-4416,http://www.xgsi.com,,
INDEPENDENT FLOORING CONSULTANTS,Debra Pollard,1564 TRITON ST,CARLSBAD,California,92011,(623) 293-3609,,,
A F S / ADVANCED FLRG SPECIALISTS,Fred Gamble,12215 ALTA MESA,AUBURN,California,95603,(530) 888-1217,,,
AIRE PURA,Patrick Kenney,PO BOX 8,PORTSMOUTH,Iowa,51565,(505) 975-5766,,,
ALL AMERICAN INTERIORS,Richard Snow,115 BRISTOL PL SE,CALHOUN,Georgia,30701,(706) 509-9483,,,
"ANTHONY PALANDRO FLOORING, INC",Anthony Palandro,60 BARREN RD,NEWTOWN SQUARE,Pennsylvania,19073,(610) 874-3101,,,
ANZALONE FLOORING INSPECTIONS,Jim Anzalone,4275 MARSHFIELD RD,LAWTONS,New York,14091,(716) 570-1337,,,
ARIZONA FLOORING FORENSICS LLC,John Wabeke,1803 VANDERHOEF LN,COTTONWOOD,Arizona,86326,(928) 639-3817,,,
ARKON INSPECTIONS,Scott Arkon,923 E 80 S,OREM,Utah,84097,(435) 862-1042,,,
ASSURED FLOORING INSPECTION SERVICES,Richard Schumann,7048 RIDGE CREST DR,NORTH RICHLAND HILLS,Texas,76182,(817) 296-8150,,,
"ATHEY'S INSPECTION SERVICE, LLC",Paul Athey,W150 N 7317 WOOD VIEW DR,MENOMONEE FALLS,Wisconsin,53051,(262) 293-3655,,,
BAREFOOT FLOORING,James Wilson,1717 N COUNTY DR,CASTLE HAYNE,North Carolina,28429,(910) 264-1005,http://www.barefootflooring.com,,
BC FLOORING SPECIALISTS,William Coble,1014 S BELMONT AVE,INDIANAPOLIS,Indiana,1106,(317) 635-3242,,,
BENGAL INSPECTION SERVICES,Charles Brady,721 NAPOLEAN ST,BATON ROUGE,Louisiana,70802,(225) 439-9616,,,
BETTS FLOORING SERVICE,Jim Betts,110 CLOVER SPRINGS DR,CLOVERDALE,California,95425,(707) 894-4657,,,
BRENT RITCHIE,Brent Ritchie,11573 OLIVE BERRY LN,DRAPER,Utah,84020,(801) 414-9410,,,
CALI-FLOOR TECHNICAL SERVICES INC,Raymond Darrah,3053 FREEPORT BLVD #269,SACRAMENTO,California,95818,(916) 760-8030,http://www.flooringexpert.com,,
"CALIFORNIA FLOOR INSPECTION NETWORK, INC",M. Zaim Islam,PO BOX 946,PERRIS,California,92571,(951) 246-7343,http://www.cfin2000.com,,
CARL COTHRAN,Carl Cothran,PO BOX 265,ROME,Georgia,30162,(706) 844-4257,,,
CARPET ARTS INSPECTION SERVICE,Mark Brown,PO BOX 1491,ELLICOTT CITY,Maryland,21041,(410) 465-6053,,,
CARPET SERVICES PLUS,Paul Borzy,14812 LANCELOT LANE W,NORTH ROYALTON,Ohio,44133,(440) 582-5287,,,
CARPET TECHNOLOGY ASSOCIATES,"John Herwick, Inspector","4396 BOWSPRIT CT, UNIT 4E",FT MYERS,Florida,33912,(239) 489-0916,,,
CERTIFIED FLOORING INSPECTIONS INC,Rick Sierchio,20 EAGLE LANE,SEDONA,Arizona,86336,(928) 203-9727,,,
CERTIFIED INSPECTIONS,John Paro,PO BOX 1403,BURNSVILLE,Minnesota,55337,(612) 384-7215,,,
CERTIFIED INSPECTIONS,Libby Longstreth,2205 CHRISTMAS TREE LN,RIVERBANK,California,95367,(209) 869-5994,http://carpetschool.com,,
CHARLES B STEPHENS,Charles Stephens,2401 WINDY HILL RD,MARIETTA,Georgia,30067,(770) 480-7296,http://www.cbstephensllc.com,,
CHARLES PARSLEY CARPET INSPECTION,Charles Parsley,43 NORMANDY CIR,PUEBLO,Colorado,81001,(719) 545-9890,,,
CLIFF DOCTOR INSPECTION AGENCY,Cliff Doctor,50 HALS DR,LANGHORNE,Pennsylvania,19053,(215) 750-9244,,,
CPS OF OHIO,Greg Burns,1181 WALKER SPRINGS DR,BLACKLICK,Ohio,43004,(614) 406-4940,,,
CRAIG CURRY & ASSOCIATES,Craig Curry,"2314 ROUTE 59, SUITE 313",PLAINFIELD,Illinois,60586,(630) 768-5514,,,
DALE & ASSOCIATES,Mick Dale,13976 SPANISH POINT DR,JACKSONVILLE,Florida,32225,(904) 553-0375,,,
DANNY FOOTE,Danny Foote,1901 N SUMMIT DR # 68,DALTON,Georgia,30721,(706) 226-1045,,,
DON ALEXANDER,Don Alexander,1425 WESTFIELD AVE SW,NORTH CANTON,Ohio,44720,(330) 497-1619,,,
DON SGROI,Don Sgroi,126 KIPP AVE,HASBROUCK HEIGHTS,New Jersey,7604,(201) 288-4557,,,
DREW KERN,Drew Kern,"420 MAIN ST E, SUITE 494",MILTON,Ontario,L9T 5G3,(416) 399-7944,,,
"FERBER CARPET SERVICE, INC",Irfan Murtaza,PO BOX 17202,ANAHEIM,California,7202,(714) 637-9758,http://www.floorinspections.com,,
FLOOR COVERING INSPECTIONS,Vincent Ferranti,PO BOX 5635,GOODYEAR,Arizona,85338,(623) 386-1575,http://www.arizonafloorcoveringinspection-experts.com,,
FLOOR COVERING INSPECTIONS ETC,Herb Kelly,425 WRIGHT SCHOOL RD,BELTON,South Carolina,29627,(864) 296-3787,,,
FLOOR COVERING INSPECTIONS NW,Roy Leach,PO BOX 1749,PORT ANGELES,Washington,90,(360) 670-9508,,,
FLOOR SOLUTIONS,Gaylon Bailey,PO BOX 92748,SOUTHLAKE,Texas,76092,(817) 481-0248,,,
FLOOR TECH INSPECTION &,Richard Mabel,55 DONALD RD,BURLINGTON,Massachusetts,1803,(781) 270-4819,http://www.floortechinspect.com,,
FLOORING CONCEPTS,Robert Siner,5919 S UNIVERSITY DR,DAVIE,Florida,33328,(954) 605-9436,,,
FLOORING EXPERT,Terry Weinheimer,"1430 WILLAMETTE, STE 21",EUGENE,Oregon,97401,(800) 621-3427,http://www.floorcoveringcentral.com,,
FLOORING INSPECTIONS,David Dudley,2238 N CLARK ST,VISALIA,California,2147,(559) 732-6927,http://carpetinspector.com/dudley,,
FLOORING SPECIALISTS,TIMOTHY Chavey,PO BOX 7997,CITRUS HEIGHTS,California,7997,(916) 967-0207,http://www.tchavey.com,,
FLOORING WARRANTY SERVICES,Michael Currin,11555 HIGHWAY 380 W,KRUM,Texas,76249,(940) 390-0041,http://www.fws-inc.com,,
FLOORINSPEC,Robert Lucas,2020 MALTBY RD,BOTHELL,Washington,98021,(206) 793-6720,http://floorinspec.com,,
FLOORMAX FLOORING AMERICA,Emily Worlock,1999 A MALL OF GEORGIA BLVD SUITE 100,BUFORD,Georgia,30519,(770) 963-1705,http://www.floormaxatlanta.com,,
FLORIDA FLOOR INPECTOR LLC,Martin Godell,1300 SOUTHWEST NIKOMA ST,PALM CITY,Florida,34990,(772) 215-7264,http://www.precisionlaminate.com,,
FLRG CONSULTANTS & INSPEC TRAINING SVCS,Jeanne Weathers,"2515 CLEVELAND HWY, STE 5",DALTON,Georgia,30721,(800) 462-2151,http://www.fcits.org,,
FONDA TRAWICK,Fonda Trawick,6212 HICKORY LN,MOBILE,Alabama,36609,(251) 666-8899,,,
FORENSIC TILE CONSULTANTS,Gregory Mowat,9541 VERVAIN ST,SAN DIEGO,California,3523,(858) 484-8118,,,
"FREE FLOOR COVERING, INC",Mike Free,2075 NW 94 ST,CLIVE,Iowa,50325,(515) 331-8501,http://tim.mullin@nfm.com,,
FRIER FLOORING INSPECTIONS & CONSULTING,Terry Frier,2818 W SUSAN CURVE,PEORIA,Illinois,61615,(309) 339-6781,http://www.frierflooring.com,,
"G L S SERVICES, LLC",Garieth Spear,PO BOX 64524,BATON ROUGE,Louisiana,70896,(225) 935-0021,http://www.gls4floorinspections.com,,
GEORGE DONNELLY TESTING & INSPECTIONS,George Donnelly,1 CURSO LN,HOT SPRINGS VILLAGE,Arkansas,71909,(501) 915-0626,http://www.moisturetesting.com,,
GEORGE'S CARPET & TILE,Harva Joseph,216 W 2ND ST,ROSWELL,New Mexico,88201,(575) 624-0901,http://www.georgescarpetandtile.com,,
GREEN MOUNTAIN FLOORING INSPECTIONS,Richard Reed,224 MACRAE RD,COLCHESTER,Vermont,5446,(802) 862-9998,,,
GUYETTE & ASSOCIATES,Gerard Guyette,PO BOX 1404,FOND DU LAC,Wisconsin,54936,(920) 251-5465,,,
HOWARD GRUNDLAND,Howard Grundland,9601 NW 14TH ST,PLANTATION,Florida,33322,(954) 914-3960,,,
INDEPENDENT FLOORING CONSULTANTS,Allan Pollard,1564 TRITON ST,CARLSBAD,California,92011,(760) 994-8869,,,
INDIANA FLOORING CARPET ONE,Michael Jackson,PO BOX 1138,ANDERSON,Indiana,46015,(765) 643-6635,,,
INSPECT MY FLOOR LLC,Arnold Graff,841 E WALNUT ST,LONG BEACH,New York,3825,(516) 432-6487,http://www.inspectmyfloor.biz,,
"INSPECT SOLUTIONS, INC",Ronald Gould,PO BOX 210,ZION,Illinois,60099,(847) 631-7458,http://www.inspectsolutions.com,,
"INSPECTION & COMPLIANCE SERVICES, LLC",Dennis Kuryla,7855 STONEWALL PL,AMELIA COURTHOUSE,Virginia,23002,(804) 561-1386,,,
J & M INSPECTION SERVICE,Jim Morwood,1019 EDGEMOOR,STILLWATER,Oklahoma,74074,(405) 641-5749,,,
J. S. INSPECTIONS,John St. Clair,3652 MARTINELL AVE,ROANOKE,Virginia,24018,(540) 774-5436,,,
"JASON'S CUSTOM FLOORS, INC",Jason Cantin,18910 BELLFLOWER RD,TAMPA,Florida,33647,(813) 417-7188,,,
"JERRY TIMMONS, INDEPENDENT FLOORING",Jerry Timmons,22243 RIO VISTA DR,CALDWELL,Idaho,83607,(208) 989-5832,,,
JOE LAWRENCE INSPECTIONS,Joe Lawrence,3174 VALLEY FORD RD,ADGER,Alabama,35006,(205) 425-5954,,,
JOEL SNODGRASS,Joel Snodgrass,2219 SMOKE ROCK DR,SPRING,Texas,77373,(281) 288-9612,,,
JOHN HEIGL FLOORING INSPECTION SVCS,John Heigl,18441  TAMARIND ST,FOUNTAIN VALLEY,California,92708,(714) 963-6276,,,
KATE PROCK FLOORING INSPECTIONS,Kate Prock,1641 THOMAS AVE,ST PAUL,Minnesota,55109,(651) 646-7069,,,
KELLY FLOORING,Kelly Huddleston,24611 CUCHARA ST,LA JUNTA,Colorado,81050,(719) 384-4651,,,
KINGS FLOOR COVERINGS,Richard King,2055 CALIFORNIA ST,SUTTER,California,95982,(530) 844-3941,,,
"KNIGHTS SPECIALTY, INC",Bruce Plotezka,20950 OTERO AVE,HASTINGS,Minnesota,55033,(612) 919-2876,,,
LINKEN CARPET & FLOORING,Ken Cluen,360-11 KNICKERBOCKER AVE,BOHEMIA,New York,11716,(631) 563-0566,,,
MARTHA YANOVER FC INSPECTION,Martha Yanover,3001 N SHERMAN ST,YORK,Pennsylvania,17406,(717) 873-8157,,,
MASTER FLOORING INSPECTORS & CONSULTANTS,Richard Kass,483 ESCONDIDO CIR,GRAND JUNCTION,Colorado,81503,(970) 376-2740,http://www.masterflooringinspectors.com,,
"MBD FLOOR COVERING INSPECTION SERVICE, LLC",Karen Gross,PO BOX 41005,PHOENIX,Arizona,85080,(973) 334-9747,,,
MICHAEL COHN,Michael Cohn,1070 WINDSOR ST,SALT LAKE CITY,Utah,84105,(801) 521-9450,,,
MICHAEL NURSE,Michael Nurse,#109 52450 RANGE ROAD  222,ARDROSSAN,Alberta,T8E Z6S,(780) 271-1821,,,
MIDWEST CARPET SERVICE,Sue Krisha,150 WEDGEWOOD WAY,BOLINGBROOK,Illinois,60440,(630) 606-9827,,,
MIKE URBAN FLOOR COVERING INSPECTIONS INC,Mike Urban,1404 THORTON WAY,MUNDELEIN,Illinois,60060,(847) 885-0120,http://www.woodfloorinspection.com,,
MJ QUINLAN INSPECTION SVC,Mike Quinlan,47 LENAPE WAY,HONEY BROOK,Pennsylvania,19344,(610) 942-0267,,,
MR ED'S CARPET SERVICE,Ed Vincent,1064 E CORTEZ DR,SANTA MARIA,California,93454,(805) 925-7845,,,
NEWMAN'S FLOORING SERVICES,David Newman,3529 CANNON RD #2B-623,OCEANSIDE,California,92056,(760) 732-5810,http://flooringdoctor.com,,
NORTHWEST CARPET SERVICE,Sam Loiacono,28 W 080 COMMERCIAL AVE,LAKE BARRINGTON,Illinois,60010,(847) 381-1064,,,
OLESEN'S FLOOR INSPECTIONS,Richard Olesen,1611 WOODMOOR CT,COLUMBIA,Missouri,65202,(573) 289-4181,,,
PHILIP A. FALLEK CO,Philip Fallek,7944 HASKINS DR,LENEXA,Kansas,66215,(913) 888-0196,,,
PHOENIX FLOORING CONSULTANTS,Chris Gorman,PO BOX 54406,CINCINNATI,Ohio,45245,(513) 752-8210,,,
PHOENIX FLOORING CONSULTANTS,Robert Kardasz,1028A CLOUGH PIKE,CINCINNATI,Ohio,45245,(513) 769-5898,,,
PIONEER INSPECTION SERVICE,Bruce Bennett,PO BOX 3012,LIMA,Ohio,12,(419) 999-4441,,,
PRECISION FLOORING ESTIMATING & INSPECTION,Terry Peters,6611 PICKETT AVE,GARDEN GROVE,California,92845,(714) 379-2433,,,
"PRIORITY ONE INSPECTIONS, INC",Leo Jacobs,6663 SW BEAVERTON HILLSDALE HWY #30,PORTLAND,Oregon,97225,(503) 626-6608,,,
"PRO FLOOR SERVICES, INC",David Horan,946 N FAIRVILLE AVE,HARRISBURG,Pennsylvania,17112,(717) 469-7152,,,
PROFESSIONAL FLOORCOVERING INSPECTIONS,Mike Martin,1246 W DAVIES ST,ELDRIDGE,Iowa,52748,(563) 285-5300,,,
PROFESSIONAL FLOORING INSPECTIONS,Glenn Revere,"6977 NAVAHO RD, #171",SAN DIEGO,California,92119,(619) 698-5458,,,
PROGRESSIVE FLOORING SOLUTIONS INC,Kevin Broadhead,PO BOX 47022,CALGARY,Alberta,T3P 0A3,(403) 560-4740,http://www.proflooringsolutions.ca,,
R. GODFREY CONSULTING,Ralph Godfrey,35691 BOVARD ST,WILDOMAR,California,7110,(062) 609-3900,http://www.floorspy.com,,
RAMEY CLEANING INC,Lee Ramey,716 9TH ST N,BIRMINGHAM,Alabama,35203,(205) 252-5326,http://www.totherescuebirmingham.com,,
"RANDALL MONTGOMERY, INC",Randall Montgomery,2464 AMARYLLIS AVE,MEDFORD,Oregon,97504,(541) 858-0301,,,
S / L INSPECTION SERVICE,Steven Tolli,123 LEWIS CT,WASHINGTONVILLE,New York,10992,(845) 497-8305,,,
SANDRA STEPHENS INSPECTIONS,Sandra Stephens,2401 WINDY HILL RD,MARIETTA,Georgia,30067,(770) 231-4367,,,
SIMMONS FLOORING,Billy Simmons,PO BOX 738,ORANGE BEACH,Alabama,36561,(251) 609-7906,,,
STANZA,Norred Poindexter,PO BOX 64281,VIRGINIA BEACH,Virginia,23467,(757) 287-4827,http://www.stanzacorp.net,,
STATEWIDE INSPECTION SERVICE,Linda Lockwood,PO BOX 598,BARNEGAT,New Jersey,8005,(609) 660-1717,http://www.statewideinspection.com,,
STEELE INSPECTIONS,Mike Steele,5219 HWY 431,WAVERLY,Alabama,36879,(256) 797-1682,,,
STEVEN ROCKFELD INC,Steve Rockfeld,10 MIRROR LANE #4,MORICHES,New York,11955,(516) 807-1876,,,
"SUB-FLOOR SCIENCE, LLC",Bill Allen,"11720 97TH LN NE, A108",KIRKLAND,Washington,98034,(425) 242-1217,http://www.subfloorscience.com,,
SUPERIOR COVERINGS INC,Tom Owen,7276 WAITE DR,LA MESA,California,91941,(619) 463-5043,,,
SURFACE OBSERVATIONS,Ray Servaes,129 DATAW DR,ST HELENA IS,South Carolina,29920,(843) 838-7167,,,
TECH FLOORING SERVICES,Ricky Bunker,3738 WILLOW SPRINGS RD,CONWAY,South Carolina,29527,(843) 397-5505,http://www.techflooringservices.com,,
THE CARPET MAGICIAN,Paul Bruesehoff,2957 KALAKAUA AVE # 316,HONOLULU,Hawaii,96815,(808) 237-0688,,,
TOM HAMMOND,Tom Hammond,1513 LAUREL LANE,GASTONIA,North Carolina,28054,(704) 864-4609,,,
TOM SMITH CONSULTING,Thomas Smith,4133 W WILSON ST #89,BANNING,California,92220,(951) 797-0219,http://www.flooringinspector.org,,
TOMKAT ENTERPRISE LLC,Kathleen Maiden,8771 OAKWOOD ST,WESTMINSTER,Colorado,3623,(303) 412-7632,,,
TOTAL FLOORING SYSTEMS INC,Stephen Rubesch,2451 WEDGEWOOD WAY,YORK,Pennsylvania,17408,(717) 792-4519,,,
UNITED FLOOR COVERING,John Spring,1329 N ASH ST,SPOKANE,Washington,99201,(509) 328-6736,,,
"VILLA CARPET ASSOCIATES, INC",Joseph Villa,PO BOX 737,NEWTONVILLE,New York,12128,(518) 783-6489,,,
WAYNE COOPER FLOOR INSPECTIONS,Wayne Cooper,"7250 N MESA ST, SUITE D",EL PASO,Texas,79912,(915) 630-3356,,,
WEBB SERVICES,Charles Webb,1515 MALLARD LANDING BLVD,SAINT JOHNS,Florida,5256,(904) 545-7700,,,
"WHITTCO & MEISO, INC",Jeff Whittington,99-1086 IWAENA ST,AIEA,Hawaii,96701,(808) 488-9949,http://www.whittcohawaii.com,,
BEAR CARPET ONE,Wayne Wengerd,PO BOX 736,SUGARCREEK,Ohio,44681,(330) 852-3890,http://www.bearfloorcovering.com,,
"BUFFALOE FLOOR COVERING, INC",Denie Lunsmann,3831 PINEMONT DR,HOUSTON,Texas,77018,(713) 686-3589,http://www.buffaloefloorcovering.com,,
CALLAHAN'S CARPET ONE,Larry Callahan,5847 DARROW ROAD,HUDSON,Ohio,44236,(330) 342-0101,http://www.callahans-flooring.com,,
CARPET ONE FLOOR & HOME,Gary Gilbert,2615 SE 58th AVE,OCALA,Florida,34480,(352) 624-2010,http://www.carpetoneocala.com,,
JMR FLOORING INSTALLATIONS,Mary Ruggirello,12 BRIARWOOD LN,WALDEN,New York,12586,(845) 542-8883,,,
OMEGA FLOORING,Frank Klassen,1272 3 AVE S,LETHBRIDGE,Alberta,T1J 0J9,(403) 327-8440,http://www.omegaflooring.ca,,
TEMECULA CARPETS,Russell Brill,41785 ENTERPRISE CIR,TEMECULA,California,92590,(951) 676-2226,http://www.temeculacarpetsinc.com,,
"COMMERCIAL FLOOR TECH, INC",Victor Emerson,3909 OAKLAWN DR,LOUISVILLE,Kentucky,40219,(502) 966-3004,http://www.commercialfloortech.com,,
1ST CHOICE FLOORING,Erineo Alcala,1400 CALLAGHAN RD,SAN ANTONIO,Texas,78228,(210) 680-5541,,,
A & M HOME IMPROVEMENT,Albert Melendez,24 HOWARD ST,NORTH PLANFIELD,New Jersey,7060,(908) 821-7282,,,
A B C HOME FURNISHINGS CARPET ONE,John Cobb,708 PORTER WAGONER BLVD,WEST PLAINS,Missouri,65775,(417) 256-3945,http://www.carpetone.com,,
ABBEY FLOORING & DESIGN,Deborah Exe,17200 FARMINGTON RD,LIVONIA,Michigan,48152,(734) 427-7120,http://www.livonia.buyabbey.com,,
ACOUSTI ENGINEERING,Barry Dunkley,6959 STUART AVE,JACKSONVILLE,Florida,32254,(904) 781-9355,,,
ALEXANDER'S FLOORS & INTERIORS,Doris Garza,5510 WILLIAMS DR,CORPUS CHRISTI,Texas,78411,(361) 991-8383,http://www.alexandersfloors.com,,
ALL FLOORING INSTALL LLC,Osiel Betancourt,8341 CLUB MEADOWS DR,DALLAS,Texas,75243,(972) 679-3172,,,
ANDRE'S INSTALLATION COMPANY,Earle Jenkinson,9523 BURNING BRANCH RD,BURKE,Virginia,3211,(703) 431-6504,,,
ARTIOLI FLOOR COVERING,Gary Artioli,5023 OLIVIA DR,ANTIOCH,Tennessee,37013,(615) 618-0625,,,
AUBURN CARPET ONE FLOOR & HOME,Jim Holbrook,"10068 STREET RD, UNIT 15",AUBURN,California,95602,(530) 268-0502,http://www.carpetone.com,,
AUDI PEDRAZA INSTALLATION SERVICES,Audi Pedraza,5310 N ROSSER ST #T2,ALEXANDRIA,Virginia,22311,(571) 221-4186,,,
B-K FLOORING AMERICA,Ken Schaefer,3021 23RD ST,COLUMBUS,Nebraska,68601,(402) 564-8723,http://www.flooringamerica.com,,
BALLARD INSTALLATION,Scott Ballard,12711 SPICKLER RD,CLEARSPRING,Maryland,21722,(301) 842-2399,,,
BARRON'S ABBEY FLOORING & DESIGN,Taylor Ristrom,"100 W RIDGE RD, STE A",SUTTER CREEK,California,95685,(209) 267-0200,http://www.barronsflooring.com,,
BAYSTATE RUG DISTRIBUTORS INC,Joseph Montemagni,671 GRATTAN ST,CHICOPEE,Massachusetts,1020,(413) 533-3806,http://www.baystaterug.com,,
"BLAKELY & HOUT, INC",Dick Beckman,1685 N NATIONAL AVE,CHEHALIS,Washington,98532,(360) 748-3377,,,
BLUE HILL FURNITURE,John Weddingfeld,501 W GAGE,BLUE HILL,Nebraska,68930,(402) 756-3030,,,
BOB'S CARPET & VINYL INSTALLATION,Bob Gillespie,3405 S SLAUGHTER RD,GRAIN VALLEY,Missouri,64029,(816) 847-7223,,,
BOWCUTT'S FLOORING AMERICA,Jay Bowcutt,"1227 W 9000 S, STE B",W JORDAN,Utah,84088,(801) 256-9200,http://www.flooringamerica.com,,
BRETT CHALTRY,Brett Chaltry,N3039 STATE RD 67,CAMPBELLSPORT,Wisconsin,53010,(262) 483-0576,,,
BRIAN HOLLOWAY CARPET ONE,Morris Holloway,3955 REEVES ST,DOTHAN,Alabama,36303,(334) 793-9232,http://www.carpetone.com,,
BRUMFIELD INTERIORS,Sheila Brumfield,724 NORTHGATE PL,WALNUT CREEK,California,94598,(925) 934-0362,,,
"C CARDONA, LLC",Cesar Cardona,"501 W MAIN ST, APT 1F",STAMFORD,Connecticut,6902,(203) 667-3294,,,
C F I / CERTIFIED FL/COV INSTALLERS,Jane Walker,2400 E TRUMAN RD,KANSAS CITY,Missouri,2038,(816) 231-4646,http://www.cfiinstallers.com,,
CAPELL FLOORING AND INTERIORS,Matt Capell,"1763 W MARCON LANE, SUITE 100",MERIDIAN,Idaho,83642,(208) 288-0151,http://www.capellinteriors.com,,
CAPUTO FLOOR COVERING,Paul Caputo,160 CESSNA LN,SHELBYVILLE,Tennessee,37160,(931) 307-8216,,,
CARLOS PEDRAZA INSTALLER SERVICES,Carlos Pedraza,5310 N ROSSER ST #T2,ALEXANDRIA,Virginia,22311,(703) 498-8649,,,
CARPET ONE UKIAH,Terry Blair,300 HASTINGS AVE,UKIAH,California,95482,(707) 462-1554,http://www.carpetone.com,,
CARPET PRO,Cheri Black,1604 15TH ST SW #111,AUBURN,Washington,98001,(800) 217-3517,,,
"CARPET, LINOLEUM & SOFT TILE LAYERS LOCAL 1238",Todd Pierce,6770 E MARGINAL WAY S,SEATTLE,Washington,98108,(206) 957-1892,http://www.ibpatdc5.org,,
"CARPETLAND USA OF DOTHAN, INC",Bob Caputo,2710 ROSS CLARK CIRCLE SW,DOTHAN,Alabama,36301,(334) 793-1004,http://www.carpetlandusaal.com,,
CARPETLAND USA OF LAFAYETTE INC,Duke Karns,3437 STATE ROAD 26 E,LAFAYETTE,Indiana,47905,(765) 447-9393,http://www.carpetlandusalaf.com,,
"CASCADE FLOORING AMERICA, LLC",Sunny Parsons,11915 NE HWY 99,VANCOUVER,Washington,98686,(360) 693-2113,http://www.cascadefa.com,,
CELINE WILSON,Celine Wilson,9005 FALLSWOOD LN,NASHVILLE,Tennessee,37027,(562) 290-2021,,,
CHAD WEST,Chad West,2639 N 103RD CT,OMAHA,Nebraska,68134,(402) 709-1035,,,
CHARNOCK FLOORING,Roxanne Charnock,314 N 6TH STREET,ROCHELLE,Illinois,61068,(815) 562-6667,http://www.flooringmarket.com,,
CHOICE FLOOR SPECIALIST,Terri Heffelfinger,2822 N NEBRASKA AVE,YORK,Nebraska,68467,(402) 362-7778,http://www.choicefloorsinc.com,,
CHRIS'S FLOORING,Chris Lazarevski,61 W SPRUCE ST,STURGEON BAY,Wisconsin,54235,(920) 743-2402,,,
CHRYSALIS UNBOUND,Roman Marak,1306 FALL CT,WHEELING,Illinois,60090,(847) 970-8237,,,
CONCEPT FLOORING WORKROOM CORP.,Joy Vastola,50 NASSAU TERMINAL ROAD,NEW HYDE PARK,New York,11040,(516) 352-8701,http://www.conceptflooringworkroom.com,,
COSTA GROUP EDUCATION,Barry Costa,PO BOX 86402,KINGMAN,Arizona,84602,(928) 377-3977,,,
CRAIG THOMPSON INSTALLER SERVICES,Craig Thompson,212 KIRBY ST,MANASSAS PARK,Virginia,20111,(571) 220-8923,,,
CREATIVE CARPET DESIGNS INC,Kevin Johnson,8828 WASHINGTON CIR,OMAHA,Nebraska,68127,(402) 597-1832,,,
CREW2 INC,Doug Firkus,2650 MINNEHAHA AVE,MINNEAPOLIS,Minnesota,1500,(612) 276-1600,http://www.thecrew2.com,,
CUSTOM FLOORS,Leslie Boyko,64 HICKORY HILL LN,NEWINGTON,Connecticut,6111,(860) 257-0581,http://www.floorsct.com,,
DAVID MENDOZA,David Mendoza,3824 LEAVENWORTH ST,OMAHA,Nebraska,68105,(402) 315-1542,,,
DE CUSTOM FLOORS,David Engelbrecht,9100 N WHITE OAKS LN #210,BAYSIDE,Wisconsin,53217,(414) 587-0363,,,
DECKER FLOORS,Steve Decker,209 N 8TH ST,DELVAN,Wisconsin,53115,(262) 728-6848,,,
"DEMOTTE CARPET, INC",Jay Stowers,12160 INDUSTRY DR,DEMOTTE,Indiana,46310,(219) 987-4941,,,
DEREK MING CARPET INSTALLERS,Derek Ming,8 SCENIC HEIGHTS DR,SOUTHAMPTON,BERMUDA,N03,(441) 337-4115,,,
DESIGN ONE CARPET ONE,Richard Akel,5500 LANDERS RD,SHERWOOD,Arkansas,72117,(501) 955-1000,http://www.carpetone.com,,
DICK'S CARPET ONE,Tim Botting,6516 COMMERCE WAY,DIAMOND SPRINGS,California,95619,(530) 642-4200,http://www.dickscarpetone.com,,
DICK'S CARPET ONE FLOOR & HOME,Dick Grover,36 HEGENBERGER CT,OAKLAND,California,1322,(510) 633-9533,http://www.dickscarpet.com,,
DIVERSIFIED FLOORING INC,Stan Gunter,3625 US 1,EDGEWATER,Florida,32141,(386) 428-3343,http://www.diversifiedflooring.com,,
DON BALDWIN,Don Baldwin,8408 RAVEN OAKS DR,OMAHA,Nebraska,68152,(402) 571-3777,,,
DOUGLAS BERRY,Douglas Berry,5515 S 79TH ST,RALSTON,Nebraska,68127,(402) 598-7545,,,
DRAKE'S FLOORING,Hugo Castro,16541 MC COURTNEY RD,GRASS VALLEY,California,95949,(925) 727-8881,,,
ED BRAILE,Ed Braile,2400 E TRUMAN RD,KANSAS CITY,Missouri,64127,(816) 231-4646,,,
"ENCHANTED FLOORIST, THE",Nate Hall,1422 WISCONSIN AVE,GRAFTON,Wisconsin,53024,(414) 403-3220,http://www.enchantedfloorist.com,,
ENYART FLOORING AND HOME DECORATIING,Mark Enyart,577 S SECOND ST,COLDWATER,Ohio,45828,(419) 678-8777,http://www.enyartflooring.com,,
ERIC W. BURNETTE FLOOR COVERING,Eric Burnette,20418 JEFFERSON BLVD,HAGERSTOWN,Maryland,21742,(301) 797-5158,,,
EUGENIO ISLAS,Eugenio Islas,418 GOLF CIR E,MANTECA,California,95337,(925) 726-9547,,,
FIKE BROS CARPET ONE FLOOR & HOME,Denise Fike,338 S MAIN ST,YEAGERTOWN,Pennsylvania,17099,(717) 242-0848,http://www.fikebroscarpetone.com,,
"FIRST-RATE FLOORS, INC",Bill Cavey,3638 BAILEY ST,PLANO,Illinois,60545,(773) 858-4738,,,
FITZGERALD INSTALLATIONS,Jared Fitzgerald,908 NORTHBROOK DR,NASHVILLE,Tennessee,37211,(615) 416-9039,,,
FLOOR COVERING INSTALLATION CONTRACTORS ASSN,Kimberly Oderkirk,7439 MILLWOOD DR,WEST BLOOMFIELD,Michigan,48322,(248) 661-5015,http://www.fcica.com,,
"FLOOR WORKS, INC",Mark Mackie,1134 N DELPHIA AVE,PARK RIDGE,Illinois,60068,(847) 366-2173,,,
FLOORCRAFTERS,Bruce Griffin,1305 5TH AVE,MOLINE,Illinois,61265,(309) 762-9423,http://www.griffinsfloorcrafters.com,,
FLOORING CONCEPTS LLC,Anthony Kavanagh,1140 COOPER HAWK DR,BURLINGTON,Wisconsin,53105,(414) 202-0035,,,
FLOORS BY THE LAKE,Duane Babcock,317 HIDDEN VALLEY LANE,SWANTON,Maryland,21561,(301) 387-4407,,,
FLORES FLOORS,Emillano Flores,2287 BANNISTER LN,AURORA,Illinois,60504,(630) 768-3107,,,
FLYNN'S CARPET CENTS,Flynn Hall,PO BOX 3427,LYNNWOOD,Washington,98046,(425) 673-2663,http://www.carpetcents.com,,
FOULK'S FLOORING AMERICA,Michael Foulk,15627 CONNEAUT LAKE RD,MEADVILLE,Pennsylvania,16335,(814) 337-2230,http://www.foulksflooring-america.com,,
FOUR SEASONS FLOORS,Sam Jung,5463 SERVICEBERRY ST,CENTREVILLE,Virginia,20120,(703) 930-2724,,,
FRANCISCO SUAREZ,Francisco Suarez,414 S LINCOLN ST,SANTA MARIA,California,93454,(805) 462-7299,,,
FREEDOM FLOORING,Steven Lowe,21914 E CRESTLINE LN,AURORA,Colorado,80015,(303) 507-8090,,,
FRIENDS AND FAMILY FLOORING LLC,Steve Rados,10629 PERSIMMON COURT,LAUREL,Maryland,20723,(301) 758-8675,http://www.friendsandfamilyflooring.com,,
G3 CARPET SERVICE,George Johnson,7494 PRINCE CHARLES CT #2,MANASSAS,Virginia,20111,(703) 499-0444,,,
GABRIEL ROMERO AGUILAR,Gabriel Romero Aguilar,729 DANIELLE ST,ESCALON,California,95320,(209) 740-9634,,,
GARVEY'S CARPET,Thomas Garvey,1021 POINT TOWNSHIP DRIVE,NORTHUMBERLAND,Pennsylvania,17857,(570) 473-3699,http://www.garveyscarpet.com,,
GOLDEN STATE CARPET SERVICE,Mike Hansen,1930 OLIVERA RD,CONCORD,California,94520,(925) 687-4510,,,
GOLIA FLOORING,Teresa Slovak,6710 DRUMMOND RD,NIAGARA FALLS,Ontario,L2G 4P1,(905) 354-7447,,,
GOOD BROTHERS FLOORING PLUS,Marie Working,2217 SUNSET BLVD #705,ROCKLIN,California,95765,(916) 435-1920,http://www.goodbrothersflooringplus.com,,
H AND R COMMERCIAL FLOORING,Holly Gay-Bastidas,"1740 CUMBERLAND POINT DR, STE 1",MARIETTA,Georgia,30067,(770) 937-9666,http://www.hrfloor.com,,
HAMSTRA CARPET ONE,Richard Hamstra,325 CARADOC ST S,STRATHROY,Ontario,N7G 2P3,(519) 245-1752,,,
"HOMESITE SERVICES, INC",Nate Walden,101 PULLMAN ST,LIVERMORE,California,94551,(209) 992-6077,,,
HOMESTEAD,Kent Meier,712 N 16TH ST,BISMARCK,North Dakota,58501,(303) 898-6330,,,
HOUSE OF FLOORS,Ryan Rogers,3301 E STAN SCHLUETER LOOP,KILLEEN,Texas,76542,(254) 554-3430,http://www.house-of-floors.com,,
HUFF CARPET SERVICE,Roger Huff,12852 SLU,HAMMOND,Louisiana,70402,(985) 687-8900,,,
IMES FLOORING,John Imes,13901 PONTIUS LANE,HAGERSTOWN,Maryland,21740,(301) 988-5856,,,
"IMPERIAL TILE COMPANY, INC",Larry Mckee,14723 INDUSTRIAL RD,OMAHA,Nebraska,68144,(402) 333-0808,,,
INTERIORS BY JAYME,Brian Trautmann,633 SW 153RD,SEATTLE,Washington,98166,(206) 246-1122,,,
J & A FLOORING,Joe Putz,804 S MULBERRY,CRESTON,Iowa,50801,(641) 278-1044,,,
J C FLOORING,Jeff Ciero,362 ELMHURST ST,WOOD DALE,Illinois,60191,(630) 595-3308,,,
JARONDSON FLOORCOVERING,Kevin Jarondson,22027 245TH ST,FERGUS FALLS,Minnesota,56537,(218) 205-7186,,,
JDE FLOORS,James Eckelt,34 BEYDA CT,NOTTINGHAM,Maryland,21236,(443) 418-0308,,,
JM FLOORING INSTALLATIONS LLC,Jesus Meraz,31317 SE EAGLE CLIFF LANE,EAGLE CREEK,Oregon,97022,(503) 720-9864,,,
JOSE ROMERO AGUILAR,Jose Romero Aguilar,1823 ROCHESTER ST,TRACY,California,95377,(626) 252-6162,,,
JUAREZ HARDWOOD FLOORING,Jerod Juarez,1010 S 9TH ST,LARAMIE,Wyoming,82070,(307) 399-5791,,,
KEITH'S FLOOR COVERINGS,Keith Hill,1514 S 122ND ST,OMAHA,Nebraska,68144,(402) 690-3211,,,
KEN DICKMAN,Ken Dickman,750 GREEN TREE RD,WEST BEND,Wisconsin,63070,(262) 247-6365,,,
KING STREET CARPET OUTLET,Kevin McNew,43 W KING ST,SHIPPENSBURG,Pennsylvania,17257,(717) 530-7708,,,
KLEIN HORSMAN CARPET ONE FLOOR & HOME,Albert Klein Horsman,435 DAVIS DR,NEWMARKET,Ontario,L3Y 2P1,(905) 895-8822,http://www.kleinhorsmancarpetonenewmarket.com,,
LAGATORE'S CARPET INC,Alan Lagatore,1137 BOOKMAN RD,ELGIN,South Carolina,29045,(803) 736-6581,,,
LLOYD'S CARPET,Lloyd Englebrecht,122 E MAIN ST,FARMINGTON,New Mexico,87401,(505) 325-7774,,,
LOTHAR FLOORING,Lothar Damaschun,7221 KERRY COURT,FAIRVIEW,Tennessee,37062,(615) 418-4416,,,
M & M FLOORING,Mel Islas,1610 SANTIAGO CT,ANTIOCH,California,94509,(925) 584-0030,,,
MACLEOD'S FLOOR COVERING,David Baily,6125 202ND ST SW,LYNNWOOD,Washington,98036,(425) 670-8650,,,
MASON CONTRACTING INC,Karen Mason,532 132ND ST SW,EVERETT,Washington,98204,(425) 742-4144,,,
MASTERCRAFT FLOORING LTD,C. Kulhawy,2727 JAMES ST,DUNCAN,British Columbia,V9L 2Y1,(250) 748-9977,http://www.mastercraftflooring.ca,,
MATHEWS FLOOR FASHIONS,Joe Burdick,1025 W WASHINGTON ST,MARQUETTE,Michigan,49855,(906) 228-9311,http://www.mathewsfloorfashions.com,,
"MEGS INSTALLATIONS, INC",Danny Sherman,2395 PLEASANTDALE RD #1,DORAVILLE,Georgia,30340,(770) 986-7847,http://www.megsinstallations.com,,
MEHDI EMAMI SHAHRI,Mehdi Shahri,307 YOAKAM PKWY #1103,ALEXANDRIA,Virginia,22304,(301) 526-0209,,,
MELROSE DISCOUNT CARPET,Isac Novian,7951 MELROSE AVE,LOS ANGELES,California,90046,(323) 651-3553,http://www.melrosecarpet.com,,
MG REMODELING LLC,Mark Graham,W183 S6312 SHAGBARK LANE,MUSKEGO,Wisconsin,53150,(262) 679-2475,,,
MIKE OLEKSIAK FLOOR COVERING,Mike Oleksiak,12536 W VIRGINIA AVE,LAKEWOOD,Colorado,80228,(303) 986-2676,,,
MODA FLOORS AND INTERIORS,Janice Howell,1417 CHATTAHOOCHEE AVE,ATLANTA,Georgia,30318,(404) 477-3744,http://www.modafloorsandinteriors.com,,
MOVING FORWARD FLOOR,Earl Turner,"201 ST CHARLES AVE, STE 2500",NEW ORLEANS,Louisiana,70170,(504) 298-6683,,,
MR FLOORING,M Rutherford,"5092 HWY 35N, RR# 1",FENELON FALLS,Ontario,K0M 1N0,(705) 887-6111,,,
"MS CARPET, INC",Mahyar Shadman,8360 GREENSBORO DR #1007,MCLEAN,Virginia,22102,(202) 445-6449,,,
NATIONAL RESTORATION,Aaron Christiansen,W 181 S 7780 VALLEY DR,MUSKEGO,Wisconsin,53150,(262) 679-0628,,,
OPTIONS FLOOR COVERINGS,Nathan Ferrell,3007 COOLEY RD,BESSEMER,Alabama,35023,(205) 218-6971,,,
"PALERMO FLOORING, INC",Matthew Bruno,"60 CORBIN AVE, UNIT R",BAY SHORE,New York,11706,(631) 243-7817,http://www.palermoflooringinc.com,,
"PATERSON FLOOR COVERINGS, INC",Steven Paterson,741 BARRON AVE,REDWOOD CITY,California,94063,(650) 364-4141,,,
PAVILION FLOORS INC,Jamie Gilmore,90 COMMERCE WAY,WOBURN,Massachusetts,1801,(781) 933-8500,,,
PRECISION FLOORING INSTALLATION & INSPECTIONS,Shawn Sugden,258 S 19TH ST,HARRISBURG,Pennsylvania,17104,(717) 608-0960,,,
PRO CARPET WORKSHOP,Bill Henry,161 NASHUA RD,NORTH BILLERICA,Massachusetts,1862,(978) 375-4916,http://www.procarpetworkshop.com,,
QUALITY FLOORS INC,Paul Martens,10 WILDWOOD RD,JEFFERSONVILLE,Indiana,47130,(502) 230-1007,,,
R. & T. R.,Todd Randall,PO BOX 2618,WALLA WALLA,Washington,99362,(609) 520-5246,,,
RAY KNAPP & ASSOCIATES LLC,Ray Knapp,1636 38TH ST,RAPID CITY,South Dakota,57702,(605) 348-2857,,,
"RELIABLE FLOOR COVERING, INC",Kevin Columbro,542 MAIN ST,EDMONDS,Washington,98020,(425) 778-1121,http://www.reliablefloorcoverings.com,,
RITE SIDE UP,John Britcliffe,15360 S TIOGA RD,OREGON CITY,Oregon,97045,(503) 358-6918,,,
RIVERSIDE SHADE & LINOLEUM,Douglas Wygant,3987 MERRILL AVE,RIVERSIDE,California,92506,(951) 683-2835,,,
ROCKY MOUNTAIN FLOOR DESIGN,Scott Terryberry,PO BOX 1464,KREMMLING,Colorado,80459,(970) 531-2693,http://www.rockymountainfloordesign.com,,
ROGER'S CARPET SERVICE,Roger Richardson,133 PARKDALE RD,STEUBENVILLE,Ohio,43952,(412) 999-7477,http://www.rogerscarpetservice.com,,
ROSALIO HERNANDEZ,Rosalio Hernandez,1129 W WILLIAMS ST,SANTA MARIA,California,93458,(805) 478-6180,,,
ROY'S FLOORCOVERING SERVICE,Roy Davison,PO BOX 525,CHILLICOTHE,Missouri,64601,(660) 646-6954,,,
"RUG RAT, THE",Duey Johnson,12450 80TH ST NE,BISMARCK,North Dakota,58503,(701) 223-7877,http://www.rugrat-cfi.com,,
RUGS BY DESIGN,Daris Mulkin,809 TAMARAC DR,DAVISON,Michigan,48423,(810) 653-9053,,,
RUKEL FAULCON,Rukel Faulcon,2917 B LAKE PARK DR,SMYRNA,Georgia,30080,(678) 549-6630,,,
RUSSELL MARTIN CARPET,Dale Grandys,633 N WASHINGTON ST,NAPERVILLE,Illinois,60563,(630) 701-8158,,,
S & K CONSOLIDATED INC,Scott Staples,10106 MASON DIXON CIR,ORLANDO,Florida,32821,(407) 352-5552,,,
SCHIPPERS INDEPENDENT MEASURING SERVICE,Tina Schippers,5428 SE 87TH AVE #8,PORTLAND,Oregon,97266,(503) 535-9181,,,
SERVIO PRO,Max Vasilenco,864 MARSHALL CT,PALATINE,Illinois,60074,(847) 202-3717,,,
SHEPHERD'S CARPET & FURNITURE,Kent Shepherd,77 E INDUSTRIAL PARK DR,SPANISH FORK,Utah,84660,(801) 798-8777,http://www.shepherdscarpets.com,,
SMART SOLUTION FLOORING,Servet Dag,7852 PARTHIAN CT,SPRINGFIELD,Virginia,22153,(571) 220-5448,,,
"SOUTHSIDE FLOORING, INC",Steve Sullivan,16170 JACQUELINE CT #D,MORGAN HILL,California,95037,(408) 778-8303,http://www.southsideflooring.com,,
STRICTLY CARPET,Joe Flores,106 ALLINGTON CT,OSWEGO,Illinois,60543,(630) 816-4643,,,
TERRY LIGHT CARPET SERVICE,Terry Light,11953 S SPAULDING SCHOOL DR,PLAINFIELD,Illinois,60585,(630) 234-6162,,,
THOMPSON INSTALLATION & CONSULTANT SERVICES,Roland Thompson,10114 MILDRED DR,HAGERSTOWN,Maryland,21740,(301) 302-7626,,,
"TOWNE PRIDE INTERIORS, INC",Kenneth Wright,PO BOX 232,HAMPSTEAD,Maryland,21074,(410) 239-7500,http://www.townepride.com,,
TURNQUIST FLOORCOVERING,Kevin Turnquist,PO BOX 31,MENOMONEE FALLS,Wisconsin,53052,(414) 640-5650,,,
UNDERFOOT FLOORS,Eric Cole,1900 S 300 W,SALT LAKE CITY,Utah,84115,(801) 467-6636,http://www.underfootfloors.net,,
UNITED FLOOR COMPANY,Sarah Keeker,4110 HIGH COUNTRY RD,COLORADO SPRINGS,Colorado,80907,(719) 597-0200,http://www.unitedfloorco.com,,
VENCE'S CARPET SERVICES INC,Julian Vence,3834 W ROSCOE ST,CHICAGO,Illinois,60641,(773) 419-0850,,,
VICTORIAN CUSTOM REMODELING INC,Paul Corrado,95220 W FRONTAGE RD,WILLOWBROOK,Illinois,60527,(630) 918-2060,,,
VILLAGE CARPETS' FLOORING AMERICA,Kim Julian,1309 N MAGNOLIA AVE,EL CAJON,California,92020,(619) 401-6472,http://www.villagecarpetsinc.com,,
WALDO BOWERS FLOOR COVERING,Gary Pritchard,2300 BROADWAY,SACRAMENTO,California,95818,(916) 451-0114,http://www.waldobowersfloorcovering.com,,
WALLETT'S FLOORING,David Wallett,403 E MAIN ST,HUMMELSTOWN,Pennsylvania,17036,(717) 566-1030,http://www.wallettsflooring.com,,
WEBER'S FLOORING,Chad Scheuerell,105 RIVERSIDE DR,PEWAUKEE,Wisconsin,53072,(262) 370-6220,,,
WHITT CARPET ONE,Charles Whitt,3170 W MAIN ST,SALEM,Virginia,24153,(540) 380-4697,http://www.whittcarpetonesalem.com,,
WILLIAM WIESE,William Wiese,E 12168 STEINKE RD,BARABOO,Wisconsin,53913,(608) 434-1104,,,
WILLIE MORALES,Willie Morales,100 AMBLESIDE RD,DES PLAINES,Illinois,60016,(630) 709-1449,,,
WILLOW CARPET,German Aguilar,112 E HERITAGE DR,MOUNTAIN HOUSE,California,95391,(626) 252-5143,,,
"WOOD FLOOR STORE, THE",Jerry Hollis,3220 FLORENCE BLVD,FLORENCE,Alabama,35634,(256) 767-6389,http://www.woodfloorstore.net,,
YOUNG'S CARPET ONE FLOOR & HOME,Lisa Johnson,460 SE CATAWBA RD,PORT CLINTON,Ohio,43452,(419) 734-2117,http://www.youngscarpetptclinton.com,,
YOUNGS CARPET ONE,Greg Savelly,330 IDAHO MARYLAND RD,GRASS VALLEY,California,95945,(530) 273-5568,http://www.youngscarpetone.net,,
"YOUR FLOOR & DECOR, INC",David Turner,"2055 N ALMA SCHOOL RD, STE 248",CHANDLER,Arizona,85224,(480) 755-9538,http://www.yourfloordecor.com,,
WILLIS INSURANCE SERVICES OF CALIFORNIA INC,Stacy Eickhoff,18101 VON KARMAN AVE 6TH FLOOR,IRVINE,California,92612,(800) 477-7401,http://www.willis.com,,
ATLAS FLOORS CARPET ONE,Bill Mahone,1149 W HILDEBRAND,SAN ANTONIO,Texas,78201,(210) 734-5006,http://www.atlasfloors.com,,
BENSON'S INTERIORS,Teri Wilkinson,544 SW 4TH ST,CORVALLIS,Oregon,97333,(541) 757-8553,http://www.bensonsinteriors.com,,
CFC FLOORING & INTERIOR DESIGN,DJ Carlson,2606 70th AVE E # 104,FIFE,Washington,98424,(253) 922-7555,,,
"CLASSIC TILE, INC",Hank Stanislawski,794 SHERIDAN RD,HIGHWOOD,Illinois,60040,(847) 432-1394,http://www.classictile.us,,
CUSTOM DECORATORS,Kim Rush,12006 SW GARDEN PLACE,PORTLAND,Oregon,97223,(503) 655-4114,http://www.customdecorators.com,,
"FASHION CARPETS, INC",Dennis Runolfson,E 8619 SPRAGUE AVE,SPOKANE,Washington,99212,(509) 928-9550,http://www.fashioncarpets.com,,
ABOEDA INC,David Keegan,4100 4TH AVE S,SEATTLE,Washington,98134,(206) 264-2414,http://www.bamboohardwoods.com,,
"ADVANCED ADHESIVE TECHNOLOGIES, INC",Gregory Wood,419 S GLENWOOD AVE,DALTON,Georgia,30721,(706) 226-0610,http://www.aatglue.com,,
AMERICAN SAFETY RAZOR CO,Melissa Galvin,ONE RAZOR BLADE LANE,VERONA,Virginia,24482,(540) 245-2256,http://www.personna.com,,
AMORIM INDUSTRIAL SOLUTIONS,Larry Lyons,26112 110TH ST,TREVOR,Wisconsin,53179,(262) 862-2311,http://www.amorimsolutions.com,,
ARDEX ENGINEERED CEMENTS,Robert Dalton,400 ARDEX PARK DR,ALIQUIPPA,Pennsylvania,15001,(724) 203-5000,http://www.ardex.com,,
"ARTISTIC FINISHES, INC",Randy Hambright,2224 TERMINAL RD,ROSEVILLE,Minnesota,55113,(651) 631-2807,http://artfinishes.com,,
ARTO BRICK AND CA PAVERS,Patrick Blake,15209 S BROADWAY,GARDENA,California,90248,(310) 768-8500,http://www.artobrick.com,,
AWARD HARDWOOD FLOORS,John Hilgemann,401 N 72ND AVE,WAUSAU,Wisconsin,54401,(715) 849-8080,http://www.awardfloors.com,,
BEAULIEU OF AMERICA,Ralph Boe,PO BOX 1248,DALTON,Georgia,1248,(706) 259-4511,http://www.blissflooring.com,,
BENO J GUNDLACH CO,Gregory Gundlach,PO BOX 544,BELLEVILLE,Illinois,544,(618) 233-1781,http://benojgundlachco.com,,
BERRY ALLOC,Cindy Thornton,8338 CORPORATE DR #300,RACINE,Wisconsin,53406,(262) 884-1040,http://www.berryalloc.com,,
"BETTER LIFE TECHNOLOGY, LLC",Jay Brooks,9736 LEGLER RD,LENEXA,Kansas,66219,(913) 894-0403,http://www.bltllc.com,,
BETTER TOOLS,Lori Rhoads,480 CONGRESS PARK DR,CENTERVILLE,Ohio,45459,(937) 438-2390,http://www.better-tools.com,,
BOND PRODUCTS INC,Brian Milnes,4511 WAYNE AVE,PHILADELPHIA,Pennsylvania,3606,(215) 842-0200,http://www.bondproducts.com,,
CARPET CRAFTS INC,David Hudgins,PO BOX 667,DALTON,Georgia,667,(706) 695-0481,,,
CENTIVA,Thomas Trissl,1701 MARS HILL RD,FLORENCE,Alabama,35630,(256) 767-4990,http://www.centiva.com,,
CHEMQUE INC,Rick Wolf,266 HUMBERLINE DR,ETOBICOKE,Ontario,M9W 5X1,(416) 679-5676,http://www.chemque.com,,
"COLONIAL MILLWORKS, LTD",Larry Gross,PO BOX 436,BEVERLY,West Virginia,26253,(800) 833-7612,http://www.colonialmillwork.com,,
CONGOLEUM CORP,Dennis Jarosz,PO BOX 3127,MERCERVILLE,New Jersey,8619,(609) 584-3000,http://congoleum.com,,
CONTEMPORARY MARKETING GROUP,Brian Cooper,305 BEST FRIEND CT,NORCROSS,Georgia,30071,(678) 546-2608,http://www.contempgroup.com,,
"CROSSVILLE, INC",Rita Christmas,PO BOX 1168,CROSSVILLE,Tennessee,38557,(931) 484-2110,http://www.crossvilleinc.com,,
"CRYNTEL ENTERPRISES, LTD",Helene Prenner,10412 W STATE ROAD 84 #101,DAVIE,Florida,33324,(954) 920-8877,http://www.cryntel.com,,
CUSTOM BUILDING PROD,Evan Santillan,13001 SEAL BEACH BLVD,SEAL BEACH,California,90740,(562) 598-8808,http://www.custombuildingproducts.com,,
DAL-TILE CORPORATION,Lori Kirk-Rolley,7834 HAWN FRWY,DALLAS,Texas,75217,(214) 398-1411,http://www.daltileproducts.com,,
DINOFLEX GROUP LP,Cara Murphy,PO BOX 3309,SALMON ARM,British Columbia,V1E 4S1,(250) 832-7780,http://www.dinoflex.com,,
"DIVERSIFIED FOAM PRODUCTS, INC",Craig Keane,121 HIGH HILL RD,SWEDESBORO,New Jersey,1777,(856) 662-1981,http://diversifiedfoam.com,,
"DREAM WEAVER CARPET IND, INC",Gary Hollowell,PO BOX 1252,CHATSWORTH,Georgia,30705,(706) 517-9745,,,
ELEGANCE EXOTIC WOOD FLOORING,Michele McPherson,7351 MCGUIRE AVE,FONTANA,California,1668,(909) 980-5066,http://www.elegancewoodflooring.com,,
FRANKLIN INTERNATIONAL,Mark Schroeder,2020 BRUCK ST,COLUMBUS,Ohio,43207,(614) 443-0241,http://www.franklininternational.com,,
FUTURA INDUSTRIES,Ken Wells,PO BOX 160350,CLEARFIELD,Utah,84016,(801) 773-6282,http://www.futuraind.com,,
FUTURE FOAM INC,Dave Rutledge,11475 E 40TH AVE,DENVER,Colorado,80239,(303) 371-1492,,,
"GULISTAN CARPET, INC",Tony Prestipino,PO BOX A,ABERDEEN,North Carolina,28315,(910) 944-6311,http://gulistan.com,,
HALEX CORPORATION,Mark Chichak,750 S RESERVOIR ST,POMONA,California,91766,(909) 622-3537,http://www.halexcorp.com,,
HEALTHIER CHOICE FLOORING,Craig Poteet,401 JONES ST,DALTON,Georgia,3464,(706) 275-0345,http://healthierchoice.com,,
INDIAN SUMMER CARPET,Cindy Baggett,PO BOX 3577,DALTON,Georgia,30721,(706) 277-6277,http://www.cherokeecarpet.com,,
INVISTA,Gary Johnston,"175 TOWNPARK DR NW, STE 200",KENNESAW,Georgia,30144,(770) 420-7700,http://www.stainmaster.com,,
"IVC US, INC",Xavier Steyaert,101 IVC DR,DALTON,Georgia,30721,(706) 278-8008,http://www.ivcgroup.com,,
JAMES HARDIE BUILDING PROD,Jay Tinen,"26300 LA ALAMEDA, STE 400",MISSION VIEJO,California,92691,(949) 348-1800,http://www.hardibacker.com,,
JOHNSONITE,Jeff Krejsa,16910 MUNN RD,CHAGRIN FALLS,Ohio,44023,(800) 899-8916,http://www.johnsonite.com,,
JOY CARPETS & CO,Denis Dobosh,PO BOX 5379,FORT OGLETHORPE,Georgia,579,(706) 866-3335,http://www.adobosh@joycarpets.com,,
"KRONOTEX USA, INC",Travis Bass,810 TECHNOLOGY DR,BARNWELL,South Carolina,29812,(803) 541-3191,http://kronotexusa.com,,
"LATICRETE INTERNATIONAL, INC",Maria Oliveira,1 LATICRETE PARK NORTH,BETHANY,Connecticut,6524,(203) 393-0010,http://www.laticrete.com,,
LAUZON DISTINCTIVE HARDWOOD FLOORING,David Lauzon,2101 COTE DES CASCADES,PAPINEAUVILLE,Quebec,J0V 1R0,(819) 427-5144,http://www.lauzonplanchers.com,,
LEXMARK CARPET MILLS INC,Ed Williams,285 KRAFT DR,DALTON,Georgia,30721,(800) 871-3211,http://www.lexmarkcarpet.com,,
LOXCREEN FLOORING GROUP LTD,Joe Comitale,5720 AMBLER DR,MISSISSAUGA,Ontario,L4W 2B1,(905) 625-3210,http://www.loxcreenflooring.com,,
M A P E I CORPORATION,Steven Day,1144 E NEWPORT CTR DR,DEERFIELD BEACH,Florida,33442,(954) 246-8888,http://www.mapei.com,,
"M P GLOBAL PRODUCTS, LLC",Jack Boesch,PO BOX 2283,NORFOLK,Nebraska,2283,(402) 379-9695,http://www.quietwalk.com,,
M S M INDUSTRIES,Reza Aliabadi,802 SWAN DR,SMYRNA,Tennessee,37167,(615) 355-4355,http://www.msmind.com,,
MANNINGTON MILLS,Keith Campbell,MANNINGTON MILLS RD,SALEM,New Jersey,8079,(856) 339-5886,http://www.mannington.com,,
MAX WINDSOR FLOORS,Joannie Liu,11818 SAN MARINO ST,RANCHO CUCAMONGA,California,91730,(909) 477-6698,http://www.maxwindsor.com,,
MERCER ABRASIVES,Laura Collins,300 SUBURBAN AVE,DEER PARK,New York,11729,(631) 243-3900,http://www.mercerabrasives.com,,
METROFLOR CORP,Arthur Clarke III,15 OAKWOOD AVE,NORWALK,Connecticut,6850,(866) 882-4407,http://metroflorusa.com,,
MILLIKEN & COMPANY,Scott Reams,201 LUKKEN IND DR W,LAGRANGE,Georgia,30240,(800) 241-4826,http://www.millikencarpet.com,,
MIRACLE SEALANTS COMPANY,Joseph Salvo,12318 LOWER AZUSA RD,ARCADIA,California,5872,(626) 443-6433,http://miraclesealants.com,,
MOHAWK INDUSTRIES,Mike Zoellner,PO BOX 1448,DALTON,Georgia,30722,(800) 241-4900,http://www.mohawkflooring.com,,
N-C CARPET BINDING EQUIPMENT,Mark Caplan,858 SUMMER AVE,NEWARK,New Jersey,7104,(973) 481-3500,http://n-ccarpet.com,,
"NATIONAL FLOORING EQUIPMENT, INC",Laurie Osmondson,9250 XYLON AVE N,MINNEAPOLIS,Minnesota,55445,(800) 245-0267,http://www.nationalequipment.com,,
NATIONAL GYPSUM COMPANY,Jacki Chabot,2001 REXFORD RD,CHARLOTTE,North Carolina,28211,(704) 365-7440,http://www.nationalgypsum.com,,
"NATIONAL METAL SHAPES, INC",Chris Washek,425 S SANDUSKY ST,DELAWARE,Ohio,43015,(740) 363-9559,http://www.nmsi.com,,
"NATURE FLOORING INDUSTRIES, INC",Annie Zhang,303A NATIONAL RD,EXTON,Pennsylvania,19341,(610) 280-9800,http://www.nature-flooring.com,,
OSCODA PLASTICS INC,Jerry Lee,5585 N HURON AVE,OSCODA,Michigan,48750,(989) 739-6900,http://www.oscodaplastics.com,,
PREVERCO INC,Marie Perreault,"285, DE ROTTERDAM",DESMAURES,Quebec,G3A 2E5,(418) 878-8930,http://preverco.com,,
PROTECTO WRAP COMPANY,Victoria Kast,1955 S CHEROKEE ST,DENVER,Colorado,80223,(303) 777-3001,http://protectowrap.com,,
QUALITY CRAFT HOME IMPROVEMENT PRODUCTS LTD,Brock Senner,"#301, 17750-65A AVENUE",SURREY,British Columbia,V3S 5N4,(604) 575-5550,http://www.qualitycraft.com,,
QUANEX BUILDING PRODUCTS CORP,Carrie Barribeau,105 PLANK RD,SHAWANO,Wisconsin,54166,(715) 524-6065,http://www.colonialcraft.com,,
R B RUBBER PRODUCTS INC,Gregory Divis,2500 ADIE RD,MARYLAND HEIGHTS,Missouri,63043,(314) 432-3200,http://www.rbrubber.com,,
"RODA FLOORING, INC",Larry Subervi,"5029 LA MART DR, SUITE B",RIVERSIDE,California,92507,(951) 787-1996,http://www.rodaflooring.com,,
ROYALTY CARPET MILLS,Mike Derderian,17111 RED HILL AVE,IRVINE,California,92614,(949) 474-4000,http://www.royaltycarpetmills.com,,
"SAWMASTER DIAMOND TOOLS, INC",William Lee,11722 WARM SPRINGS RD,RIVERSIDE,California,92505,(951) 352-8887,http://sawmaster.com,,
SCHLUTER SYSTEMS LP,Elizah Hatch,194 PLEASANT RIDGE RD,PLATTSBURGH,New York,5841,(800) 472-4588,http://www.schluter.com,,
SEAM MASTER INDUSTRIES,Richard Kahrs,5211 SOUTHERN AVE,SOUTH GATE,California,90280,(323) 569-7171,http://www.seammaster.com,,
SHAW INDUSTRIES,Mollie Surratt,PO DRAWER 2128,DALTON,Georgia,2128,(706) 278-3812,http://www.shawfloors.com,,
SINCLAIR EQUIPMENT CO,Frank Sinclair,6686 MERCHANDISE WY,DIAMOND SPRINGS,California,95619,(530) 626-9386,http://www.sineqco.com,,
T E C,Mike Kroll,1105 S FRONTENAC ST,AURORA,Illinois,60504,(800) 323-7407,,,
TAYLOR TOOLS,Keith Papulski,5045 PARIS ST,DENVER,Colorado,80239,(303) 371-7667,http://www.taylortools.com,,
"TERAGREN BAMBOO FLOORING, PANELS & VENEER",Mike Boshart,"12715 MILLER RD NE, STE 301",BAINBRIDGE ISLAND,Washington,98110,(800) 929-6333,http://www.teragren.com,,
TILE REDI LTD,Farrell Gerber,"4450 NW 126TH AVE, STE 101",CORAL SPRINGS,Florida,33065,(954) 323-0125,http://www.tileredi.com,,
U S G / UNITED STATES GYPSUM,Steve Rausch,11675 RAINWATER DR # 665,ALPHARETTA,Georgia,8693,(678) 781-2465,http://www.usg.com,,
"UNILIN FLOORING INC, LLC",Roger Farabee,7834 CF HAWN FRWY,DALLAS,Texas,75217,(214) 309-4144,http://www.quick-step.com,,
URBAN FLOOR,Jimmy Setiawan,3707 CAPITOL AVE,CITY OF INDUSTRY,California,90601,(323) 890-0000,http://www.urbanfloor.com,,
VINYLASA/LOSETAS ASFALTICAS,Tony Kanan,10720 KIMBERLY DR,UNION,Kentucky,41091,(859) 384-4515,http://www.vinylasa.com,,
"W. F. TAYLOR CO, INC",Mihir Gandhi,11545 PACIFIC AVE,FONTANA,California,92337,(951) 360-6677,http://www.wftaylor.com,,
"WE CORK, INC",Ann Wicander,"16 KINGSTON RD, UNIT 6",EXETER,New Hampshire,3833,(800) 666-2675,http://www.wecork.com,,
ZAMMA CORPORATION,Peter Spielman,14468 LITCHFIELD DR,ORANGE,Virginia,22960,(540) 672-5200,,,
ABBEY CARPET & FLOOR OF HAWAII,Roy Tokuhama,98-761 OIHANA PLACE #D-3,AIEA,Hawaii,96701,(808) 487-6667,http://abbeycarpet.com,,
DIRECT CARPET ONE,Rick Pendergrass,3161 N 35TH AVE,PHOENIX,Arizona,85017,(602) 269-3261,http://www.directcarpetone.com,,
GRASS ROOTS FLOORING,Jennifer Ortega,PO BOX 90693,STATEN ISLAND,New York,10309,(855) 583-5667,http://www.shopgrf.com,,
MOBILE FLOOR COVERINGS,John Kupka,1558 BRITTON CIR,BELLINGHAM,Washington,98226,(360) 671-4693,,,
MONARCH FLOOR & WINDOW COVERINGS,Davis Bawtinheimer,#200 -4363 DAWSON ST,BURNABY,British Columbia,V5C 4B4,(604) 253-1009,http://www.monarchfloors.ca,,
BROOKS MANCINI,Brooks Mancini,1527 KESTREL CT,RENO,Nevada,89509,(775) 858-3400,,,
CARL L. BIGGS,Carl Biggs,244 MIRAFLORES RD,SCOTTS VALLEY,California,95066,(831) 438-3734,,,
DYNAMIC FLOORS FLOORING AMERICA,Jeff Wohl,4229 W THUNDERBIRD RD,PHOENIX,Arizona,85053,(602) 843-9040,http://www.dynamicfloors.com,,
JEFF KING,Jeff King,1001 PENNSYLVANIA AVE NW,WASHINGTON,District,20004,(202) 624-2500,,,
PROSOURCE,Scott Steel,16800 TEXAS AVE,WEBSTER,Texas,77598,(281) 338-1345,http://www.myflooringamerica.com,,
4 SERVICE GROUP,Michelle Stallone,"7381 WASHINGTON BLVD, #107",ELKRIDGE,Maryland,21075,(410) 796-1464,http://www.4servicegroup.com,,
"5 STAR FLOORING, INC",Andy Anderson,17510 BOTHELL WAY NE,BOTHELL,Washington,98011,(425) 485-5481,,,
A & A FLOORING SUPPLIES INC,Amir Aslani,350 SUPERTEST RD,NORTH YORK,ONTARIO,M3J 2M2,(416) 736-0089,,,
"ABBEY 75 - MILL END CARPET SHOP, INC",Alvin Blankenship,750 J CLYDE MORRIS BLVD,NEWPORT NEWS,Virginia,23601,(757) 595-4488,http://abbeycarpet.com,,
ABBEY CARPET & FLOOR OF ANNISTON,Ted Gregerson,PO BOX 4009,ANNISTON,Alabama,36204,(256) 231-0008,http://www.abbeycarpet.com,,
ABBEY CARPET FLOORING & DESIGN CENTER,Subhash Patel,8102 TWO NOTCH RD,COLUMBIA,South Carolina,29223,(803) 699-8000,http://www.columbia.abbeycarpet.com,,
ABBEY CARPET OF CAMBRIDGE,Denise Nedegaard,1565 1ST AVE EAST,CAMBRIDGE,Minnesota,55008,(763) 689-5054,http://www.cambridge.abbeycarpet.com,,
ABBEY CARPET OF PETALUMA,Steven Sager,"450 LAKEVILLE ST, STE F",PETALUMA,California,94952,(707) 762-5514,http://www.petaluma.abbeycarpet.com,,
ABBEY CARPETS UNLIMITED,Janice Clifton,1145 JORDAN LN,NAPA,California,94559,(707) 252-6695,http://www.carpetsunlimited.com,,
ABBEY SAN MATEO CARPETS,Nancy Stanton,101 N AMPHLETT BLVD,SAN MATEO,California,94401,(630) 347-0800,http://www.abbeycarpet.com,,
ACCENTS AND INTERIORS,Bill Sullivan,"19501 144TH AVE, STE A900",WOODINVILLE,Washington,98072,(425) 368-1300,http://www.accents-interiors.com,,
ACME FLOOR COVERING CARPET ONE,Jeff Fleming,228 MASSACHUSETTS AVE,LUNENBURG,Massachusetts,1462,(978) 345-5541,http://www.acmecarpetone.com,,
ADD'S FLOOR COVERING CARPET ONE,Doug Wilson,9812 MAPLE ST,BELLFLOWER,California,90706,(562) 867-3259,http://www.carpetone.com,,
AGAIN LLC,Bill Betts,21255 76TH AVE S,KENT,Washington,98032,(253) 981-6675,,,
AL'S CARPET FLOORING & DESIGN,Alan Clements,8016 N 2ND ST,MACHESNEY PARK,Illinois,61115,(815) 633-4101,http://www.justaskalscarpet.com,,
ALADDIN SURFACES,Amir Modjarrad,12321 PARKLAWN DR,ROCKVILLE,Maryland,20852,(301) 816-9777,http://www.aladdinsurfaces.com,,
ALII FLOORING INC,Harris Nakamura,99-1016 IWAENA ST,AIEA,Hawaii,96701,(808) 487-5535,,,
ALL STATE FLOORING,Dmitry Lyubomirsky,2026 MCDONALD AVE,BROOKLYN,New York,11223,(646) 434-7997,,,
ALLWEIN CARPET ONE,Sue Allwein,1475 E MAIN ST,ANNVILLE,Pennsylvania,17003,(717) 867-4100,http://www.allweincarpetone.com,,
AMERICA'S FLOOR SOURCE,Todd Sweeney,3442 MILLENNIUM COURT,COLUMBUS,Ohio,5551,(614) 237-3181,http://www.americasfloorsource.com,,
AMERICAN FLOORING INC,Jim Chrestman,119 EXECUTIVE DR,SALTILLO,Mississippi,38866,(662) 869-1385,http://www.americanflooringinc.com,,
ANDY BREEDEN FLOORS,Andy Breeden,8509 EDENTON RD,FULTON,Maryland,9635,(240) 375-6084,http://www.andybreedenfloors.com,,
APEX WOOD FLOORS INC,John Lessick,1326 OGDEN AVE,DOWNERS GROVE,Illinois,60515,(630) 963-9322,,,
APPLIED SURFACES TECHNOLOGY,Daniel Killian,1020 PORT DR,CLARKSTON,Washington,99403,(509) 758-8016,,,
"ARC FLOOR CO, INC",Glenn Kelly,4600 WEDGEWOOD BLVD,FREDERICK,Maryland,21703,(240) 379-7800,,,
ARCADE FLOORS CARPET ONE INC,Charles Vogel,8511 LOCH RAVEN BLVD,TOWSON,Maryland,21286,(410) 668-7500,http://arcadefloors.com,,
ARCHITECTURAL DESIGN CARPETS,Debra Duering,1111  FRANCISCO BLVD E  #3,SAN RAFAEL,California,94901,(415) 458-1717,http://www.architecturaldesigncarpets.com,,
ARLON MILLER CO,Arlon Miller,10733 CEDAR ST,OMAHA,Nebraska,68124,(402) 397-7546,,,
ARTISTIC CARPET ONE & HOME,Billy Ward,1061 W AVENUE K,LANCASTER,California,93534,(661) 948-7567,http://www.artisticcarpetonelancaster.com,,
AT YOUR DOOR FLOOR STORE,Jeffery Shipe,17617 REDLAND RD,DERWOOD,Maryland,20855,(301) 355-6464,http://www.atyourdooronline.com,,
ATLANTIC TO PACIFIC FLOORING,Christopher Makarius,40 WERMAN COURT,PLAINVIEW,New York,11803,(516) 756-8050,,,
AVALON CARPET TILE & FLOORING,Maryanne Adams,"2030 SPRINGDALE RD, STE 400",CHERRY HILL,New Jersey,8003,(856) 489-4996,http://www.avaloncarpettile.com,,
B & B CARPET SERVICE,Bob Sherwood,PO BOX 6,DONIPHAN,Nebraska,68832,(402) 845-9241,http://www.bandbcarpet.com,,
B & R SALES INC,Garrett Gunderson,4414 6TH AVE SE,LACEY,Washington,98503,(360) 456-2323,http://www.brsalesinc.com,,
BAINBRIDGE FLOOR COVERING & SUPPLY INC,Steve Shawley,156 WINSLOW WAY E,BAINBRIDGE ISLAND,Washington,98110,(206) 842-4717,,,
BARRY CARPET,Jill Pierce,11061 W PICO BLVD,LOS ANGELES,California,90064,(310) 479-3761,http://www.barrycarpet.com,,
BART'S CARPET SALES INC,Peter Bartkiewicz,491 DAVISVILLE RD,NORTH KINGSTOWN,Rhode Island,2852,(401) 884-8300,http://www.bartscarpet.com,,
BARTLETTS HOME INTERIORS,Sue Bartlett,6499 M 66 N HWY,CHARLEVOIX,Michigan,49720,(231) 547-2884,http://www.bartlettshomeinteriors.com,,
"BAUER FLOOR COVERING, INC",Gregory Bauer,525 SOUTHVIEW BLVD,ST PAUL,Minnesota,55075,(651) 451-6437,http://www.bauerfloorcovering.com,,
BAYSIDE FLOOR SUPPLY,Tom Stiger,2601 COLBY AVE,EVERETT,Washington,98201,(425) 259-4994,http://www.abbeycarpet.com,,
BELMONT CARPETS & WOODFLOORING,Kathy Gorski,1310 S STATE COLLEGE BLVD,ANAHEIM,California,92806,(714) 533-8513,http://www.belmontcarpets.com,,
BENJAMIN'S CARPET ONE,Ron Thornhill,1324 JADWIN AVE,RICHLAND,Washington,99354,(509) 946-4506,http://www.carpetone.com,,
BENNETT'S CARPETS INC,Ivan Bennett,149 STEVE DR,RUSSELL SPRINGS,Kentucky,42642,(270) 866-6930,http://www.bennettscarpets.com,,
BETTIE'S FLOOR & DECOR,Brady Beeson,111 E NORTH ST,GRANGEVILLE,Idaho,83530,(208) 983-1527,http://www.bettiesfloors.com,,
BIG BOB'S FLOORING,Patric Bell,660 E DOWLING RD,ANCHORAGE,Alaska,99518,(907) 561-2121,http://www.bigbobscarpet.com,,
BIG BOB'S FLOORING OUTLET,Brad Millner,1821 S ARIZONA AVE,YUMA,Arizona,85364,(928) 217-5551,http://www.mybigbobs.com,,
BIG BOB'S FLOORING OUTLET,Mark Blankenship,6053 CAROLINA CIRCLE,STOCKTON,California,95219,(209) 951-9400,,,
"BIG BOB'S FLOORING OUTLETS OF AMERICA, INC",David Elyachar,10001 W 75TH ST,OVERLAND PARK,Kansas,66204,(913) 789-7773,http://www.bigbobsflooringoutlets.com,,
BIG CARPET,Dennis Bigelow,653 W 650 N,CLEARFIELD,Utah,84015,(801) 336-6757,http://www.bigcarpet.net,,
BILL'S CARPET FAIR,Maureen Anderson,7100 RUTHERFORD RD,BALTIMORE,Maryland,21244,(410) 298-5800,http://www.billscarpetfair.com,,
BISHOPS CARPET ONE,David Pirko,430 W. STATE ST SUITE 1,ITHACA,New York,14850,(607) 273-8807,,,
BLOOMINGTON CARPET ONE,Scott Schafer,503 AMERICAN BLVD W,BLOOMINGTON,Minnesota,55420,(952) 881-6970,http://www.bloomingtoncarpetone.com,,
BLUE LAKE FLOORING & PAINT,David Newell,2141 JAMES AVE,SOUTH LAKE TAHOE,California,96150,(530) 544-2432,http://www.bluelakeflooring.com,,
BOB MOSS CARPET ONE FLOOR & HOME,Bobby Urban,610 LOUISVILLE AVE,MONROE,Louisiana,71201,(318) 387-6929,http://www.carpetone.com,,
BOB WAGNER'S FLOORING AMERICA,Matt Wagner,4531 W. LINCLON HWY,DOWNINGTOWN,Pennsylvania,19335,(610) 269-7808,http://www.bobwagner.com,,
BOSS CARPET ONE FLOOR & HOME,Ben Boss,329 ILLINOIS 2,DIXON,Illinois,61021,(815) 284-3933,http://www.bosscarpetone.com,,
BRANDT CARPET & TILE,Roger Brandt,101 MAPLE,FRIEND,Nebraska,68359,(402) 947-6711,,,
BRENTWOOD CARPETS,Harry Harles,4600 PARAGON PARK RD,RALEIGH,North Carolina,27604,(919) 872-2775,http://www.brentwoodcarpets.com,,
BRESLIN'S FLOOR COVERING,Mike Breslin,63 N SEMINARY,GALESBURG,Illinois,61401,(309) 342-9197,,,
BRIAN'S CARPET & TILE,Brian Hammonds,4817 MCADORY SCHOOL RD STE 109,MCCALLA,Alabama,35111,(205) 425-3239,,,
BROOKENS WOOD FLOORS,Ralph Brookens,2517 WOODFIELD RD,SPRINGFIELD,Illinois,62711,(217) 415-1889,,,
BUDDY ALLEN CARPET ONE,Zack Allen,2517 LEBANON RD,NASHVILLE,Tennessee,37214,(615) 883-3289,http://buddyallencarpetone.com,,
BUNDY CARPETS INC,Daryn Bundy,615 STATE AVE,MARYSVILLE,Washington,98270,(360) 659-0663,,,
BURTON FLOORING INC,Joe Burton,5022 DOSS RD,PORT ANGELES,Washington,98362,(360) 417-2614,,,
BW FLOORING LLC,Brian Wilkum,N6576 CANTEBURY DR,FOND DU LAC,Wisconsin,54937,(920) 382-5800,,,
"C & S FLOORING, INC",Lynn Skelton,10929 ST RD 52,HUDSON,Florida,34669,(727) 379-9700,http://www.prosourcefloors.com/portrichey,,
C B A SPORTS FLOORS,Rob Zehnder,3115 MEDLOCK BRIDGE RD,NORCROSS,Georgia,30074,(770) 797-9990,,,
C M CARPETS PLUS,Charles Munoz,1338 E MINER AVE,STOCKTON,California,95205,(209) 469-9055,,,
C.T.S. ENTERPRISES INC,Peter Stayner,15100 SE 38TH ST,BELLEVUE,Washington,1765,(206) 786-1052,,,
CA PETERACCA JR INC,Carmino Peteracca,190 N COUNTRY CLUB RD,LAKE MARY,Florida,32746,(407) 321-9696,http://www.tilewoodcarpet.com,,
"CALHOUN FLOORZ HSK, INC",Dan Housley,1730 S DIRKSEN PARKWAY,SPRINGFIELD,Illinois,62703,(217) 544-2138,http://www.calhouncarpet.com,,
CAPPY'S CARPETS INC,Peter Capobianco,440 MAIN ST,PORT JEFFERSON,New York,11777,(631) 473-2600,http://www.cappyscarpets.com,,
"CARLSON'S FLOORING, INC",Lisa Carlson Nelson,728 W STATE ST,GENEVA,Illinois,60134,(630) 232-4964,http://www.carlsonsfloors.com,,
CAROUSEL CARPETS & FLOORS,Brett Schaechter,3315 SUPERIOR LN,BOWIE,Maryland,20715,(301) 262-2650,http://www.carouselcarpets.com,,
"CARPER'S O STREET CARPET",Steve Carper,1732 O STREET,LINCOLN,Nebraska,68508,(402) 476-7567,http://www.ostreetcarpet.com,,
CARPET CENTER FLOOR TO CEILING,Kathleen Eyestone,"6400 HEMBREE LN, STE 130",WINDSOR,California,95492,(707) 836-7007,http://www.carpetcenterftc.com,,
CARPET CITY OF WAUSAU,Lee Plonske,5400 W STEWART AVE,WAUSAU,Wisconsin,54401,(715) 842-5277,,,
"CARPET COLLECTION, THE",Gary Case,5939 S TRANSIT RD,LOCKPORT,New York,14094,(716) 433-9377,http://www.carpetcollection.com,,
CARPET COLOUR CENTRE,Rick Wiebe,1100 5001 19TH ST,RED DEER,Alberta,T4R 3R1,(403) 343-7711,http://www.carpetcolourcentre.com,,
CARPET CORNER CARPET ONE,Bill Clark,741 ACADEMY AVE,SANGER,California,93657,(559) 875-4030,http://www.carpetone.com,,
"CARPET COUNTRY, INC",Nazem Agha,13358 POWAY RD,POWAY,California,92064,(858) 748-2997,http://www.carpetcountryflooring.com,,
CARPET DEN INTERIORS,Keith Earp,264 MALLORY STATION RD,FRANKLIN,Tennessee,37064,(615) 771-0128,http://www.carpetden.com,,
CARPET DEPOT,Daniel Mealhouse,4485 BROADWAY,EUREKA,California,95503,(707) 442-3470,http://www.thecarpetdepot.com,,
CARPET DEPOT LLC,Mark Chulew,3020 W THOMAS RD,PHOENIX,Arizona,85017,(602) 442-2020,http://www.carpetdepotaz.com,,
"CARPET DEPOT, INC",Jane Detwiler,237 W HIGH ST,POTTSTOWN,Pennsylvania,19464,(610) 323-8881,http://www.garyscarpetdepot.com,,
CARPET EXPRESS,Joe Marvel,PO BOX 3518,EUREKA,California,95502,(707) 445-1805,,,
CARPET GIANT,Meredith Wosenitz,3407 GULF FREEWAY,HOUSTON,Texas,77003,(713) 224-2213,http://www.carpetgianthouston.com,,
"CARPET LAND, INC",Myles McComas,6430 BALTIMORE NATIONAL PIKE,BALTIMORE,Maryland,21228,(410) 744-8570,http://www.carpetlandinc.com,,
"CARPET MART INC, THE",Charles Bugg,2408 PEACH ORCHARD RD,AUGUSTA,Georgia,30906,(706) 793-6629,http://www.augustacarpetmart.com,,
CARPET ONE,Stan Lipp,3270 SEDGE PLACE,NAPLES,Florida,34105,(239) 649-5407,http://www.stanlippmediations.com,,
CARPET ONE,Stephen Lipp,1111 W WASHINGTON CTR RD,FORT WAYNE,Indiana,46825,(219) 489-4584,http://www.carpetone.com,,
CARPET ONE FLOOR & HOME,Lisa Hyland,2119 ELIDA RD,LIMA,Ohio,45805,(419) 227-3793,http://www.carpetone.com,,
CARPET ONE FLOOR & HOME,David Wollschlager,3333 CAPITAL CIRCLE NE,TALLAHASSEE,Florida,32308,(850) 386-7139,http://www.carpetonetallahassee.com,,
CARPET ONE FLOOR & HOME,Linda Graham,501 FORT RILEY BLVD,MANHATTAN,Kansas,66502,(785) 776-6742,http://www.carpetone.com,,
CARPET ONE FLOOR & HOME,Mark Hayden,700 SALEM DRIVE,OWENSBORO,Kentucky,42303,(270) 685-5735,http://www.carpetoneowensboro.com,,
CARPET ONE FLOOR & HOME,Mike Trittler,105 BUSINESS LOOP 70 E,COLUMBIA,Missouri,65203,(573) 449-0081,http://www.carpetone.com,,
CARPET ONE FLOOR & HOME - ASHEVILLE,Ed Israel,80 CHARLOTTE ST,ASHEVILLE,North Carolina,28801,(828) 252-1594,http://www.carpetoneasheville.com,,
"CARPET ONE MENTOR, INC",Larry Rakes,7625 MENTOR AVE,MENTOR,Ohio,44060,(440) 975-0097,http://www.carpetone.com,,
CARPET ONE OF BILLINGS,John Erbacher,505 S 24TH ST W,BILLINGS,Montana,59102,(406) 656-9300,http://www.carpetone.com,,
CARPET ONE OF WARNER ROBINS,Greg Crosby,1001 RUSSELL PKWY,WARNER ROBINS,Georgia,31088,(478) 328-6622,http://www.carpetone.com,,
CARPET ONE SANTA MARIA,Ronald Ferrari,PO BOX 7509,SANTA MARIA,California,93456,(805) 925-8718,http://www.carpetonesantamaria.com,,
CARPET ONE SPRINGDALE,Gary Brown,802 SANDERS,SPRINGDALE,Arkansas,72764,(479) 756-2786,http://www.carpetone.com,,
CARPET PLUS,Duane Cassis,PO BOX 6987,CHARLOTTESVILLE,Virginia,22906,(434) 977-7587,http://www.carpetplusonline.com,,
CARPET PLUS ENTERPRISES INC,Jeff Taylor,18133 OAK RIDGE DR,HAGERSTOWN,Maryland,7201,(301) 739-3422,,,
"CARPET STORE, THE",Joe Sidor,"112 COOPERATIVE WAY, STE B",KALISPELL,Montana,59901,(406) 755-0030,,,
CARPET TO GO,Gary Long,12700 BEL-RED RD,BELLEVUE,Washington,98005,(425) 453-7607,http://www.carpettogo.com,,
CARPET TOWN USA,Wendy Werner,1350 S 108TH ST,W ALLIS,Wisconsin,53214,(414) 774-2220,http://www.carpet-town.com,,
CARPET VALUE CENTER FLOORING AMERICA,Rob Menefee,3041 GOLANSKY BLVD,WOODBRIDGE,Virginia,22192,(703) 691-3100,http://www.flooringamericastores.com,,
"CARPET VILLAGE, INC",Stephen Dayton,2710 MOUNTAIN RD,PASADENA,Maryland,21122,(410) 255-9099,http://www.carpetvillage.com,,
CARPET WAREHOUSE & INTERIORS,Richard Leming,1560 FEATHER RIVER BLVD,OROVILLE,California,95965,(530) 533-5970,http://www.carpetwarehouseandinteriors.com,,
CARPET WEAVER'S,Mark Weaver,820 ELDORADO RD,BLOOMINGTON,Illinois,61704,(309) 663-4300,http://www.carpetweaversflooring.com,,
CARPET WORLD CARPET ONE,Gordon Patterson,390 E NEW CIRCLE RD,LEXINGTON,Kentucky,40505,(859) 253-0004,http://www.carpetone.com,,
CARPET YOUR WORLD,Joseph Soriano,2611 MIDDLE COUNTRY RD,CENTEREACH,New York,11720,(631) 737-0638,,,
"CARPETIME, INC",Al Ledebur,2920 I-70 BUSINESS LOOP,GRAND JUNCTION,Colorado,81504,(970) 245-4753,http://www.carpetimegj.com,,
CARPETLAND,Jeff Lehms,4301 INDUSTRIAL AVE,LINCOLN,Nebraska,68504,(402) 467-6363,http://www.carpetlandonline.com,,
CARPETMART CARPET ONE,Bob Fischer,PO BOX 523,RAPID CITY,South Dakota,57709,(605) 348-8900,http://WWW.CARPETONEFLOORANDHOMERAPIDCITY.COM,,
CARPETS 'N' MORE,Duane Johnson,208 W THIRD ST,GRAND ISLAND,Nebraska,68801,(308) 384-2314,http://www.abbeycarpet.com,,
"CARPETS BY BERNARDO, INC",Bernardo Martinez,1454 MARCELINA AVE,TORRANCE,California,90501,(310) 320-8667,,,
CARPETS BY OZBURN,Jerry York,1402 NW BROAD ST,MURFREESBORO,Tennessee,37129,(615) 890-7632,,,
CARRIAGE HOUSE CARPET ONE FLOOR & HOME,Haydee King,121 E 2ND ST,MUSCATINE,Iowa,52761,(563) 264-3205,http://www.carpetone.com,,
CARTOZIAN FINE FLOORING AND RUGS,Rachel McLain,3320 SOUTH G ST,TACOMA,Washington,98418,(253) 474-8433,http://www.cartozian.com,,
CENTURY TILE & CARPET,Fred Schmidt,747 E ROOSEVELT RD,LOMBARD,Illinois,60148,(630) 495-2300,http://www.century-tile.com,,
CHERRY CARPET & FLOORING,Ross Cherry,2915 LONDON BLVD,PORTSMOUTH,Virginia,23707,(757) 397-5811,http://www.cherrycarpet.com,,
CHISUM'S FLOOR COVERING,Debra Kresge,118 BRYANT ST,OJAI,California,93023,(805) 646-2440,http://www.chisumsfloorcovering.com,,
CHRISTIAN BROTHERS CARPET,Don Kerbon,12086 WOODSIDE,LAKESIDE,California,92040,(619) 443-9500,http://www.cbfloorcovering.com,,
CLEAN CUT CARPET & FLOOR,Joseph Baranek,6826 W LIMA ST,MILWAUKEE,Wisconsin,53223,(414) 690-2377,,,
CLUFFS CARPET ONE,Gregory Cluff,118 CROSS RD,WATERFORD,Connecticut,6385,(860) 447-0383,http://www.carpetone.com,,
COAKLEY CARPET ONE FLOOR & HOME,William Coakley,2535 HWY 68,CANTON,New York,13617,(315) 386-8161,http://www.coakleycarpetonecanton.com,,
COLES FINE FLOORING,George Coles,1170 W MORENA BLVD,SAN DIEGO,California,92110,(619) 276-5140,http://www.colesfineflooring.com,,
"COLOR POT INC, THE",Bill Hewett,1210 N STATE ST,BELLINGHAM,Washington,98225,(360) 734-4020,http://www.thecolorpot.com,,
COLUMBOS FLOORS TO GO,Scott Ehrhardt,2243 PORT SHELDON ST,JENISON,Michigan,49428,(616) 669-6222,http://www.columbosftg.com,,
"COMMUNITY WAREHOUSE, THE",Ray Curtiss,521 S 9TH ST,MILWAUKEE,Wisconsin,53204,(414) 383-7792,http://www.thecommunitywarehouse.org,,
COMPLETELY FLOORED,Bill Missler,3302 SMITH AVE,EVERETT,Washington,98201,(425) 252-2775,http://www.completelyfloored.com,,
"CONKLIN BROS OF SANTA ROSA, INC",Wayne O'Connor,505 B  ST,SANTA ROSA,California,95401,(707) 542-4981,http://www.conklinbrosfloors.com,,
"COOK & KOZLAK FLOORING CENTER, LLC",Karen Cook,220 ALBANY TURNPIKE,CANTON,Connecticut,6019,(860) 693-2202,http://www.cookandkozlak.com,,
CORLEW & PERRY FLOORING AMERICA,Charlie Armour,3017 NOLENSVILLE PIKE,NASHVILLE,Tennessee,37211,(615) 832-0320,http://www.corlewandperryflooring.com,,
COUNTRY SIDE CARPETS FLOORING AMERICA,Tim Schoolfield,1305 TOM GINNEVER,FALLON,Missouri,63366,(636) 978-6466,http://www.faofmo.com,,
"CRAFTSMAN FLOOR COVERINGS, INC",Michael O'Brien,401 E WASHINGTON ST,PETALUMA,California,94952,(707) 778-6608,http://www.craftsmanfloors.com,,
"CREATIVE CARPET, INC",Tammy Bouquet,19420 S LA GRANGE RD,MOKENA,Illinois,60448,(708) 479-8600,http://www.creativecarpetinc.com,,
CSB FLOORING,Chris Buller,9875 S GLENMOOR CT,OAK CREEK,Wisconsin,53154,(414) 902-0905,,,
CUSTOM FLOORS & DRAPES,Dan O'Connor,1113 SUPERIOR AVE,TOMAH,Wisconsin,54660,(608) 372-5356,,,
CUSTOM TILE WORKS INC,John Maher,110 W NACHES AVE,SELAH,Washington,98942,(509) 697-7028,,,
CUSTOM TOUCH INTERIORS LLC,Chellaigne Vert,"13013 NE 20TH ST, SUITE B",BELLEVUE,Washington,98005,(425) 883-0555,http://www.customtouchinteriors.net,,
CW FLOORS,Jeffrey De Rojas,2103 NW LOOP 410,SAN ANTONIO,Texas,78213,(210) 349-1170,http://www.cwfloors.com,,
D & D TILE CO,Richard Repoli,306 TOLLAND ST,EAST HARTFORD,Connecticut,6108,(860) 289-8691,,,
D J FLOORING LLC,JoAnn Street,"621 W 3900 S, STE A-1",SALT LAKE CITY,Utah,84123,(801) 263-8495,http://www.djflooringllc.com,,
"D W INTERIORS, INC",Daniel Warshauer,6205 VAN NUYS BLVD,VAN NUYS,California,91401,(818) 786-0681,http://www.dwinteriorsinc.com,,
DA VINCI FLOORING,Donna Davis,325 RR 620 S #101A,LAKEWAY,Texas,78734,(512) 243-8330,http://www.davinciflooringusa.com,,
"DAVE'S FLOOR TRENDS, INC",Dave Olson,700 E 53RD ST,DAVENPORT,Iowa,52807,(563) 386-7626,http://www.floor-trends.com,,
DEAN FLOORING COMPANY,Kiley Dean,PO BOX 3266,DALTON,Georgia,30719,(706) 529-8808,http://www.deanflooring.com,,
DEETS HOME STORE,Dick Teeslink,2010 S 13TH ST,NORFOLK,Nebraska,68701,(402) 371-7679,http://deetsfurniture.com,,
DELTA FLOORS CARPET ONE,Joseph Kwon,1363 S STATE COLLEGE BLVD,ANAHEIM,California,92806,(714) 758-0030,http://www.deltafloorscarpetoneanaheim.com,,
"DENTON WOOD & FLOORS OUTLET, INC",Morton Allen,1103 DALLAS DR,DENTON,Texas,76205,(940) 320-2222,http://www.woodfloorsoutlet.com,,
DESIGN HARDWOODS INC,Ed Topalian,"2500 FAIRVIEW ST, STE A",SANTA ANA,California,92704,(714) 241-0440,http://www.designhardwoods.com,,
DESIGN INNOVATIONS BY FRANKLIN BUILDING SUPPLY,Jerry Bittick,1786 S TOPAZ WAY,MERIDIAN,Idaho,83642,(208) 898-1740,http://www.franklinbuildingsupply.com,,
DFS FLOORING,Tom Brown,10178 WILLOW CREEK RD,SAN DIEGO,California,92131,(858) 630-5205,,,
DIAMOND CARPETS,Jeff Jacobson,2565 AMERICAN WAY,GRAND JUNCTION,Colorado,5702,(970) 241-8284,http://www.abbeycolo.com,,
DILMAGHANI COMPANY,Dennis Dilmaghani,540 CENTRAL PARK AVE,SCARSDALE,New York,10583,(914) 472-1700,http://www.dilmaghani.com,,
DIMENSIONS CARPET ONE FLOOR & HOME,Cliff Hayes,PO BOX 21117,ST CATHARINES,Ontario,L2M 7X2,(905) 704-1664,http://www.dimensionscarpet1stcatharines.com,,
DISCOUNT CARPET / PRO-FLOOR SYSTEMS,Lou Amabili,358 SNOW HILL RD,SALISBURY,Maryland,21804,(410) 742-1129,http://www.discountcarpet-sby.com,,
"DOBSON FLOORS, INC",Suzanne Brown,2010 EASTGATE DR,GARLAND,Texas,75041,(972) 270-8741,http://www.dobsonfloors.com,,
DON FRANK FLOORS INC,John Duty,PO BOX 14936,PORTLAND,Oregon,936,(503) 235-5447,http://www.donfrankfloors.com,,
DOOLITTLES CARPET & PAINTS INC,Jack Doolittle,1225 HWY 15 SOUTH,FAIRMONT,Minnesota,56031,(507) 238-1155,http://www.doolittlescarpetpaints.com,,
DREXEL INCORPORATED,Amanda Jungbluth,19355 W BLUEMOUND RD,BROOKFIELD,Wisconsin,53045,(262) 786-2250,http://www.drexel-inc.com,,
"EASTON HARDWARE, INC",Eric Clopper,303 N WASHINGTON ST,EASTON,Maryland,21601,(410) 822-0910,,,
ED SELDEN CARPET ONE FLOOR & HOME,Rick Selden,3901 STEILACOOM BLVD SW,LAKEWOOD,Washington,98499,(253) 588-2104,http://www.edseldencarpetone.com,,
ED'S FLOORING AMERICA,Ed Cross,9 BLOSSOM RD,PLAISTOW,New Hampshire,3865,(603) 382-3801,,,
EFLOORS.COM,Judy Marsh,1000 BROOKFOREST AVE,SHOREWOOD,Illinois,60404,(888) 522-5456,http://www.efloors.com,,
EMERSON CARPET ONE,Lee Emerson,11031 COURSEY BLVD,BATON ROUGE,Louisiana,70816,(225) 291-2787,http://www.emersoncarpetonebatonrouge.com,,
"EMPIRE TODAY, LLC",Harvey Nusbaum,333 NORTHWEST AVE,NORTHLAKE,Illinois,60164,(800) 588-2300,,,
EMW CARPET & FURNITURE,Eric Helmstaedter,2141 S BROADWAY,DENVER,Colorado,80210,(303) 744-2754,http://www.emwcarpets.com,,
EUREKA FLOOR CARPET ONE,Mike Jurkovich,2385 MYRTLE AVE,EUREKA,California,95501,(707) 443-9321,http://www.carpetone.com,,
FACTORY FLOORING,Shawn Boroumand,990 VICTORIA ST N,KITCHENER,Ontario,N2B 3C4,(519) 571-0550,,,
FAMILY CARPET N THINGS,Gary Lobnow,600 S BROADWAY,YREKA,California,96097,(530) 841-1500,http://www.familycarpetnthings.com,,
"FASHION FLOORS, INC CARPET ONE",John Hall,305 WEST 7TH ST,SIOUX CITY,Iowa,51103,(712) 252-4382,http://www.carpetone.com,,
FEASTERVILLE FLOOR,John Menarde,410 W STREET RD,FEASTERVILLE TREVOSE,Pennsylvania,19053,(215) 355-4100,http://www.feastervillefloor.com,,
"FEHRENBACH'S FLOORING PLUS, INC",Carol Fehrenbach,15 FOX CREEK DR,REHOBOTH BEACH,Delaware,19971,(302) 664-8772,http://www.fehrenbachs.com,,
FINESSE CARPET ONE,Christine Van De Hei,"20005 HWY 88, STE C",PINE GROVE,California,95665,(209) 296-5950,http://www.finessecarpetonepinegrove.com,,
"FINISHING TOUCH, THE",Cheryl Sowder,174 CENTRAL PARK SQUARE,LOS ALAMOS,New Mexico,87544,(505) 662-3388,,,
FIRST CHOICE ABBEY CARPET,Paul Byer,101 G TOWN & COUNTRY DRIVE,DANVILLE,California,94526,(925) 838-5580,http://www.firstchoiceabbeycarpet.com,,
FLOOR CENTER,Julie Hamernick,1321 RICE ST,ST PAUL,Minnesota,55117,(651) 489-7007,http://www.floor-center.com,,
"FLOOR CONCEPTS, INC",Bruce Ball,4315 KIRKWOOD HWY,WILMINGTON,Delaware,19808,(302) 994-5002,http://www.abbeycarpet.com,,
FLOOR COVERING EXPRESS,Pete Kneeland,3143 BRIDGEPORT WAY W,UNIVERSITY PLACE,Washington,98466,(253) 566-6880,http://www.floorcoveringexpress.com,,
FLOOR COVERINGS INTERNATIONAL,Jeremiah Wynott,"2337 3RD AVE N, STE C",LEWISTON,Idaho,83501,(208) 743-7858,,,
FLOOR DEPOT,Bob Henry,311 SPENCER LANE,SAN ANTONIO,Texas,78201,(210) 734-4300,http://www.floordepotsa.com,,
"FLOOR ELEMENTS, INC",Tom Yarrish,1650 CROFTON BLVD,CROFTON,Maryland,21114,(410) 451-7111,,,
"FLOOR FACTORY INC, THE",Garry Sparks,13 S WENATCHEE AVE,WENATCHEE,Washington,98801,(509) 662-1421,http://www.thefloorfactory.com,,
FLOOR HUT,Creswell Rozario,"2929 CUSTER RD, SUITE 306",PLANO,Texas,75075,(972) 964-2300,http://www.floorhutinc.com,,
FLOOR O PEDICS INC,Bill Palicki,546 DUANE ST,GLEN ELLYN,Illinois,60137,(630) 858-8020,http://www.flooropedics.com,,
FLOOR PROS TILE & STONE,Scherry Hermansen,2626 OLD FAIR RD,GRAND ISLAND,Nebraska,68803,(308) 382-7800,http://www.floorprosgi.com,,
FLOOR QUEST,Tim Twohig,62 N ROLLING MEADOWS DR,FOND DU LAC,Wisconsin,54937,(920) 922-2006,http://www.floorquest.net,,
"FLOOR SHOW LTD, THE",Tara Gudmundson,1042 WAVERLEY ST,WINNIPEG,Manitoba,R3T 0P3,(204) 956-9720,http://www.thefloorshow.ca,,
"FLOOR STORE, THE",Fred Stumpf,904 ROUTE 110,FARMINGDALE,New York,11735,(631) 752-7520,,,
FLOOR TRADER,Jerry Jennings,3000 IOWA ST,LAWRENCE,Kansas,66046,(785) 841-3838,,,
FLOOR TRADER OF GULFPORT,Keith Rhodes,13216 HUGH SEYMOUR LANE,OCEAN SPRINGS,Mississippi,39564,(228) 831-5777,http://www.myfloortrader.com,,
"FLOOR TRADER OF REDDING, INC",Randall Spurgeon,5050 WESTSIDE RD,REDDING,California,96001,(530) 241-6896,http://www.floortraderredding.com,,
FLOORCRAFT CARPET ONE,Philip Lerner,470 BAYSHORE BLVD,SAN FRANCISCO,California,94124,(415) 824-4056,http://www.floorcrafthome.com,,
"FLOORING & MORE, INC",John Molski,2600 MORSE ST,JANESVILLE,Wisconsin,53545,(608) 757-1151,http://www.flooringandmoreinc.com,,
FLOORING 101 INC,Dimitrios Poulos,1660 S OXNARD BLVD,OXNARD,California,93030,(805) 486-8887,http://www.flooring101.com,,
FLOORING AMERICA,David Bailey,2883 McCARTY RD,SAGINAW,Michigan,48603,(989) 799-8190,http://www.flooringamerica.com,,
FLOORING AMERICA - CHANDLER,Dale Schnaible,"6909 W RAY RD, STE 5",CHANDLER,Arizona,85226,(480) 775-0160,,,
FLOORING AMERICA CARPET STUDIO,Scott Kemsley,2865 JOLLY RD,OKEMOS,Michigan,48864,(517) 351-6310,http://www.flooringamericalansing.com,,
FLOORING AMERICA HERNDON,Abe Drissi,2545-Q16 CENTERVILLE RD,HERNDON,Virginia,20171,(703) 793-1144,,,
FLOORING CANADA KELOWNA,Perry Hildebrandt,1788 A BARON RD,KELOWNA,British Columbia,V1X 7G9,(250) 763-1234,http://www.flooringcanadakelowna.ca,,
FLOORING SOLUTIONS,Todd Pospisil,"3206 RAASCH DR, STE 10",NORFOLK,Nebraska,68701,(402) 379-5757,http://www.norfolkflooringsolutions.com,,
FLOORRIGHT INTERIORS LTD,Darryl Moore,2915-32 ST SOUTH,LETHBRIDGE,Alberta,T1K 7B1,(403) 329-1780,http://www.floorright.ca,,
FLOORS & MORE INC,Carlton Billingsley,PO BOX 2560,BENTON,Arkansas,72018,(501) 316-0267,http://www.floorsandmorear.com,,
FLOORS ETC,John Ginsburg,"10709 GILROY RD, STE 150",HUNT VALLEY,Maryland,21031,(410) 329-9680,http://www.floors-etc.com,,
"FLOORS PLUS CARPET ONE, INC",Dennis Dewispelaere,3175 GOLDIE RD,OAK HARBOR,Washington,98277,(360) 679-5570,,,
FLOORS TO YOUR HOME,Brian Kahn,4640 LAFAYETTE RD,INDIANAPOLIS,Indiana,46254,(317) 328-8989,http://www.floorstoyourhome.com,,
"FLOORS-A-LOT, INC",Will Neff,"14712 MERIDIAN AVE E, #8",PUYALLUP,Washington,98375,(253) 446-1616,http://www.floorsalot.com,,
FOGEL'S CARPET & VINYL,Ann Helms,2825 WASHINGTON RD,AUGUSTA,Georgia,30909,(706) 738-9703,http://www.fogelsfinefloors.com,,
FRANEY'S CARPET ONE DESIGN CENTER,Mark Franey,121 N ENCINA,VISALIA,California,93291,(559) 733-9990,http://www.franeysdesigncenter.com,,
FRED'S CARPET,Richard Capobianco,318 LARKFIELD RD,E NORTHPORT,New York,11731,(631) 368-1850,,,
FRED'S CARPETS PLUS,Jerry Butler,2153 W TORRANCE BLVD,TORRANCE,California,90501,(310) 533-8133,http://www.fredscarpetsplus.com,,
G. FRIED CARPET & DESIGN CENTER,Wendy Fried,800 OLD COUNTRY RD,WESTBURY,New York,5419,(516) 333-3900,http://www.gfriedcarpet.com,,
GALLAGHER INTERIORS,Patrick Gallagher,4125 MARKET ST #17,VENTURA,California,93003,(805) 644-7550,,,
GALLERY CARPET ONE FLOOR & HOME,Jeff Glass,8174 N. UNIVERSITY DR,TAMARAC,Florida,33321,(954) 724-8888,http://www.carpetone.com,,
GENESIS FLOORING AMERICA,Michael Kaplan,"577 JOHNSVILLE RD, STE 4",SYKESVILLE,Maryland,21784,(410) 552-6410,http://www.genesisfa.com,,
GENEVA FLOORING,Judy Wells,"9360 ACTIVITY RD, STE D",SAN DIEGO,California,92126,(858) 547-8069,http://www.genevaflooring.com,,
"GEORGE KASHOU CO, INC, THE",Robert Kashou,2169 N FARWELL,MILWAUKEE,Wisconsin,1191,(414) 271-9020,http://www.kashoucarpets.com,,
GEORGE'S CARPET ONE FLOOR & HOME,George Houzouris,303 S ATWOOD RD,BEL AIR,Maryland,21014,(410) 879-6440,http://www.georgesc1.com,,
GIANT CARPET ONE,Barry Sutton,823 S MAIN ST,SALT LAKE CITY,Utah,84111,(801) 363-4563,http://www.carpet1.com,,
GLEN FLOORS,Jerry Capobianco,30 GLEN ST,GLEN COVE,New York,2703,(516) 671-3737,http://www.glenfloors.com,,
"GLINES CARPET ONE, INC",Mike Glines,671-B COLUSA AVE,YUBA CITY,California,95991,(530) 673-1450,,,
GLUTH CONTRACT FLOORING,Dave Gluth,4428 115TH ST SE,EVERETT,Washington,98208,(425) 493-9100,http://www.gcflooring.com,,
GRAYBEAL'S CARPET PLUS LLC,William Graybeal,508 E BROADWAY,LOGANSPORT,Indiana,46947,(574) 722-2215,http://www.thegraymill.com,,
GREAT FLOORS,MORRIS WEATHERFORD,2855 E FAIRVIEW,MERIDIAN,Idaho,83642,(208) 884-1975,http://www.greatfloors.com,,
GREAT FLOORS,Steve Watts,231 E FRANCIS,SPOKANE,Washington,99208,(509) 482-0839,http://www.greatfloors.com,,
GREER'S FLOORING AMERICA,Mel Greer,2201 COVERT AVE,EVANSVILLE,Indiana,47714,(812) 471-0400,,,
HADINGER CARPET CO,Thomas Hadinger,6401 N AIRPORT RD,NAPLES,Florida,34109,(239) 566-7100,http://hadingerflooring.com/,,
HANOVER CARPET ONE,Jim Nesbitt,11601 SHELDON RD,TAMPA,Florida,33626,(813) 920-0706,http://www.hanoverfloors.com,,
HARRIS CARPETS - FLOORING AMERICA,Scott Junkins,51 CIVIC CENTER BLVD,ANDERSON,South Carolina,28625,(564) 225-8631,,,
HARRY KATZ CARPET ONE,Cynthia Sigadel,450 JERICHO TURNPIKE,MINEOLA,New York,1135,(516) 746-1458,http://www.carpetone.com,,
HARRY'S CARPET ONE,Harry Balekjian,PO BOX 192,WOLLASTON,Massachusetts,192,(617) 328-4002,http://www.harryscarpetonequincy.com,,
HATLOE'S CARPET ONE,Steve Hatloe,3701 RUCKER AVE,EVERETT,Washington,98201,(425) 259-5104,http://www.hatloes.com,,
"HAWKIN'S FLOOR CO, INC",Charles Hawkins,"7851 AIR PARK RD, UNIT 213",GAITHERSBURG,Maryland,20879,(301) 948-5520,http://www.hawkinsfloor.com,,
HERITAGE CARPET & FLOORING,Dennis Clay,1440 N MAIN ST,N CANTON,Ohio,44720,(330) 497-1280,http://www.heritage-carpet.com,,
HICKERSON FLOOR & TILE HAUS,Michele Hickerson,2234 M 32 WEST,GAYLORD,Michigan,49735,(989) 731-2003,http://www.hickersonfloor.com,,
HIGHLAND FLOORS,Dennis Ford,4050 S McCARRAN BLVD #F,RENO,Nevada,89502,(775) 828-2112,,,
HIGHWAY FLOORING INC,Ruichuan Yu,140 ETHEL RD W,PISCATAWAY,New Jersey,8854,(732) 287-9979,http://www.bestwoodfloor.com,,
HINELINE HOME FURNITURE,Gary Hineline,2205 23RD ST,HARLAN,Iowa,51537,(712) 755-5118,,,
"HMS ENTERPRISES, INC",Keith Smith,206 N WEICHERT ST,GIRARD,Kansas,66743,(620) 395-2151,http://www.hms-enterprises.com,,
HOME CARPET ONE,Joel Schreier,3071 N LINCOLN AVE,CHICAGO,Illinois,60657,(773) 935-9314,http://www.homecarpet1.com,,
"HOME CARPET WAREHOUSE, INC",Jon Vigre,1793 NE KRESKY AVE,CHEHALIS,Washington,98532,(360) 748-1650,http://www.homecarpet.net,,
HOME-BASED CARPET & FLOORING,Greg Keairns,PO BOX 498869,CINCINNATI,Ohio,45249,(513) 373-8540,http://www.CincinnatiFloorings.com,,
HOMEWORKS CARPET ONE,Warren Hamstead,"8403 COASTAL HWY, STE B",OCEAN CITY,Maryland,2724,(410) 524-5454,http://www.homeworkscarpetone.com,,
"HOOSIER FLOOR COVERING, INC",Mark Dougherty,1180 S LIBERTY DR STE 160,BLOOMINGTON,Indiana,5146,(812) 323-0100,http://www.carpetspluscolortilein.com,,
HOPKINS CARPET ONE,Dan Tillman,907 HOPKINS CTR,HOPKINS,Minnesota,55343,(952) 933-6422,http://www.hopkinscarpetone.com,,
HOSKING HARDWOOD FLOORING,Jeff Hosking,805 S WASHINGTON ST,NORTH ATTLEBORO,Massachusetts,2760,(508) 643-0810,http://www.hoskinghardwood.com,,
"HOUSE OF CARPETS, INC",Tony Porcelli,1135 MONTAUK HWY,MASTIC,New York,11950,(631) 399-1890,,,
"HUSKINS FLOOR COVERING, LLC",Albert Huskins,1723 S HURON RD,KAWKAWLIN,Michigan,48631,(989) 391-9491,,,
IDEAL FLOORS,Kevin Hames,638 E HWY 67,DUNCANVILLE,Texas,75137,(972) 283-6600,http://www.idealfloors.com,,
IMPERIAL FLOORS,Douglas Gubrud,PO BOX 10030,EUGENE,Oregon,97440,(541) 342-5031,http://www.imperialfloors.com,,
INSIDE DESIGN CARPET ONE FLOOR & HOME,Joel McDonald,2101 N DUNCAN DR,WENATCHEE,Washington,98801,(509) 662-9500,http://www.insidedesignc1.com,,
J & S DESIGNER FLOORING,Sima Hakakian,12 MT KEMBLE AVE,MORRISTOWN,New Jersey,7960,(973) 605-5225,http://www.jsdesignerflooring.com,,
J. B. FACTORY CARPETS - BELLEVUE,Ray Glover,13310 BEL RED RD,BELLEVUE,Washington,98005,(425) 644-4777,http://www.flooringamerica.com,,
JACOBI'S CARPET ONE FLOOR & HOME,Timothy Jacobi,PO BOX 881,HASTINGS,Nebraska,68901,(402) 463-3811,http://www.jacobicarpet.com,,
JAN'S ENTERPRISES INC,Carlos Solano,853 FAIRWAY DR,BENSENVILLE,Illinois,1312,(630) 350-0455,http://www.jansflooring.com,,
JOEL'S DECORATING CENTER,Stephen Mathews,1900 CROCKETT RD,PALESTINE,Texas,75801,(903) 729-3333,http://www.joelsdecoratingcenter.com,,
JONES CARPET ONE,Bob Jones,14830 NORTHWEST FREEWAY,HOUSTON,Texas,77040,(713) 466-6611,http://www.jonescarpetone.com,,
KAHULUI CARPET & DRAPERY,Mel Pomroy,296 ALA MAHA ST #Z-3,KAHULUI,Hawaii,96732,(808) 871-1033,,,
KAY RILEY & SONS CAPRET,Hal Riley,96 N 500 WEST,BOUNTIFUL,Utah,84010,(801) 295-0434,http://www.kayriley.com,,
KEHNE'S CARPET ONE,Dick Santora,1306 W PATRICK ST,FREDERICK,Maryland,21703,(301) 662-1261,http://www.carpetone.com,,
KEN'S FLOOR TO CEILING,Ken Walpole,1914 FOURTH ST,SAN RAFAEL,California,94901,(415) 454-5367,http://www.kenscarpets.com,,
KENNY'S FLOOR COVERING CO,Kenneth Schroeder,"3812 N RICHMOND RD, UNIT A",MCHENRY,Illinois,60050,(815) 385-4069,http://www.kennysfloors.com,,
"KERN CARPETS, INC",Rosie Abercrombie,3624 BUCK OWENS BLVD,BAKERSFIELD,California,93308,(661) 391-8100,http://www.kerncarpetsinc.com,,
KERR FLOORS,Willis Kerr,6491 MANTONA ST,LONG BEACH,California,90815,(714) 374-7040,,,
KISS CARPET INC,Ken Roberts,7152 US 131 N,MANCELONA,Michigan,49659,(231) 587-9450,http://www.kisscarpet.com,,
"KOEBERS CARPETS, INC",George Koeber,6700 SW 111TH AVE,BEAVERTON,Oregon,97008,(503) 641-1901,http://www.koebers.com,,
KRAAI FURNITURE CARPET ONE,Dan Kraai,208 ALBANY AVE,ORANGE CITY,Iowa,51041,(712) 737-4923,http://www.kraais.com,,
LA MESA CARPET & LINOLEUM,Mark McDonald,8772 LA MESA BLVD,LA MESA,California,91942,(619) 463-7755,,,
LEBLANC FLOORS,Pieter Sundgren,5030 208TH ST SW #B,LYNNWOOD,Washington,98036,(206) 852-8969,http://www.LeblancFloors.com,,
LEI FLOORING & WINDOW COVERINGS,John Burkett,430 ALAMAHA ST #103,KAHULUI,Hawaii,96732,(808) 871-8008,http://www.leiflooringmaui.com,,
LEIFELD'S FURNITURE,Jennifer Leifeld,429 W MAIN,ALBION,Nebraska,68620,(402) 395-3387,,,
LEVI'S 4 FLOORS,Tyler Levi,6329 BUSCH BLVD,COLUMBUS,Ohio,43229,(614) 846-4441,http://www.levis4floors.com,,
LEWIS FLOOR AND HOME,Steven Lewis,1840 SKOKIE BLVD,NORTHBROOK,Illinois,60062,(847) 835-2400,http://www.lewisfloorandhome.com,,
LIBERTY CARPET ONE,Mark Bisbee,3170-1 DRAPER DR,FAIRFAX,Virginia,5113,(703) 691-1616,http://libertycarpetone.com,,
"LINOLEUM SHOP INC, THE",Mark Caruso,402 W INDIANA AVE,SPOKANE,Washington,99205,(509) 327-6661,,,
LONG'S CARPET & INTERIORS,Daniel Long,4200 11TH ST,ROCK ISLAND,Illinois,6762,(309) 786-3656,http://longscarpet.net,,
LORRAINE FLOOR COVERING INC.,Louis Carillo,47-45 31ST PL,LONG ISLAND CITY,New York,11010,(718) 482-0068,,,
LUX FLOORING SPECIALIST,Armani Mahoozi,PO BOX 4097,OAKTON,Virginia,8497,(703) 352-0042,http://www.luxfloors.com,,
LYNDEN FLOOR & DESIGN CORP,Ben Ryan,2017 FRONT STREET,LYNDEN,Washington,98264,(360) 354-4149,http://www.lyndenfloordesign.com,,
M & L ASSOCIATES,Mike Levin,1160 N DATO LN,WAUCONDA,Illinois,60084,(847) 526-4654,,,
MACADAM FLOOR AND DESIGN,Desirae Schubert,"13028 INTERURBAN AVE S, # 116",TUKWILA,Washington,98168,(206) 658-2000,,,
MAIN FLOOR CARPETS LTD,Ken Straarup,#4-645 SOUTH RAILWAY ST SE,MEDICINE HAT,Alberta,T1A 2V8,(403) 527-9900,http://www.mainfloorcarpets.com,,
MAJESTIC FLOORING & DESIGN,Rod Bradley,4501 CHINDEN,GARDEN CITY,Idaho,83714,(208) 378-9190,http://www.majestic-flooring.com,,
"MAJESTIC FLOORS, INC",Vince Steele,5111 PORT CHICAGO HWY,CONCORD,California,94520,(925) 825-0771,,,
MAJOR BRANDS FLOORS / ABBEY CARPET  & FLOOR,Curt Stiger,2418 1ST AVE S,SEATTLE,Washington,98134,(206) 623-3550,http://www.abbeycarpet.com,,
MALKIN'S CARPETS INC,Marty Schallock,N95 W17055 RICHFIELD WAY,MENOMONEE FALLS,Wisconsin,53051,(262) 255-1400,http://malkinscarpets.com,,
MALOOLY'S FLOORING COMPANY,Georgette Malooly,765 N VALLEY DR,LAS CRUCES,New Mexico,88005,(575) 523-0633,http://www.maloolys.com,,
MARDEN'S INC,David Marden,564 WILSON ST,BREWER,Maine,4412,(207) 989-1750,http://www.mardenssurplus.com,,
"MARTIN GREENBAUM COMPANY, INC",Harvey Greenbaum,7144 AMBASSADOR RD,BALTIMORE,Maryland,21244,(410) 998-1044,http://www.mgcarpet.com,,
MARTINS FLOORING INC,Michael Martin,608 DWIGHT RD,DENVER,Pennsylvania,17517,(717) 445-7799,http://www.martinsflooring.com,,
MARTY'S CONTRACT CARPET,Marty Dixon,191 N EL CAMINO REAL #112,ENCINITAS,California,92024,(760) 436-9030,http://www.contractcarpet.com,,
"MAXIMUM FLOORING, INC",Eugene Coizza,16450 CROSSBAY BLVD,HOWARD BEACH,New York,11414,(718) 843-1010,,,
MC CLINCY'S,Tim McClincy,4604 NE 4TH ST,RENTON,Washington,98059,(425) 228-3427,http://www.mcclincys.com,,
"MC DANIELS, INC",Mike Mc Daniel,PO BOX 1050,CLOVIS,New Mexico,88101,(575) 762-4481,http://www.mcdanielshomefurnishings.com,,
MC KEAN'S FLOOR TO CEILING,Darren McKean,10811 HARRISON ST,OMAHA,Nebraska,68128,(402) 331-4062,http://www.mckeans.com,,
MC LARENS CARPET ONE FLOOR & HOME,Steve McLaren,24403 S HWY 99E,CANBY,Oregon,97013,(503) 266-4095,,,
MCMURDY FLOORS & INTERIORS,Jeanne McMurdy,2166 E CRESCENT PL,CHANDLER,Arizona,85249,(480) 688-8232,,,
"MERTEL CARPETS, INC",Jeff Mertel,4212 REDWOOD HWY,SAN RAFAEL,California,94903,(415) 479-2180,http://www.mertelcarpets.com,,
"MESA FLOOR COVERINGS, INC",Danny Maldonado,729 E HIGH ST,GRANTS,New Mexico,87020,(505) 287-2631,,,
MESSNER CARPETING,Peter Messner,1344 UNIVERSITY AVE,ROCHESTER,New York,14607,(585) 271-5670,http://www.messnercarpet.com,,
"METRO CARPETS, INC",Jeffrey Paul,1286 W 150 S,PRINCETON,Indiana,47670,(812) 385-2279,http://www.metrocarpetsinc.com,,
METRO FLOORING,Nat Koren,7340 MIRAMAR RD #C1A,SAN DIEGO,California,92126,(858) 549-2900,http://www.metroflooring.com,,
MIKE'S CARPET,Mike Rafatjah,11220 BALTIMORE AVE,BELTSVILLE,Maryland,20705,(301) 937-2221,http://www.mikescarpet.com,,
MILBURN CARPET ONE,Charles Colletti,20 35TH ST,COPIAGUE,New York,11726,(631) 842-1600,http://www.carpetone.com,,
"MILLER'S CARPETS, INC",Mark Miller,2228 SAGAMORE PKWY SOUTH,LAFAYETTE,Indiana,47905,(765) 429-8899,http://www.millersflooringamerica.com,,
MIRON'S FOR FLOORS,Dick Miron,PO BOX 85,COHOES,New York,85,(518) 237-1313,http://www.mironsforfloors.com,,
MODERN DESIGN FLOORING LLC,Frank Schultz,846 E. BRANDON BLVD,BRANDON,Florida,33511,(813) 571-5566,http://www.worldoffloorsflorida.com,,
MOHR'S FLOORS,Darrell Mohr,1036 BRYDEN,LEWISTON,Idaho,83501,(208) 798-4738,,,
MORFORD'S DECORATING CENTER INC,Merle Morford,132 W 3RD ST,CHADRON,Nebraska,69337,(308) 432-3149,,,
"MORRISON-CLARK, INC",David Clark,"889 S BARRE RD, RT 14",S BARRE,Vermont,5670,(802) 479-5572,http://www.flooringplus.com,,
MOUNTAIN STATES MARKETING & SALES,Dean Zekas,3950 SOUTH 300 WEST,SALT LAKE CITY,Utah,84107,(801) 261-4148,http://www.mountainstatesmarketing.com,,
MR. FLOOR COMPANIES,Igor Murokh,3828 W OAKTON ST,SKOKIE,Illinois,60076,(847) 674-7500,http://www.mrfloor.com,,
MR. G'S FLOORING AMERICA,Glenn Hafele,1808 HICKORY DR,FORT WORTH,Texas,76117,(817) 834-1967,http://www.mrgfa.com,,
MURRAY FLOOR & WINDOW COVERINGS,Kevin Murray,1343 BROADWATER AVE #1,BILLINGS,Montana,59102,(406) 373-0055,http://www.floorsandwindowsmt.com,,
MY FLOORING TEXAS,Kelby Frederick,3008 SOUTH I-35 EAST,DENTON,Texas,76205,(940) 565-0199,http://www.MyFlooringAmerica.com,,
MYERS FLOORING,Ray Myers,641 DIVISION ST,NASHVILLE,Tennessee,37203,(615) 777-3344,http://www.myerscarpet.com,,
NAMPA FLOOR AND INTERIORS,Morris Weatherford,2121 E PLAZA LOOP,NAMPA,Idaho,4966,(208) 466-8461,http://www.nampafloors.com,,
NEBRASKA CITY UPHOLSTRY & DESIGN,Dorothy Symonsbergen,1412 FIRST AVE,NEBRASKA CITY,Nebraska,68410,(402) 873-3505,http://www.dorothysdecoratetoday.com,,
NEBRASKA FURNITURE MART,David Snedeker,700 S 72ND ST,OMAHA,Nebraska,68114,(402) 392-3420,http://www.nfm.com,,
"NELSEN FURNITURE, INC",David Nelsen,250 N MAIN ST,VALENTINE,Nebraska,69201,(402) 376-1360,http://www.nelsenfurniture.com,,
NEW LIFESTYLES CARPET ONE FLOOR & HOME,Arthur Scurlock,PO BOX 948,BLOWING ROCK,North Carolina,28605,(828) 898-8586,http://www.nlscarpetone.com,,
NIELSEN BROTHERS CARPET,James Nielsen,PO BOX 70524,SEATTLE,Washington,98127,(206) 783-3040,http://www.nbfloors.com,,
NORTHWEST GRANITE & FLOORING LLC,Jeremey Jackson,687 MOBIUS LOOP,OAK HARBOR,Washington,98277,(360) 675-4978,http://www.nwgraniteandflooring.com,,
NORTHWEST TRENDS / FLOORING AMERICA,Bud Scott,11315 E MONTGOMERY DR,SPOKANE,Washington,99206,(509) 921-9857,,,
O' CONNOR'S CARPET ONE DECORATING CTR,Linda Tomandl,5355 GRATIOT,SAGINAW,Michigan,48638,(989) 793-0960,http://www.oconnorscarpetone.com,,
O' KRENT'S ABBEY FLOORING CENTER,Sam O'Krent,2075 N LOOP 1604 E,SAN ANTONIO,Texas,78232,(210) 227-7387,http://www.okrentfloors.com,,
OLD TOWN FLOORING,Mike Flamme,160 E MAIN ST,TUSTIN,California,92780,(714) 730-3567,http://www.oldtownflooring.com,,
OLSON RUG & FLOORING,Robert Rosenberg,832 S CENTRAL AVE,CHICAGO,Illinois,60644,(773) 921-1300,http://www.olsonrug.com,,
OZBURN-HESSEY,Mark Poag,402 MURFREESBORO RD,NASHVILLE,Tennessee,951,(615) 254-1585,,,
P & H FLOORING LLC,Dan Place,659 LINCOLN WAY E,MCCONNELLSBURG,Pennsylvania,17233,(717) 485-4383,http://www.phflooring.com,,
P. A. FLOORING DEPOT,Todd Rumney,2936 3RD AVE,PORT ALBERNI,British Columbia,V9Y 2A7,(250) 724-5677,,,
"PALOMAR FLOOR COVERINGS, INC",Mark Johnson,"6260 MARINDUSTRY DR, STE A",SAN DIEGO,California,92121,(858) 578-8110,http://www.palomarfloors.com,,
PARADISE CARPET ONE FLOOR & HOME,Jeff Wyatt,2108 W 27TH ST STE E,LAWRENCE,Kansas,66047,(785) 856-8011,http://www.paradisecarpetone.com,,
PARK RUG CO. INC,Nan Ganim,9590 LYNN BUFF CT,LAUREL,Maryland,20723,(301) 776-4000,http://www.parkrugcompany.com,,
PAT'S CARPET OUTLET INC,Joan Esposito,100 SAXON AVE,BAY SHORE,New York,7029,(631) 665-4670,,,
PERRY CARPET SHACK,D. Robbins,PO BOX 882,PERRY,Kansas,66073,(785) 597-5110,http://www.perrycarpetshack.com,,
PETERSEN'S CARPET AND FLOORING,Gayle Peterson,1060 W PATRICK ST,FREDERICK,Maryland,21703,(301) 698-4789,http://www.petersenscarpetandflooring.com,,
PHILLIPS FLOORING CENTER,Rodney Phillips,1904 JUDSON RD,LONGVIEW,Texas,75605,(903) 236-4900,http://www.phillipsflooring.com,,
PIERCE FLOORING & DESIGN,G. Ron Pierce,PO BOX 80667,BILLINGS,Montana,59108,(406) 652-4666,http://www.pierce.biz,,
PIONEER CARPET ONE,Brent Compton,326 2ND AVE SOUTH,TWIN FALLS,Idaho,83301,(208) 734-6015,http://www.pioneercarpetone.com,,
"POTOMAC TILE & CARPET, INC",Paula Biser,918 N EAST ST,FREDERICK,Maryland,21701,(301) 694-0288,http://www.potomactileandcarpet.com,,
"PRECISION SURFACES, LLC",Jay Zurn,415 MISTY MEADOWS BLVD,HARTFORD,Wisconsin,53027,(262) 388-3730,http://www.precision-surfaces.com,,
PROSOURCE OF CHICAGO NORTH,Kevin Mills,2125 ESTES AVE,ELK GROVE,Illinois,60007,(547) 986-8800,,,
PROSOURCE OF CHICAGO WEST,Jeff Bernstein,2012 CORPORATE LN #136,NAPERVILLE,Illinois,60563,(630) 579-0900,,,
PROSOURCE OF CHICAGO WEST LOOP,Mark Stolt,410 N CARPENTER ST,CHICAGO,Illinois,60622,(312) 829-8800,,,
PROSOURCE OF COLUMBIA,Jim Farrell,26 W MAIN ST,WESTMINSTER,Maryland,21157,(301) 490-9420,,,
PROSOURCE OF DULLES,Steven Rowell,"21586 ATLANTIC BLVD, STE 100",DULLES,Virginia,20166,(703) 673-4100,http://www.prosourcefloors.com/dulles,,
PROSOURCE OF ERIE,Steven Riesenberg,2220 WEST 15TH ST,ERIE,Pennsylvania,16505,(814) 455-7900,http://www.prosourcefloors.com,,
PROSOURCE OF GONZALES,Daniel Kennedy,2325 S COMMERCE ST,GONZALES,Louisiana,70737,(225) 450-2400,http://www.prosourcefloors.com/gonzales,,
PROSOURCE OF HAMPTON ROADS,Jerry Gazzilli,1738 LAMBERT CT,CHESAPEAKE,Virginia,23320,(757) 523-5000,,,
PROSOURCE OF INDIANAPOLIS,David Grande,8001 CASTLEWAY DR,INDIANAPOLIS,Indiana,46250,(317) 915-8200,http://www.prosourcefloors.com/indianapolis.com,,
PROSOURCE OF MADISON,Todd Hiltbrand,"2911 MARKETPLACE DR, STE A",FITCHBURG,Wisconsin,53719,(608) 441-0101,http://www.prosourcefloors.com,,
PROSOURCE OF MANDEVILLE,Eric Gremillion,13464 SEYMOUR MYERS BLVD,COVINGTON,Louisiana,70433,(985) 867-9590,,,
PROSOURCE OF MOBILE,Eric Kennedy,3761 JOY SPRINGS DRIVE,MOBILE,Alabama,36693,(251) 660-6690,,,
PROSOURCE OF PHOENIX,Rick Schildgen,20802 N 19TH AVE,PHOENIX,Arizona,85027,(623) 434-3100,http://www.prosourcefloors.com/phoenix,,
PROSOURCE OF PINELLAS COUNTY,Kathy Luke,12397 BELCHER RD S,LARGO,Florida,33773,(727) 545-9935,,,
PROSOURCE OF SPOKANE,Cheryl Scribner,3820 E MAIN,SPOKANE,Washington,99202,(509) 536-1120,,,
PROSOURCE OF VOLUSIA COUNTY,Bill Ruddy,1039 MASON AVE,DAYTONA BEACH,Florida,32117,(386) 252-2229,,,
"PYRAMID SOUTHWEST, INC",David Poarch,"2320 W PEORIA AVE, B-141",PHOENIX,Arizona,85029,(602) 482-3763,,,
QUALITY FLOORING CENTER,Elaine Harper,714 PETALUMA BLVD N,PETALUMA,California,94952,(707) 763-9663,http://www.qualityflooringcenter.com,,
R J'S CARPET SERVICE,Rick Stuckenschneider,2211 E WINSTON RD #B,ANAHEIM,California,92806,(714) 991-8300,,,
R.C. WILLEY,Steve Workman,6636 LONETREE BLVD,ROCKLIN,California,95765,(916) 770-2420,http://www.rcwilley.com,,
"RABY CO, THE",Phillip Raby,6812 ACADEMY PARKWAY EAST NE,ALBUQUERQUE,New Mexico,87109,(505) 244-3165,,,
"RALPH'S FLOOR FASHIONS, INC",Ralph Krall,300 S SUMMIT,WASHINGTON,Illinois,61571,(309) 745-9341,http://www.ralphsfloorfashions.com,,
RALPH'S FLOORS HOME DECORATING CENTER,Blaine Kooy,1843 FRONT ST,LYNDEN,Washington,98264,(360) 354-4804,http://www.ralphsfloors.com,,
RANDALL LEE'S FLOORING AMERICA,Deborah Lee,PO BOX 2416,GEARHART,Oregon,97138,(503) 738-5729,http://www.randallleesflooring.com,,
"RAY'S FLOORING SPECIALISTS, INC",Raymond Lucero,7401 LOS VOLCANES NW,ALBUQUERQUE,New Mexico,87121,(505) 883-1967,http://www.raysflooring.com,,
REIDY RUG SERVICES INC,Richard Reidy,340 W WASHINGTON AVE,ELMIRA,New York,14901,(607) 732-4050,,,
REINHART CARPET OUTLET INC,Fred Reinhart,67 W QUEEN LANE,PHILADELPHIA,Pennsylvania,19144,(215) 849-2222,http://www.reinhartcarpetoutlet.com,,
RHEINSCHMIDT'S CARPET CENTER,Terry Hartley,876 W MAIN ST,GALESBURG,Illinois,61401,(309) 342-9141,http://www.rheinschmidts.com,,
RITEWAY FLOORING AMERICA,Genie Shupe,489 S CAMINO DEL RIO,DURANGO,Colorado,81303,(970) 259-5360,http://www.ritewayflooringamerica.com,,
ROBISON DISTRIBUTING CO,Kay Robison,PO BOX 2309,SALT LAKE CITY,Utah,84110,(801) 486-3511,,,
"ROCHESTER RUG MARKET, INC",Daniel Buerkle,1085 RIDGE RD E,ROCHESTER,New York,14621,(585) 544-8690,http://www.therugmarketny.com,,
"RON & RUSS'S FLOORING & DESIGN, INC",Ron Romero,2648 S KINNICKINNIC AVE,MILWAUKEE,Wisconsin,53207,(414) 769-9696,http://www.ronandruss.com,,
RON'S CARPETS INC,Carol Hayse,1003 NE ADAMS ST,PEORIA,Illinois,61603,(309) 674-3338,http://www.ronscarpetsinc.com,,
ROTMANS,Barry Rotman,725 SOUTHBRIDGE ST,WORCESTER,Massachusetts,1610,(508) 755-5276,http://www.rotmans.com,,
"RUG MART, THE \ CARPET ONE",Terry Ownes,P.O. BOX 456,FLEMINGTON,New Jersey,8822,(908) 782-3831,http://www.therugmartcarpetoneflemington.com,,
RUG PAD CORNER,Sam Kaoud,27 DANBURY RD,WILTON,Connecticut,6897,(888) 400-7098,http://www.rugpadcorner.com,,
RUGGS BENEDICT CARPET ONE,Roger Benedict,PO BOX 830,AVON,Colorado,81620,(970) 949-5390,http://www.ruggsbenedict.com,,
"RYAN FLOORS, INC",Robert Klausing,7534 RICKENBACKER DR,GAITHERSBURG,Maryland,20879,(301) 258-1900,,,
SAM KINNAIRD'S FLOORING,Donna Mudd,4303 POPLAR LEVEL RD,LOUISVILLE,Kentucky,40213,(502) 451-2600,http://www.samkinnairdsflooring.com,,
SANDS CARPET ONE LTD,Jeff Fraleigh,8316 MANNING AVE,FORT,Alberta,T9H 1W1,(780) 743-8211,http://www.sandscarpetonefortmcmurray.com,,
SCHARM FLOOR COVERING,Fred Scharm,1843 E OAKTON ST,DES PLAINES,Illinois,60018,(847) 298-8233,http://www.scharm.com,,
SCHNEIDER'S FLOORING AMERICA,Maxine Schneider,400-3 TALCOTTVILLE RD,VERNON,Connecticut,6066,(860) 870-0055,http://www.flooringamericavernon.com,,
"SCHUBERT FLOORCOVERING, CO",Greg Schubert,8305 7TH AVE SOUTH,SEATTLE,Washington,98108,(206) 762-2300,,,
SCOTTSDALE FLOORING AMERICA,Ed Boettcher,10250 N 9OTH ST #102,SCOTTSDALE,Arizona,85258,(480) 451-9600,,,
SCRANTON FLOORING & SUPPLY,Dix Scranton,711 MICHIGAN,NORFOLK,Nebraska,68701,(402) 640-7701,,,
SEESTEDT'S CARPET & LINOLEUM,Patrick Yeager,282 E 6TH ST,ST PAUL,Minnesota,55101,(651) 224-5474,http://www.seestedtscarpet.com,,
"SID'S CARPET BARN, INC",Allan Ziman,132 W 8TH ST,NATIONAL CITY,California,91950,(619) 477-7000,http://www.sidscarpet.com,,
SIGNATURE CARPET ONE,John Shea,41215 ALBRAE ST,FREMONT,California,94538,(510) 651-9494,http://www.signaturecarpetonefremont.com,,
SNEED'S CARPET & INTERIORS,Phil Sneed,10115 SW HALL BLVD,TIGARD,Oregon,97223,(503) 245-7500,http://www.sneedsinteriors.com,,
STAFF CARPET & VINYL,John Staff,2527 N 5TH ST,SPRINGFIELD,Illinois,62702,(217) 528-4879,http://www.staffcarpet.com,,
"STANDARD PAINT AND FLOORING, LLC",Regan Myers,101 N 3RD AVE,YAKIMA,Washington,98902,(509) 453-3171,http://www.standardpaintandflooring.com,,
STOLLER FLOORS,Tony Stoller,1773 N MAIN ST,ORRVILLE,Ohio,44667,(330) 683-4763,http://www.stollerfloors.com,,
STROUP FLOORING AMERICA,Gilbert Stroup,5801 BUCKEYSTOWN PIKE,FREDERICK,Maryland,21704,(301) 631-5800,http://stroupflooringamerica.com,,
STYLE-CRAFT CARPET ONE,Bill Thacker,2475 McGILCHRIST SE,SALEM,Oregon,97302,(503) 588-7676,http://www.carpetone.com/stylecraft,,
SUMNER CARPET ONE,Heather Reese,"16501 64TH ST EAST, STE A",SUMNER,Washington,98390,(253) 863-9100,http://www.carpetone.com,,
SUPER FLOORS,Lee Singer,6911 S 196TH ST,KENT,Washington,98032,(253) 872-3555,http://www.superfloors.com,,
"SUPERB CARPETS, INC",Mike Loewe,2010 N GARY AVE,WHEATON,Illinois,60187,(630) 682-4462,http://www.superbcarpets.com,,
"SUPERIOR CORP OF ILLINOIS, LLC",Michael Grzegorzawski,750 LEE ST,ELK GROVE,Illinois,60007,(847) 806-9900,,,
SUPERIOR FLOOR COVERINGS,Michael Olson,601 MENDOCINO AVE,SANTA ROSA,California,95401,(707) 575-9331,http://www.superiorfloorcoverings.com,,
SUSAN THORSEN INTERIORS INC,Susan Thorsen,5510 W CLEARWATER AVE,KENNEWICK,Washington,99336,(509) 736-6459,,,
SWIFT FLOORING CONTRACTORS LLC,Jim Parker,10611 IRON BRIDGE RD SUITE A & B,JESSUP,Maryland,20794,(301) 543-8070,http://www.swift-flooring.com,,
"TAYLOR CARPET ONE, INC",John Taylor,12960 METRO PARK WAY,FORT MYERS,Florida,1319,(239) 561-1199,http://www.taylorcarpetone.com,,
THE FLOOR TRADER,Brian Dillistin,12642 BROAD STREET RD,RICHMOND,Virginia,23233,(804) 360-8223,http://www.floortraderofrichmond.com,,
THE FLOOR TRADER,Jim Gleaton,10769-05 BEACH BLVD,JACKSONVILLE,Florida,32246,(904) 565-9615,http://www.floortraderjacksonville.com,,
TILE 'N' MORE,Don Walesewiz,328 W SUNSET DR,WAUKESHA,Wisconsin,53189,(262) 549-6162,,,
"TOLLEFSON'S RETAIL GROUP, INC",Mark Tollefson,PO BOX 698,MINOT,North Dakota,58702,(701) 852-0565,http://www.carpetgarage.com,,
TONASKET INTERIORS,Tim Alley,PO BOX 858,TONASKET,Washington,98855,(509) 486-1096,http://www.tonasketinteriors.com,,
TONTINE CARPET ONE,Toby Klyn,1071 UNION ROAD,WEST SENECA,New York,14224,(716) 837-0542,http://www.tontinecarpetone.com,,
"TOTAL FLOORING, INC",David Alo,13412 W 159TH ST,HOMER GLEN,Illinois,7950,(708) 301-4142,http://www.total-flooring.com,,
TRADEWAY STORES,Marsha Conwill,PO BOX 808,EL CERRITO,California,94530,(510) 233-0841,,,
TRI-COUNTY FLOORS,Brian Miller,PO BOX 751450,PETALUMA,California,94975,(707) 527-1010,http://www.tricountyfloors.com,,
TRI-STATE FLOOR COVERING SUPPLIES INC,Greg McSwain,10311 EVENDALE DR,CINCINNATI,Ohio,45241,(513) 554-4404,http://www.tri-statefloor.com,,
TUDOR CARPET ONE,Jan Stump,605 SILHAVY RD,VALPARAISO,Indiana,46383,(219) 462-8026,http://www.tudorfloors.com,,
TUTTLE'S CARPET ONE,Kevin Hentzen,"27751 LA PAZ RD, STE A",LAGUNA NIGUEL,California,92677,(949) 831-1332,,,
VALLEY CARPET ONE,Marty Cohen,5836 SEPULVEDA BLVD,SHERMAN OAKS,California,91411,(818) 780-4044,http://www.valleycarpetone.com,,
VALUE CARPET ONE,Chris Adams,1530 N SALISBURY BLVD,SALISBURY,Maryland,21801,(410) 742-5224,http://www.carpetone.com,,
VALUE PLUS FLOORING,Stacia Almendarez,3109 NEIL ARMSTRONG BLVD,PAUL,Minnesota,55121,(651) 454-9344,http://www.valueplusflooring.com,,
VAN DRIE CARPET ONE FLOOR & HOME,Bonnie Borza,7591 S US 131,CADILLAC,Michigan,49601,(231) 775-8536,http://www.vandrie.com,,
"VAN'S FLOORING & TILE, INC",Ralph Vandeveer,91-1174 KAIOPUA ST,EWA BEACH,Hawaii,96706,(808) 689-4187,,,
VERHEY CARPETS,Karla Wischmeyer Dunagan,1113 WEALTHY ST SE,GRAND RAPIDS,Michigan,49506,(616) 459-7344,http://www.verheycarpets.com,,
VERSATILE CARPETS & INTERIORS,Tim Verhulst,731 MAIN ST,SPEARFISH,South Dakota,57783,(605) 642-7300,http://www.warmfloor.com,,
"VERTICAL CONNECTION, THE\CARPET ONE",Steven Joss,8895 MCGAW RD,COLUMBIA,Maryland,21045,(410) 730-7423,http://www.verticalconnection.com,,
"VICTORY FLOORS, INC",Victor Rasa,7411-D LINDBERGH DR,GAITHERSBURG,Maryland,20879,(301) 330-6609,,,
VILLAGE BARN CARPETS,David Schipono,2650 S VAN DYKE RD,IMLAY CITY,Michigan,48444,(810) 724-6483,http://www.villagebarncarpets.com,,
"WALTER'S CARPET GALLERY, INC",Steven Walter,2450 S MAIN ST,W BEND,Wisconsin,53095,(262) 338-8752,,,
WATSON CARPET & FLOOR COVERING,Johnny Watson,"1850 GENERAL GEORGE PATTON DR, STE D",FRANKLIN,Tennessee,37067,(615) 371-1112,http://www.watsonfloorgallery.com,,
WC FLOORING,William Churchill,561 HOCHELAGA ST W,MOOSE JAW,Saskatchewan,S6H 2H1,(306) 681-4039,,,
WES MARTIN INTERIORS,Susan Kreakie,2600 AKRON RD,WOOSTER,Ohio,44691,(330) 264-8000,http://www.martininteriors.com,,
WESCOTT FLOOR COVERING INC,Jim Wescott,5585 S LOTTO LANE,FREELAND,Washington,98249,(360) 331-1466,,,
WFH ENTERPRISES INC,Elizabeth O'Toole,2056 WISCONSIN AVE,DOWNERS GROVE,Illinois,60515,(630) 719-8800,,,
WHEAT'S CARPET ONE,Terry Wheat,51 MC FARLAND BLVD,NORTHPORT,Alabama,35476,(205) 349-2233,,,
WILSON QUALITY PAINT & FLOORCOVERING,Matthew Wilson,612 N MAIN #3,KAYSVILLE,Utah,84037,(801) 544-1779,http://www.wilsonspaint.com,,
"WILSON TILE & MARBLE, INC",Jeff Wilson,3318 NE 55TH ST,SEATTLE,Washington,2309,(206) 517-4438,http://www.wtile.com,,
WILSONVILLE CARPET & TILE,Mark Williams,PO BOX 623,WILSONVILLE,Oregon,97070,(503) 682-2520,http://wilsonvillecarpet.com,,
WITTENBERG FLOOR COVERING,Mark Wittenberg,W 63 N 139 WASHINGTON AVE,CEDARBURG,Wisconsin,53012,(262) 377-0930,http://www.wittenbergfloorcov.com,,
"WOODS INTERIORS, THE",Ron Wood,PO BOX 648,SHERIDAN,Wyoming,82801,(307) 672-9304,http://www.thewoodsinteriorsflooringamerica.com,,
WORLDWIDE WHOLESALE FLOOR COVERINGS,Darren Braunstein,1055 ROUTE 1,EDISON,New Jersey,8837,(732) 906-1400,http://www.worldwidewholesale.com,,
YETZERS HOME FURNISHINGS,Steve Yetzer,33 W 1ST ST,WACONIA,Minnesota,55387,(952) 442-4242,http://www.yetzers.com,,
YONAN CARPET ONE,Brendan Lynch,7040 W NORTH AVE,CHICAGO,Illinois,60707,(773) 889-7500,http://www.yonancarpetone.com,,
YONAN CARPET ONE FLOOR & HOME,Jennifer Lynch,730 OGDEN AVE,DOWNERS GROVE,Illinois,60515,(630) 963-2000,http://www.yonancarpetone.com,,
ZEZZA CARPET OUTLET INC / BIG BOB'S,Jack Zezza,4560 CENTRAL AVE NE,MINNEAPOLIS,Minnesota,55421,(763) 574-2545,http://www.bigbobsmn.com,,
"A. BOTTINI ENTERPRISES, INC",Pepper Bottini,8871 MURAOKA DR,GILROY,California,95020,(408) 843-9888,http://www.abottini.com,,
ABBEY CARPET COMPANY INC,Steve Silverman,3471 BONITA BAY BLVD,BONITA SPRINGS,Florida,4364,(239) 948-0900,http://abbeycarpet.com,,
AIM CRUISE INCENTIVES,Barry Lubin,6056 DOVETAIL DR,AGOURA HILLS,California,91301,(866) 541-9090,http://www.AIMcruise.com,,
AYA ASSOCIATES INC,Edgar Aya,"331 N MAITLAND AVE, STE D-10",MAITLAND,Florida,32751,(407) 539-1800,http://www.comp-u-floor.com,,
B N P MEDIA,Phillip Johnson,"22801 VENTURA BLVD, STE 115",WOODLAND HILLS,California,1222,(818) 224-8035,http://www.ntlfloortrends.com,,
BEST DISPLAYS,Joe Novoty,ONE BURLINGTON RD,GALVA,Illinois,61434,(800) 344-2378,http://jhbest.com,,
CHEMICAL COATINGS INC / CCI,Adam Fuhr,PO BOX 22000,HICKORY,North Carolina,28603,(828) 267-6416,http://www.ccicoatings.com,,
"DANCIK INTERNATIONAL, LTD",Randy Scheid,2000 CENTRE GREEN WAY #250,CARY,North Carolina,27513,(919) 379-3800,http://dancik.com,,
DEALER IGNITION,Steven Wagner,700 E NORTH ST #10,GREENVILLE,South Carolina,29601,(888) 344-6483,http://www.dealerignition.com,,
"E - Z CUT, INC",George Bradics,"420 DES MEURONS ST, UNIT 106",WINNIPEG,Manitoba,R2H 2N9,(204) 235-1122,http://www.ezcut.com,,
ELOF HANSSON USA INC,Niklas Karlsson,907 PEACHTREE INDUSTRIAL BLVD # 304,SUWANEE,Georgia,30024,(770) 614-7896,http://www.elofhansson.com,,
FLOOR COVERING NEWS,Matt Spieler,"550 W. OLD COUNTRY ROAD, SUITE 204",HICKSVILLE,New York,11801,(516) 932-7860,,,
FLOOR COVERING NEWS,Steve Feldman,"550 W. OLD COUNTRY RD, SUITE 204",HICKSVILLE,New York,11801,(516) 932-7860,,,
FLOOR COVERING SOFT (INFOAPPLIANCE INC),Steven Wang,"221 E WALNUT ST, STE 250",PASADENA,California,91101,(626) 683-9188,http://www.floorcoveringsoft.com,,
FLOOR COVERING WEEKLY,Santiago Montero,"50 CHARLES LINDBERGH BLVD., SUITE 100",UNIONDALE,New York,11553,(516) 229-3600,,,
FLOOR FOCUS MAGAZINE,Kemp Harr,PO BOX 3399,CHATTANOOGA,Tennessee,37404,(423) 752-0400,http://www.floordaily.net,,
FLOORINGSOFT.COM BY KASHMOO,Tim Magnuson,PO BOX 202705,AUSTIN,Texas,78720,(888) 448-0101,http://www.flooringsoft.com,,
FORD COMMERCIAL TRUCK,Mary Kemmer,"210 N CASS AVE, STE A",WESTMONT,Illinois,60559,(630) 353-1300,http://www.commtruck.ford.com,,
GREEN CHOICE FLOORING INTERNATIONAL,Steve VanderWeide,6227 136TH AVE,HOLLAND,Michigan,49424,(866) 915-1120,http://www.greenchoiceflooring.com,,
"HOMEOWNERS MARKETING SERVICES, INC",Barry Weiner,"12444 VICTORY BLVD, 2ND FL",NORTH HOLLYWOOD,California,91606,(800) 232-2134,http://www.homeown.org,,
"I C E, INC",Michael Garceau,68 ROUTE 125,KINGSTON,New Hampshire,3848,(603) 347-3005,http://www.icesigns.com,,
"KONIG NORTH AMERICA, LLC",Brian Dengler,"2800 BLACK LAKE PL, UNIT D",PHILADELPHIA,Pennsylvania,19154,(215) 426-6216,http://www.konigtouchup.com,,
"LANDSTAR SYSTEM, INC",Jamie Rohrbaugh,13410 SUTTON PARK DR S,JACKSONVILLE,Florida,32224,(904) 390-1408,http://www.landstar.com,,
"LIGNOMAT USA, LTD",Grete Heimerdinger,14345 NE MORRIS CT,PORTLAND,Oregon,97230,(503) 257-8957,http://www.lignomat.com,,
MAPLE LEAF LAMISOL CORP,Roger Gagnon,23 TAYLORWOOD AVE,BOLTON,Ontario,L7E 1J2,(905) 951-6711,,,
MOHAWK FINISHING PRODUCTS,Renee Webb,PO BOX 22000,HICKORY,North Carolina,28603,(800) 545-0047,http://www.mohawk-finishing.com,,
"NATIONAL WOOD FLOORING ASSOCIATION, INC",Michael Martin,111 CHESTERFIELD INDUSTRIAL BLVD,CHESTERFIELD,Missouri,63005,(800) 422-4556,http://www.nwfa.org,,
NOBLE COMPANY,Richard Maurer,PO BOX 350,GRAND HAVEN,Michigan,49417,(231) 799-8000,http://noblecompany.com,,
PACIFIC SOLUTIONS SOFTWARE,ROBERT Noe,"16990 VIA TAZON, STE 122",SAN DIEGO,California,1649,(858) 676-9818,http://www.pacific-solutions.com,,
PAK-LITE INC / PLI,Kimberly Liemkeo,550 OLD PEACHTREE RD NW,SUWANEE,Georgia,30024,(770) 447-5123,http://www.pliusa.com,,
"PAM FASTENING TECHNOLOGY, INC",Bill Strother,1108 A CONTINENTAL BLVD,CHARLOTTE,North Carolina,28273,(704) 394-3141,http://www.pamfast.com,,
POLY-TAK PROTECTION SYSTEMS INC,Nath Geetha,1301 SANTA FE DR,TUSTIN,California,6433,(714) 842-6128,http://www.polytak.com,,
"POWR-FLITE, A TACONY CORPORATION",Carey Wells,3101 WICHITA CT,FORT WORTH,Texas,76140,(800) 880-2913,http://www.powr-flite.com,,
PROVIDENCE INC,John Mapes,920 W PRAIRIE DR #M,SYCAMORE,Illinois,60178,(815) 895-9911,http://www.myflooringwarranty.com,,
"SAFEHARBOR SOFTWARE, INC",Larry Nickerson,12400 CAPRI CIR N,TREASURE ISLAND,Florida,33706,(727) 360-0004,http://carpetestimating.com,,
SIENA TILE & STONE INSTALLATION / OMEGA PRODUCTS,Debi Mosqueda,1681 CALIFORNIA AVE,CORONA,California,92881,(951) 737-7447,,,
SIRIANI & ASSOC INC,Cynthia Siriani,"3505 CADILLAC AVE,  F3",COSTA MESA,California,92626,(800) 554-0005,http://www.siriani.com,,
STAUF USA LLC,David Ford,11121 HWY 70 #102,ARLINGTON,Tennessee,38002,(901) 820-0007,http://www.staufusa.com,,
"SUNCO HARDWOOD FLOORING, INC",Sue Song,524 INDUSTRIAL DR,NAPERVILLE,Illinois,60563,(630) 362-6800,http://www.suncofloors.com,,
TEXTILE MANAGEMENT SYSTEMS,Dev O'Reilley,PO BOX 248,HAMMOND,Louisiana,248,(850) 277-0730,http://www.rmaster.com,,
TRADE COMMISSION OF SPAIN,Mario Buisan,2655 LE JEUNE RD #1114,CORAL GABLES,Florida,33134,(305) 446-4387,http://www.spaintiles.info,,
TRAXX CORPORATION,Denise Mascarella,1201 E LEXINGTON AVE,POMONA,California,91766,(909) 623-8032,,,
UNIQUE BUILDING CONCEPTS,Sheri Clifton,2514 E MOHAWK LANE #101,PHOENIX,Arizona,85050,(602) 404-0690,http://www.uniquebuildingconcepts.com,,
UNITED PLASTICS CORP,Jack Nagy,511 HAY ST,MT AIRY,North Carolina,27030,(336) 786-2127,http://www.unitedplastics.com,,
WARMLY YOURS,Victoria Hale,"2 CORPORATE DR, STE 100",LONG GROVE,Illinois,60047,(800) 875-5285,http://www.warmlyyours.com,,
WOOLS OF NEW ZEALAND,Elise Demboski,PO BOX 669273,MARIETTA,Georgia,30062,(800) 367-0462,http://www.woolsnz.com,,
ZOROUFY STAIR RODS,Hassan Zoroufy,PO BOX 620345,MIDDLETON,Wisconsin,53562,(608) 833-9026,http://www.zoroufy.com,,
PROSOURCE OF CONCORD,Adam Fravel,1340 GALAXY WAY SUITE L,CONCORD,California,94520,(925) 609-9448,,,
PROSOURCE OF EAST COLUMBUS,Steven Riesenberg,750 CROSS POINTE RD BLDG 5 SUITE I J,GAHANNA,Ohio,43230,(614) 751-8451,http://www.prosourcefloors.com,,
PROSOURCE OF LAKEWOOD,Alan Reames,PO BOX 39700,LAKEWOOD,Washington,98496,(253) 581-9800,,,
PROSOURCE OF NEWPORT NEWS,Mike Palmer,301 VILLAGE AVE,YORKTOWN,Virginia,23693,(757) 369-3331,http://www.porsourcefloors.com,,
PROSOURCE OF NORTH ORANGE COUNTY,David Fuerst,3224 YORBA LINDA BLVD SUITE 642,FULLERTON,California,92831,(714) 773-9331,http://www.prosourcefloors.com,,
PROSOURCE OF POMPANO,Jeff Glass,8174 N UNIVERSITY DR,TAMARAC,Florida,33321,(954) 590-2121,http://www.prosourcefloors.com,,
PROSOURCE OF RALEIGH,Jody Offstein,465 PITTSBURGH RD,BUTLER,Pennsylvania,16002,(724) 586-9350,http://www.prosourcefloors.com/raleigh,,
PROSOURCE OF SOUTH JERSEY,Mark Grossman,411 BLOOMFIELD DR #2,WEST BERLIN,New Jersey,8091,(856) 768-6700,,,
PROSOURCE OF SYRACUSE,Stuart Shapiro,6361 THOMPSON RD,SYRACUSE,New York,13206,(315) 431-0709,http://www.prosourcefloors.com/syracuse,,
PROSOURCE OF WEST COLUMBUS,Steven Riesenberg,5225 TRABUE ROAD,COLUMBUS,Ohio,43228,(614) 870-0880,http://www.prosourcefloors.com/columbuswest,,
FLOOR COVERINGS INTERNATIONAL,Michael Killeen,"1014 NEW JERSEY 33, UNIT 5",FREEHOLD,New Jersey,7728,(732) 462-0110,http://www.monmouth.floorcoveringsinternational.com,,